{
"type": "FeatureCollection",
"name": "got_wall",
"features": [
{ "type": "Feature", "properties": { "id": 1, "name": "The Wall" }, "geometry": { "type": "LineString", "coordinates": [ [ 20.028073503674655, 35.623428797604177 ], [ 19.320168541651203, 35.597569255612456 ], [ 18.628425793372575, 35.545850171629006 ], [ 18.453873884928434, 35.545850171629006 ], [ 18.272857090986363, 35.571709713620727 ], [ 17.981937243579466, 35.5555474998759 ], [ 17.800920449637395, 35.532920400633145 ], [ 17.671622739678774, 35.477968873900728 ], [ 17.490605945736696, 35.469887767028318 ], [ 17.076853273869109, 35.405238912049008 ], [ 16.714819685984967, 35.418168683044875 ], [ 16.585521976026353, 35.494131087645549 ], [ 16.475618922561523, 35.523223072386237 ], [ 16.391575411088411, 35.495747309020047 ], [ 16.336623884356005, 35.423017347168305 ], [ 16.223488388142211, 35.384228034180722 ], [ 15.8485250292622, 35.327660286073836 ], [ 15.686902891813924, 35.34543872119314 ], [ 15.51558342611875, 35.316346736452452 ], [ 15.460631899386335, 35.274324980715896 ], [ 15.480026555880128, 35.183816583744864 ], [ 15.470329227633233, 35.115935286016587 ], [ 15.353961288670472, 35.054518873786243 ], [ 15.195571593971161, 35.015729560798654 ], [ 15.027484571024953, 34.980172690560032 ], [ 14.972533044292538, 35.00926467530072 ], [ 14.801213578597366, 34.95754559131727 ], [ 14.675148311387709, 34.860572308848312 ] ] } }
]
}
