{
"type": "FeatureCollection",
"name": "got_lakes",
"features": [
{ "type": "Feature", "properties": { "id": 1, "name": "God's Eye", "continent": "Westeros" }, "geometry": { "type": "Polygon", "coordinates": [ [ [ 16.212156538249399, 8.503559269380366 ], [ 16.28648674267389, 8.521163791480905 ], [ 16.369009376639205, 8.509701427879754 ], [ 16.366685121131894, 8.456613877112266 ], [ 16.329520018919649, 8.435097238989387 ], [ 16.317521974791884, 8.411407297080325 ], [ 16.307025351791186, 8.37054732462075 ], [ 16.330498047925236, 8.339250396442015 ], [ 16.377443440193336, 8.323601932352648 ], [ 16.426344890472606, 8.309909526274453 ], [ 16.495387544809901, 8.322474512071317 ], [ 16.555444719209884, 8.331426164397332 ], [ 16.626049136742495, 8.330970755704556 ], [ 16.724740516675237, 8.313113166280896 ], [ 16.813673301684243, 8.294390474700052 ], [ 16.929896340016711, 8.173808409183408 ], [ 17.003382003768007, 8.172985465492493 ], [ 17.060107686091964, 8.145600653336102 ], [ 17.130525774494114, 8.139732479302589 ], [ 17.087492498248356, 8.081050738967464 ], [ 17.054239512058452, 8.022368998632338 ], [ 17.038591047969081, 7.981291780397751 ], [ 17.028810757913227, 7.916741866029112 ], [ 17.071844034158989, 7.86588435773867 ], [ 17.110965194382405, 7.826763197515254 ], [ 17.110965194382405, 7.777861747235982 ], [ 17.081624324214843, 7.740696645023736 ], [ 17.015118351835032, 7.709399716845002 ], [ 16.991645655700982, 7.650717976509877 ], [ 16.999746271803886, 7.587068982171132 ], [ 16.970129017578103, 7.554382119459713 ], [ 16.909491219231807, 7.536777597359175 ], [ 16.866457942986049, 7.482007973046391 ], [ 16.833204956796145, 7.405721710610728 ], [ 16.839073130829657, 7.32307825963876 ], [ 16.833204956796145, 7.250704113225439 ], [ 16.776479274472191, 7.190066314879142 ], [ 16.758874752371653, 7.135296690566358 ], [ 16.772567158449849, 7.049230138074841 ], [ 16.788215622539216, 6.982724165695032 ], [ 16.796039854583899, 6.935778773426932 ], [ 16.825380724751462, 6.88492126513649 ], [ 16.803864086628582, 6.824283466790193 ], [ 16.743226288282283, 6.763645668443897 ], [ 16.680632431924817, 6.74799720435453 ], [ 16.635643097667888, 6.69909575407526 ], [ 16.558378806226639, 6.694694623550125 ], [ 16.480136485779806, 6.690782507527784 ], [ 16.435147151522873, 6.628188651170317 ], [ 16.378421469198919, 6.630144709181487 ], [ 16.315827612841453, 6.667309811393733 ], [ 16.23758529239462, 6.70643097161715 ], [ 16.208244422227057, 6.755332421896421 ], [ 16.104573347635, 6.77489300200813 ], [ 16.091697158570597, 6.815227235922841 ], [ 16.094793057579146, 6.868783786544331 ], [ 16.053715839344559, 6.91377312080126 ], [ 15.993078040998263, 6.966586687102873 ], [ 15.934396300663138, 7.021356311415657 ], [ 15.905055430495574, 7.072213819706099 ], [ 15.846373690160449, 7.117203153963028 ], [ 15.844417632149279, 7.187621242365179 ], [ 15.887450908395037, 7.265863562812013 ], [ 15.889406966406208, 7.387139159504605 ], [ 15.834637342093425, 7.46733753796261 ], [ 15.77986771778064, 7.527975336308907 ], [ 15.834637342093425, 7.594481308688716 ], [ 15.868177376851635, 7.709306362798685 ], [ 15.907011488506745, 7.757323138118688 ], [ 15.96178111281953, 7.812092762431472 ], [ 15.897231198450891, 7.862950270721914 ], [ 15.856153980216304, 7.896203256911819 ], [ 15.858110038227474, 7.966621345313969 ], [ 15.913579832513298, 7.999183579715471 ], [ 15.93830841668548, 8.067358332889269 ], [ 15.969605344864213, 8.126040073224393 ], [ 16.012638621109971, 8.153424885380785 ], [ 15.995034099009434, 8.21210662571591 ], [ 15.959825054808359, 8.253183843950499 ], [ 16.006770447076459, 8.323601932352648 ], [ 16.043935549288705, 8.368591266609579 ], [ 16.125614386088237, 8.388003932604271 ], [ 16.212156538249399, 8.446833587056412 ], [ 16.212156538249399, 8.503559269380366 ] ] ] } },
{ "type": "Feature", "properties": { "id": 2, "name": "Red Lake", "continent": "Westeros" }, "geometry": { "type": "Polygon", "coordinates": [ [ [ 6.796012360658418, 1.75069699836221 ], [ 6.870442973273066, 1.791142170272461 ], [ 6.953174707179564, 1.79609945402387 ], [ 7.040487121913534, 1.831024419917457 ], [ 7.110337053700709, 1.806576943791955 ], [ 7.173201992309169, 1.747204501772851 ], [ 7.152247012773016, 1.680847066575035 ], [ 7.103352060521992, 1.607504638198501 ], [ 7.002069659430587, 1.631952114324003 ], [ 6.921742237875334, 1.607504638198501 ], [ 6.858877299266876, 1.551624692768756 ], [ 6.761087394764829, 1.537654706411326 ], [ 6.719177435692524, 1.586549658662344 ], [ 6.785534870890341, 1.659892087038878 ], [ 6.796012360658418, 1.75069699836221 ] ] ] } },
{ "type": "Feature", "properties": { "id": 3, "name": null, "continent": "Westeros" }, "geometry": { "type": "Polygon", "coordinates": [ [ [ 9.977955149396513, 23.908983150859168 ], [ 9.977955149396513, 23.967664891194293 ], [ 10.013164193597587, 24.006786051417709 ], [ 10.001427845530563, 24.086984429875713 ], [ 9.975999091385342, 24.155446460266695 ], [ 9.977955149396513, 24.231732722702358 ], [ 9.993603613485879, 24.282590230992799 ], [ 10.003383903541733, 24.313887159171532 ], [ 10.040549005753981, 24.327579565249728 ], [ 10.083582281999739, 24.337359855305582 ], [ 10.10901103614496, 24.360832551439632 ], [ 10.093362572055593, 24.415602175752415 ], [ 10.089450456033251, 24.474283916087543 ], [ 10.030768715698127, 24.48993238017691 ], [ 9.991647555474708, 24.515361134322131 ], [ 10.030768715698127, 24.531009598411497 ], [ 10.083582281999739, 24.544702004489693 ], [ 10.112923152167301, 24.589691338746622 ], [ 10.167692776480086, 24.63272461499238 ], [ 10.218550284770528, 24.67233478971859 ], [ 10.253759328971602, 24.711455949942007 ], [ 10.326133475384925, 24.736884704087228 ], [ 10.382859157708879, 24.746664994143082 ], [ 10.459145420144541, 24.736884704087228 ], [ 10.527607450535521, 24.732483573562092 ], [ 10.599981596948842, 24.691406355327505 ], [ 10.611717945015869, 24.630768556981209 ], [ 10.619542177060552, 24.58577922272428 ], [ 10.680179975406848, 24.566218642612572 ], [ 10.688004207451531, 24.472327858076373 ], [ 10.646926989216944, 24.460591510009348 ], [ 10.592157364904159, 24.456679393987006 ], [ 10.541299856613717, 24.433206697852953 ], [ 10.574552842803621, 24.405821885696561 ], [ 10.609761887004698, 24.388217363596024 ], [ 10.633234583138748, 24.347140145361436 ], [ 10.689960265462702, 24.33149168127207 ], [ 10.750598063808997, 24.323667449227386 ], [ 10.869917602490419, 24.300194753093336 ], [ 10.909038762713838, 24.268897824914603 ], [ 10.912950878736179, 24.239556954747041 ], [ 10.877741834535103, 24.210216084579478 ], [ 10.887522124590957, 24.176963098389574 ], [ 10.928599342825546, 24.135885880154984 ], [ 10.91490693674735, 24.112413184020934 ], [ 10.889478182602128, 24.077204139819859 ], [ 10.82492826823349, 24.114369242032105 ], [ 10.777982875965391, 24.135885880154984 ], [ 10.750598063808997, 24.098720777942738 ], [ 10.719301135630264, 24.067423849764005 ], [ 10.672355743362164, 24.071335965786346 ], [ 10.623454293082894, 24.075248081808688 ], [ 10.584333132859475, 24.098720777942738 ], [ 10.529563508546692, 24.086984429875713 ], [ 10.47674994224508, 24.067423849764005 ], [ 10.472837826222738, 24.028302689540588 ], [ 10.431141425048457, 24.005247138428999 ], [ 10.333771139979394, 24.007622815873155 ], [ 10.302660779250873, 24.047863269652296 ], [ 10.235981235477347, 24.056517768124177 ], [ 10.195077588636478, 24.024390573518247 ], [ 10.15791248642423, 23.983313355283659 ], [ 10.120747384211985, 23.926587672959705 ], [ 10.058153527854518, 23.895290744780972 ], [ 10.007296019564075, 23.873774106658093 ], [ 9.977955149396513, 23.908983150859168 ] ] ] } },
{ "type": "Feature", "properties": { "id": 4, "name": null, "continent": "Westeros" }, "geometry": { "type": "Polygon", "coordinates": [ [ [ 8.114905752362141, 23.80804243944786 ], [ 8.030862240889038, 23.921177935661653 ], [ 8.022019391851309, 24.002507174518261 ], [ 8.077343787552721, 24.053934096826278 ], [ 8.089046210370416, 24.179773355578895 ], [ 8.056721782880761, 24.289676409043725 ], [ 8.001770256148347, 24.286039910951143 ], [ 7.985608042403519, 24.296141294541655 ], [ 7.971870160720416, 24.313515674317348 ], [ 7.959748500411795, 24.367255035018896 ], [ 7.967829607284209, 24.387053746856314 ], [ 8.020356801954899, 24.411297067473555 ], [ 8.028448835301697, 24.42413873529831 ], [ 8.034902794325244, 24.446853937712177 ], [ 8.035433828480416, 24.511451150032283 ], [ 8.030862240889038, 24.632315340434072 ], [ 8.111673309613176, 24.677569538919592 ], [ 8.127835523358003, 24.732521065652005 ], [ 8.147230179851796, 24.771310378639591 ], [ 8.186019492839383, 24.690499309915452 ], [ 8.208646592082141, 24.616153126689245 ], [ 8.263598118814556, 24.557969157207864 ], [ 8.279760332559384, 24.480390531232693 ], [ 8.244983623841943, 24.350796306921779 ], [ 8.282992775308349, 24.289676409043725 ], [ 8.276527889810419, 24.228259996813378 ], [ 8.250668347818694, 24.183005798327862 ], [ 8.192484378337314, 24.157146256336137 ], [ 8.176547974733808, 24.134541090272293 ], [ 8.17164119546541, 24.043456607058204 ], [ 8.135470756499219, 23.952627695233407 ], [ 8.147207104566244, 23.873407345780986 ], [ 8.114905752362141, 23.80804243944786 ] ] ] } },
{ "type": "Feature", "properties": { "id": 5, "name": null, "continent": "Westeros" }, "geometry": { "type": "Polygon", "coordinates": [ [ [ 8.089046210370416, 25.217387477996837 ], [ 8.073442979946821, 25.427126821303503 ], [ 8.017932469893175, 25.456588241420288 ], [ 8.035025517463875, 25.521424229216194 ], [ 8.092278653119383, 25.569723737634082 ], [ 8.07934888212352, 25.624675264366495 ], [ 8.031533020874516, 25.640169113254391 ], [ 7.998537813399381, 25.721648546835461 ], [ 7.911261859177311, 25.750740531576152 ], [ 7.99207292790145, 25.770135188069943 ], [ 8.017932469893175, 25.821854272053393 ], [ 8.111860442429768, 25.860196398383994 ], [ 8.089046210370416, 25.902665340777531 ], [ 8.156927508098693, 25.970546638505809 ], [ 8.247435905069729, 25.941454653765117 ], [ 8.305619874551109, 25.854178699543048 ], [ 8.367036286781454, 25.786297401814771 ], [ 8.282992775308349, 25.692556562094772 ], [ 8.244203462320764, 25.585885951378909 ], [ 8.299154989053177, 25.488912668909943 ], [ 8.258545299182837, 25.388709358820559 ], [ 8.215111477580074, 25.288501218474078 ], [ 8.150462622600761, 25.058997783297524 ], [ 8.089046210370416, 25.217387477996837 ] ] ] } },
{ "type": "Feature", "properties": { "id": 6, "name": "Long Lake", "continent": "Westeros" }, "geometry": { "type": "Polygon", "coordinates": [ [ [ 16.535884139098169, 28.73506727892045 ], [ 16.524147791031144, 28.819666787903589 ], [ 16.512411442964119, 28.886172760283397 ], [ 16.475246340751873, 28.929206036529155 ], [ 16.477202398763044, 28.985931718853109 ], [ 16.49089480484124, 29.038745285154722 ], [ 16.518279616997631, 29.089602793445167 ], [ 16.520235675008802, 29.158064823836146 ], [ 16.500675094897094, 29.203054158093074 ], [ 16.465466050696019, 29.228482912238295 ], [ 16.438081238539624, 29.257823782405858 ], [ 16.438081238539624, 29.296944942629274 ], [ 16.479439286067578, 29.336375007499964 ], [ 16.486982688818898, 29.383011495120794 ], [ 16.477202398763044, 29.428000829377723 ], [ 16.488938746830069, 29.490594685735189 ], [ 16.512411442964119, 29.506243149824556 ], [ 16.522191733019973, 29.543408252036802 ], [ 16.500675094897094, 29.594265760327243 ], [ 16.483070572796557, 29.657348631187503 ], [ 16.478669442271418, 29.69329119714277 ], [ 16.46742210870719, 29.72189854555614 ], [ 16.43808123853962, 29.778379720628699 ], [ 16.42830094848377, 29.809921156058831 ], [ 16.43612518052845, 29.84072906973477 ], [ 16.449817586606649, 29.864690780371614 ], [ 16.486982688818898, 29.905767998606201 ], [ 16.514367500975286, 29.938531970293312 ], [ 16.522191733019973, 29.962493680930155 ], [ 16.509966370450151, 29.986455391566999 ], [ 16.488938746830069, 30.007483015187084 ], [ 16.470356195723948, 30.037312899857444 ], [ 16.463509992684845, 30.077167581835049 ], [ 16.420476716439087, 30.077901103589237 ], [ 16.38135555621567, 30.097461683700946 ], [ 16.436369687779823, 30.166412728594711 ], [ 16.49113931209261, 30.236830816996861 ], [ 16.532216530327197, 30.28182015125379 ], [ 16.565469516517101, 30.30724890539901 ], [ 16.588942212651151, 30.336589775566573 ], [ 16.594810386684664, 30.360062471700623 ], [ 16.567425574528272, 30.373754877778818 ], [ 16.545908936405393, 30.403095747946384 ], [ 16.541996820383051, 30.450041140214484 ], [ 16.577205864584126, 30.465689604303851 ], [ 16.604590676740518, 30.506766822538438 ], [ 16.637843662930422, 30.530239518672488 ], [ 16.637843662930422, 30.579140968951759 ], [ 16.659360301053301, 30.614350013152833 ], [ 16.665228475086813, 30.637822709286883 ], [ 16.645667894975105, 30.682812043543812 ], [ 16.671096649120326, 30.722422218270022 ], [ 16.682832997187351, 30.773279726560467 ], [ 16.716085983377255, 30.792840306672176 ], [ 16.749338969567162, 30.806532712750371 ], [ 16.774767723712383, 30.82609329286208 ], [ 16.778679839734725, 30.857390221040813 ], [ 16.770855607690041, 30.904335613308913 ], [ 16.778435332483355, 30.95323706358819 ], [ 16.813644376684429, 30.990402165800436 ], [ 16.866457942986042, 30.943456773532336 ], [ 16.868414000997213, 30.912159845353603 ], [ 16.837117072818479, 30.871082627119016 ], [ 16.833204956796138, 30.835873582917941 ], [ 16.833204956796138, 30.78697213263867 ], [ 16.852765536907846, 30.712641928214175 ], [ 16.854721594919017, 30.636355665778513 ], [ 16.842985246851992, 30.573761809421047 ], [ 16.79017168055038, 30.505299779030068 ], [ 16.762786868393988, 30.454442270739623 ], [ 16.784303506516867, 30.42314534256089 ], [ 16.796039854583892, 30.366419660236936 ], [ 16.76669898441633, 30.303825803879469 ], [ 16.719753592148226, 30.264704643656053 ], [ 16.711929360103543, 30.195264584259487 ], [ 16.721709650159397, 30.134626785913191 ], [ 16.721709650159397, 30.103329857734458 ], [ 16.700193012036518, 30.056384465466358 ], [ 16.685767084204134, 30.025209790913323 ], [ 16.687723142215305, 29.983154543673148 ], [ 16.693102301746023, 29.943544368946938 ], [ 16.715841476125885, 29.909680114628543 ], [ 16.740047694014123, 29.892809114282194 ], [ 16.748849955064394, 29.849775838036436 ], [ 16.742003752025294, 29.805275518282301 ], [ 16.71608598337728, 29.783269865656628 ], [ 16.690412721980664, 29.759063647768389 ], [ 16.685767084204134, 29.725566154327087 ], [ 16.674764257891297, 29.694513733399749 ], [ 16.6544701560254, 29.672263573522681 ], [ 16.618038575567343, 29.647568341131649 ], [ 16.608258285511489, 29.606491122897062 ], [ 16.653247619768418, 29.577150252729499 ], [ 16.65715973579076, 29.554655585601033 ], [ 16.604346169489148, 29.478369323165371 ], [ 16.604346169489148, 29.413819408796734 ], [ 16.594565879433294, 29.28667563807063 ], [ 16.637599155679052, 29.202565143590281 ], [ 16.651291561757247, 29.124811837646241 ], [ 16.627818865623198, 29.055860792752469 ], [ 16.631730981645539, 29.005492298964818 ], [ 16.61021434352266, 28.967838182249778 ], [ 16.576961357332756, 28.913557572439789 ], [ 16.573049241310414, 28.793749019255575 ], [ 16.535884139098169, 28.73506727892045 ] ] ] } },
{ "type": "Feature", "properties": { "id": 7, "name": null, "continent": "Westeros" }, "geometry": { "type": "Polygon", "coordinates": [ [ [ 16.633531809177178, 45.25673465371807 ], [ 16.701184263730806, 45.263177744627946 ], [ 16.694741172820937, 45.166531380979904 ], [ 16.710848900095609, 45.095657380971346 ], [ 16.649639536451851, 45.011897199143043 ], [ 16.643196445541982, 44.905586199130205 ], [ 16.62064562735744, 44.770281290022957 ], [ 16.556214718258751, 44.705850380924261 ], [ 16.475676081885386, 44.660748744555178 ], [ 16.475676081885386, 44.738065835473606 ], [ 16.475676081885386, 44.802496744572302 ], [ 16.501448445524861, 44.863706108216057 ], [ 16.514334627344599, 44.941023199134484 ], [ 16.578765536443292, 45.060220380967067 ], [ 16.604537900082768, 45.160088290070036 ], [ 16.633531809177178, 45.25673465371807 ] ] ] } },
{ "type": "Feature", "properties": { "id": 8, "name": null, "continent": "Westeros" }, "geometry": { "type": "Polygon", "coordinates": [ [ [ 14.434827036184339, 43.852140835366605 ], [ 14.413886990727264, 43.903685562645556 ], [ 14.415497763454731, 43.976170335381582 ], [ 14.396168490725124, 44.059930517209885 ], [ 14.37522844526805, 44.122750653581107 ], [ 14.362342263448312, 44.166241517222723 ], [ 14.362342263448312, 44.208121608136871 ], [ 14.341402217991236, 44.250001699051019 ], [ 14.294689808894685, 44.27255251723556 ], [ 14.288246717984816, 44.327318789969453 ], [ 14.305965217986957, 44.354701926336396 ], [ 14.341402217991236, 44.369198880883602 ], [ 14.359120717993378, 44.400206255887348 ], [ 14.365563808903246, 44.464637164986037 ], [ 14.35106685435604, 44.517792664992456 ], [ 14.355899172538441, 44.564505074089006 ], [ 14.326905263444031, 44.603163619548226 ], [ 14.323683717989097, 44.664372983191981 ], [ 14.318851399806695, 44.7175284831984 ], [ 14.31562985435176, 44.780348619569622 ], [ 14.326905263444031, 44.815785619573901 ], [ 14.383282308905386, 44.817396392301369 ], [ 14.415497763454731, 44.796456346844295 ], [ 14.426773172547003, 44.743300846837876 ], [ 14.436437808911807, 44.704642301378662 ], [ 14.467042490733684, 44.632157528642637 ], [ 14.499257945283031, 44.56772661954394 ], [ 14.544359581652115, 44.52101421044739 ], [ 14.581407354383861, 44.471080255895906 ], [ 14.594293536203599, 44.417924755889487 ], [ 14.589461218021198, 44.359936937700667 ], [ 14.560467308926787, 44.303559892239306 ], [ 14.53469494528731, 44.260069028597691 ], [ 14.513754899830236, 44.188792335407264 ], [ 14.512144127102768, 44.106642926306435 ], [ 14.520197990740105, 44.01805042629573 ], [ 14.536305718014777, 43.871470108096212 ], [ 14.504090263465432, 43.847308517184203 ], [ 14.434827036184339, 43.852140835366605 ] ] ] } },
{ "type": "Feature", "properties": { "id": 9, "name": null, "continent": "Westeros" }, "geometry": { "type": "Polygon", "coordinates": [ [ [ 15.692035149972552, 45.367475278731447 ], [ 15.627604240873861, 45.335259824182103 ], [ 15.566394877230104, 45.299822824177824 ], [ 15.491138161128793, 45.293132399743051 ], [ 15.418203786303115, 45.296601278722889 ], [ 15.324778968110012, 45.277272005993282 ], [ 15.202360240822498, 45.277272005993282 ], [ 15.102492331719528, 45.274050460538348 ], [ 15.038061422620837, 45.251499642353807 ], [ 15.00584596807149, 45.19673336961992 ], [ 14.93497196806293, 45.161296369615634 ], [ 14.809331695320482, 45.145188642340962 ], [ 14.715906877127379, 45.138745551431093 ], [ 14.648254422573753, 45.154853278705765 ], [ 14.641811331663884, 45.206398005984724 ], [ 14.641811331663884, 45.274050460538348 ], [ 14.664362149848428, 45.322776335544233 ], [ 14.674026786213231, 45.377542608278119 ], [ 14.699799149852707, 45.422644244647202 ], [ 14.802888604410613, 45.448416608286678 ], [ 14.867319513509305, 45.479021290108555 ], [ 14.885038013511444, 45.50962597193044 ], [ 14.873762604419174, 45.562781471936859 ], [ 14.894702649876248, 45.606272335578474 ], [ 14.920475013515725, 45.665870926494762 ], [ 14.951079695337603, 45.712583335591312 ], [ 14.983295149886949, 45.754463426505467 ], [ 15.015510604436294, 45.814062017421755 ], [ 15.106963536299325, 45.817006888146871 ], [ 15.169828474907783, 45.82399188132559 ], [ 15.215246422642238, 45.831780517423894 ], [ 15.252294195373985, 45.841445153788698 ], [ 15.295785059015602, 45.865606744700706 ], [ 15.342497468112153, 45.913929926524723 ], [ 15.399679899937242, 45.962655801530609 ], [ 15.429207493798513, 46.011963849632181 ], [ 15.476996990855671, 46.022254392446897 ], [ 15.475386218128204, 46.062523710633585 ], [ 15.520487854497288, 46.075409892453322 ], [ 15.57203258177624, 46.064134483361052 ], [ 15.647738899967203, 46.052859074268774 ], [ 15.70894826361096, 46.041583665176503 ], [ 15.762103763617379, 46.036751346994102 ], [ 15.861971672720351, 46.073799119725855 ], [ 15.965866513641991, 46.095544551546659 ], [ 16.043183604560422, 46.076215278817052 ], [ 16.120500695478849, 46.130981551550938 ], [ 16.207482422762084, 46.134203097005873 ], [ 16.281577968225577, 46.121316915186135 ], [ 16.271913331860773, 46.072993733362118 ], [ 16.213925513671953, 46.015005915173298 ], [ 16.181710059122608, 45.905473369705518 ], [ 16.133386877298587, 45.837820915151894 ], [ 16.020632786375877, 45.818491642422288 ], [ 15.975531150006795, 45.760503824233467 ], [ 15.962644968187057, 45.689629824224909 ], [ 15.891770968178497, 45.657414369675557 ], [ 15.846669331809412, 45.60909118785154 ], [ 15.824118513624869, 45.534995642388047 ], [ 15.878884786358757, 45.483450915109096 ], [ 15.849890877264347, 45.422241551465333 ], [ 15.785459968165656, 45.393247642370923 ], [ 15.692035149972552, 45.367475278731447 ] ] ] } },
{ "type": "Feature", "properties": { "id": 10, "name": null, "continent": "Westeros" }, "geometry": { "type": "Polygon", "coordinates": [ [ [ 17.741743445674665, 46.115679210640003 ], [ 17.744964991129603, 46.068966801543453 ], [ 17.744964991129603, 46.007757437899691 ], [ 17.735300354764796, 45.946548074255936 ], [ 17.741743445674665, 45.88050639242978 ], [ 17.719192627490123, 45.814464710603623 ], [ 17.672480218393574, 45.753255346959861 ], [ 17.645097082026631, 45.714596801500647 ], [ 17.611270854749815, 45.692045983316106 ], [ 17.562947672925798, 45.650165892401958 ], [ 17.545229172923658, 45.603453483305408 ], [ 17.540396854741257, 45.548687210571515 ], [ 17.529121445648986, 45.506807119657367 ], [ 17.504959854736978, 45.453651619650948 ], [ 17.490462900189769, 45.410160756009333 ], [ 17.458247445640424, 45.384388392369857 ], [ 17.411535036543874, 45.398885346917062 ], [ 17.403481172906538, 45.497142483292563 ], [ 17.40831349108894, 45.5792918923934 ], [ 17.416367354726276, 45.659830528766761 ], [ 17.448582809275621, 45.721039892410516 ], [ 17.495295218372171, 45.779027710599337 ], [ 17.524289127466584, 45.838626301515632 ], [ 17.529121445648986, 45.92802418789006 ], [ 17.537175309286322, 45.982790460623953 ], [ 17.591941582020208, 46.019838233355699 ], [ 17.585498491110339, 46.098766097001594 ], [ 17.59677390020261, 46.159975460645349 ], [ 17.598384672930077, 46.226017142471512 ], [ 17.574223082018069, 46.261454142475792 ], [ 17.532342991103921, 46.258232597020857 ], [ 17.508181400191912, 46.282394187932866 ], [ 17.513013718374314, 46.329106597029416 ], [ 17.548450718378593, 46.370986687943564 ], [ 17.591941582020208, 46.430585278859859 ], [ 17.630600127479426, 46.441860687952129 ], [ 17.677312536575975, 46.458371108408663 ], [ 17.724024945672525, 46.501861972050285 ], [ 17.73852190021973, 46.579179062968713 ], [ 17.773958900224013, 46.664550017524476 ], [ 17.806174354773358, 46.695154699346354 ], [ 17.836779036595235, 46.746699426625312 ], [ 17.835168263867768, 46.804687244814133 ], [ 17.780401991133882, 46.859453517548019 ], [ 17.74657576385707, 46.927105972101643 ], [ 17.777180445678948, 46.962542972105922 ], [ 17.831946718412834, 47.015698472112348 ], [ 17.848054445687506, 47.089794017575841 ], [ 17.899599172966461, 47.165500335766801 ], [ 17.93503617297074, 47.242817426685235 ], [ 17.946311582063011, 47.300805244874056 ], [ 17.983359354794757, 47.327382994877262 ], [ 18.01879635479904, 47.307248335783925 ], [ 18.033293309346245, 47.156641085765735 ], [ 18.020407127526507, 47.034222358478218 ], [ 17.98174858206729, 46.886031267551232 ], [ 17.983359354794757, 46.832070381181076 ], [ 18.020407127526507, 46.786968744811993 ], [ 18.068730309350524, 46.780525653902124 ], [ 18.070341082077992, 46.73059169935064 ], [ 18.084838036625197, 46.641193812976205 ], [ 18.06550876389559, 46.525218176598557 ], [ 18.071951854805459, 46.409242540220916 ], [ 18.097724218444935, 46.312596176572875 ], [ 18.117053491174541, 46.209506722014972 ], [ 18.155712036633759, 46.119303449276806 ], [ 18.059065672985721, 46.048429449268241 ], [ 18.046179491165983, 45.964669267439945 ], [ 18.046179491165983, 45.848693631062297 ], [ 18.025239445708909, 45.773792699235074 ], [ 18.010742491161704, 45.672314017404631 ], [ 17.98174858206729, 45.565197631028056 ], [ 17.947922354790478, 45.532176790114981 ], [ 17.912485354786199, 45.525733699205112 ], [ 17.930203854788338, 45.651373971947557 ], [ 17.954365445700347, 45.706140244681443 ], [ 17.955976218427814, 45.78184656287241 ], [ 17.918928445696068, 45.846277471971099 ], [ 17.849665218414973, 45.975541983350347 ], [ 17.849665218414973, 46.048026756086372 ], [ 17.852886763869908, 46.118900756094938 ], [ 17.812617445683227, 46.141451574279479 ], [ 17.772348127496546, 46.159170074281619 ], [ 17.741743445674665, 46.115679210640003 ] ] ] } },
{ "type": "Feature", "properties": { "id": 12, "name": null, "continent": "Essos" }, "geometry": { "type": "Polygon", "coordinates": [ [ [ 34.685412902998252, 0.364401884898461 ], [ 34.669275424406145, 0.46171577095421 ], [ 34.641890612249746, 0.536045975378703 ], [ 34.634066380205063, 0.633848875937245 ], [ 34.712308700651903, 0.762948704674521 ], [ 34.756832427663483, 0.94451247455019 ], [ 34.841408529389177, 0.993763549992681 ], [ 34.865236336458274, 1.086271432204913 ], [ 34.876617573590252, 1.201105699176791 ], [ 34.935299313925377, 1.294996483712992 ], [ 34.970508358126452, 1.377150920182167 ], [ 34.986156822215818, 1.467129588696026 ], [ 35.040926446528601, 1.533635561075835 ], [ 35.056574910617968, 1.439744776539635 ], [ 35.076135490729676, 1.361502456092801 ], [ 35.03701433050626, 1.283260135645967 ], [ 35.021365866416893, 1.205017815199133 ], [ 35.048750678573285, 1.134599726796982 ], [ 35.061197248510389, 1.040408240022503 ], [ 34.993981054260502, 0.966378737836289 ], [ 34.950947778014744, 0.923345461590531 ], [ 34.927475081880694, 0.821630445009646 ], [ 34.876617573590252, 0.774685052741546 ], [ 34.856897574243291, 0.69851898920817 ], [ 34.819373144275865, 0.635978272595795 ], [ 34.827711906490848, 0.581776318198396 ], [ 34.794356857630916, 0.467118337742366 ], [ 34.738958769309235, 0.395589529070395 ], [ 34.685412902998252, 0.364401884898461 ] ] ] } },
{ "type": "Feature", "properties": { "id": 13, "name": null, "continent": "Essos" }, "geometry": { "type": "Polygon", "coordinates": [ [ [ 35.935822986639259, -4.426962213464532 ], [ 35.96907597282916, -4.385884995229944 ], [ 36.025801655153117, -4.374637661665711 ], [ 36.062966757365359, -4.400066415810932 ], [ 36.078615221454726, -4.425495169956154 ], [ 36.090351569521751, -4.460704214157229 ], [ 36.090351569521751, -4.495913258358304 ], [ 36.113824265655801, -4.517429896481183 ], [ 36.176102660904469, -4.537767113380285 ], [ 36.205758992180833, -4.570243462782797 ], [ 36.188154470080299, -4.617188855050896 ], [ 36.145121193834541, -4.636749435162606 ], [ 36.115780323666975, -4.64848578322963 ], [ 36.10404397559995, -4.689563001464218 ], [ 36.121648497700484, -4.718903871631781 ], [ 36.134408849829548, -4.742066787647383 ], [ 36.190110528091466, -4.773673495944564 ], [ 36.190110528091466, -4.814750714179152 ], [ 36.147077251845708, -4.885168802581303 ], [ 36.164681773946249, -4.928202078827062 ], [ 36.171933279796974, -5.025584702956836 ], [ 36.102087917588776, -5.087131792234693 ], [ 36.078615221454726, -5.141901416547476 ], [ 36.012109249074918, -5.145813532569818 ], [ 35.974944146862676, -5.182978634782065 ], [ 35.943647218683942, -5.224055853016653 ], [ 35.975972367744859, -5.263239426083866 ], [ 35.978856262885017, -5.335551159653391 ], [ 35.959295682773309, -5.380540493910321 ], [ 35.925939794454955, -5.430014670383537 ], [ 35.888415364487528, -5.484216624780936 ], [ 35.834213410090136, -5.500894149210902 ], [ 35.785206519779102, -5.560497830938038 ], [ 35.730436895466319, -5.597662933150285 ], [ 35.689359677231728, -5.656344673485409 ], [ 35.69327179325407, -5.701334007742339 ], [ 35.67577692800544, -5.759395777875399 ], [ 35.638502168941287, -5.793268734267369 ], [ 35.595468892695528, -5.812829314379077 ], [ 35.548523500427429, -5.799136908300881 ], [ 35.544611384405087, -5.756103632055123 ], [ 35.538743210371578, -5.711114297798193 ], [ 35.505490224181671, -5.687641601664144 ], [ 35.468325121969421, -5.660256789507751 ], [ 35.480061470036446, -5.613311397239651 ], [ 35.515270514237521, -5.566366004971551 ], [ 35.523094746282204, -5.507684264636425 ], [ 35.517340445920752, -5.459200338135981 ], [ 35.495709934125813, -5.42748588617842 ], [ 35.468325121969421, -5.400101074022029 ], [ 35.493753876114646, -5.303765216971865 ], [ 35.507446282192838, -5.225522896525031 ], [ 35.536787152360404, -5.194225968346297 ], [ 35.571996196561479, -5.182489620279272 ], [ 35.601337066729045, -5.143368460055854 ], [ 35.607205240762553, -5.092510951765413 ], [ 35.571996196561479, -5.070994313642533 ], [ 35.55069549478069, -5.017245940741846 ], [ 35.521138688271037, -4.916465730760036 ], [ 35.519182630259863, -4.83773439581041 ], [ 35.532875036338062, -4.793234076056273 ], [ 35.538743210371578, -4.747755727296551 ], [ 35.570040138550311, -4.718414857128988 ], [ 35.624809762863094, -4.681249754916742 ], [ 35.58960071866202, -4.659733116793863 ], [ 35.558303790483286, -4.642128594693325 ], [ 35.530918978326888, -4.614743782536933 ], [ 35.536787152360404, -4.568287404771626 ], [ 35.570040138550311, -4.550193868168295 ], [ 35.683491503198219, -4.552149926179466 ], [ 35.703052083309927, -4.513028765956049 ], [ 35.759777765633878, -4.489556069821999 ], [ 35.810635273924319, -4.454347025620923 ], [ 35.867360956248277, -4.419137981419849 ], [ 35.935822986639259, -4.426962213464532 ] ] ] } },
{ "type": "Feature", "properties": { "id": 14, "name": null, "continent": "Essos" }, "geometry": { "type": "Polygon", "coordinates": [ [ [ 34.932365226908622, -6.172254973931721 ], [ 34.932365226908622, -6.205507960121626 ], [ 34.985178793210238, -6.234848830289188 ], [ 35.006695431333114, -6.277882106534947 ], [ 35.016475721388971, -6.348300194937098 ], [ 34.994959083266089, -6.42263039936159 ], [ 34.971486387132039, -6.481312139696715 ], [ 34.938233400942131, -6.496960603786082 ], [ 34.912804646796914, -6.538037822020669 ], [ 34.895200124696373, -6.575202924232916 ], [ 34.897156182707548, -6.612368026445162 ], [ 34.920628878841597, -6.655401302690921 ], [ 34.904441423119444, -6.703760598722299 ], [ 34.86390319651764, -6.741467855182438 ], [ 34.822825978283056, -6.753204203249463 ], [ 34.779792702037298, -6.766896609327659 ], [ 34.742627599825049, -6.790369305461709 ], [ 34.732847309769198, -6.837314697729809 ], [ 34.705462497612807, -6.872523741930885 ], [ 34.670253453411732, -6.88426008999791 ], [ 34.637000467221824, -6.888172206020251 ], [ 34.603747481031917, -6.888172206020251 ], [ 34.584186900920209, -6.874479799942056 ], [ 34.593967190976066, -6.831446523696297 ], [ 34.621352003132458, -6.800149595517563 ], [ 34.619395945121283, -6.766896609327659 ], [ 34.613527771087774, -6.735599681148925 ], [ 34.623308061143625, -6.70234669495902 ], [ 34.666786699992414, -6.664151478201136 ], [ 34.672209511422899, -6.575202924232916 ], [ 34.672209511422899, -6.495004545774911 ], [ 34.685901917501099, -6.438278863450956 ], [ 34.732847309769198, -6.418718283339248 ], [ 34.762188179936757, -6.365904717037635 ], [ 34.764144237947932, -6.273969990512605 ], [ 34.73675942579154, -6.23876094631153 ], [ 34.73675942579154, -6.203551902110455 ], [ 34.781748760048465, -6.172254973931721 ], [ 34.829392563184598, -6.163825745302107 ], [ 34.856078964472957, -6.150738335808842 ], [ 34.881507718618181, -6.133133813708304 ], [ 34.921118947549417, -6.147148220872142 ], [ 34.932365226908622, -6.172254973931721 ] ] ] } },
{ "type": "Feature", "properties": { "id": 15, "name": "The Sea of Sighs", "continent": "Essos", "variant": "red" }, "geometry": { "type": "Polygon", "coordinates": [ [ [ 48.914756905260603, -13.518719849386633 ], [ 48.996911341729778, -13.432653296895115 ], [ 49.106450590355344, -13.366147324515307 ], [ 49.172956562735159, -13.272256539979105 ], [ 49.255110999204334, -13.213574799643979 ], [ 49.352913899762875, -13.190102103509929 ], [ 49.411595640098, -13.131420363174804 ], [ 49.438980452254391, -13.057090158750311 ], [ 49.474189496455466, -13.010144766482211 ], [ 49.556343932924641, -12.974935722281137 ], [ 49.62676202132679, -12.939726678080062 ], [ 49.622849905304449, -12.865396473655569 ], [ 49.615025673259765, -12.81698403787909 ], [ 49.628718079337965, -12.794489370750625 ], [ 49.657080920499936, -12.794489370750625 ], [ 49.674685442600477, -12.773950761633332 ], [ 49.681531645639573, -12.751456094504867 ], [ 49.67370741359489, -12.731895514393159 ], [ 49.651212746466427, -12.727983398370817 ], [ 49.614047644254178, -12.727005369365232 ], [ 49.590574948120128, -12.72309325334289 ], [ 49.575904513036349, -12.702554644225597 ], [ 49.583239730578256, -12.663188976750783 ], [ 49.626273006824015, -12.624067816527365 ], [ 49.622360890801673, -12.557561844147557 ], [ 49.610624542734648, -12.506704335857114 ], [ 49.638009354891039, -12.459758943589014 ], [ 49.645833586935723, -12.401077203253889 ], [ 49.649745702958064, -12.330659114851738 ], [ 49.677130515114456, -12.279801606561296 ], [ 49.716251675337872, -12.244592562360221 ], [ 49.771021299650656, -12.232856214293196 ], [ 49.798406111807047, -12.135053313734653 ], [ 49.794493995784705, -12.052898877265477 ], [ 49.782757647717681, -11.986392904885669 ], [ 49.735812255449581, -11.951183860684594 ], [ 49.739724371471922, -11.908150584438834 ], [ 49.755372835561289, -11.865117308193076 ], [ 49.760681270696807, -11.821382337714986 ], [ 49.718987459621886, -11.808874194392509 ], [ 49.743636487494264, -11.745797769511654 ], [ 49.782757647717681, -11.714500841332921 ], [ 49.819052606201687, -11.642098950092837 ], [ 49.810713843986697, -11.546203184620516 ], [ 49.739724371471922, -11.511070808171153 ], [ 49.712339559315531, -11.464125415903052 ], [ 49.860999968164514, -11.335025587165777 ], [ 49.931418056566663, -11.268519614785967 ], [ 49.935330172589005, -11.174628830249768 ], [ 49.771021299650656, -11.272431730808309 ], [ 49.696691095226164, -11.248959034674259 ], [ 49.661482051025089, -11.299816542964701 ], [ 49.630185122846356, -11.358498283299827 ], [ 49.555854918421865, -11.381970979433877 ], [ 49.548030686377182, -11.444564835791343 ], [ 49.548030686377182, -11.511070808171153 ], [ 49.49717317808674, -11.554104084416911 ], [ 49.411106625595217, -11.577576780550961 ], [ 49.305479492991992, -11.608873708729694 ], [ 49.336776421170725, -11.542367736349886 ], [ 49.368073349349459, -11.475861763970078 ], [ 49.383721813438825, -11.393707327500902 ], [ 49.454139901840982, -11.338937703188119 ], [ 49.516733758198448, -11.272431730808309 ], [ 49.52064587422079, -11.169738685221843 ], [ 49.56759126648889, -11.111056944886716 ], [ 49.630185122846356, -11.040638856484566 ], [ 49.704515327270848, -11.013254044328173 ], [ 49.782757647717681, -10.978045000127098 ], [ 49.857087852142172, -10.899802679680265 ], [ 49.906609609459011, -10.833239015239407 ], [ 49.99401191292413, -10.805911895144064 ], [ 50.021396725080521, -10.747230154808939 ], [ 50.021396725080521, -10.680724182429129 ], [ 50.07225423337097, -10.622042442094004 ], [ 50.115078664833611, -10.612261816542343 ], [ 50.189617714041219, -10.582921281870588 ], [ 50.197441946085902, -10.524239541535461 ], [ 50.224826758242294, -10.42643664097692 ], [ 50.267860034488052, -10.38340336473116 ], [ 50.346102354934885, -10.371667016664135 ], [ 50.38131139913596, -10.301248928261986 ], [ 50.420432559359377, -10.281688348150277 ], [ 50.486938531739185, -10.226918723837493 ], [ 50.467377951627476, -10.164324867480026 ], [ 50.423612866788005, -10.120274845858305 ], [ 50.441460182979448, -10.019087560150588 ], [ 50.474713169169348, -10.009307270094734 ], [ 50.509922213370423, -10.011263328105905 ], [ 50.551977460610601, -10.001483038050051 ], [ 50.576428185750231, -9.974098225893659 ], [ 50.593054678845185, -9.922262688597632 ], [ 50.617505403984822, -9.888031673402141 ], [ 50.654181491694288, -9.849644034932913 ], [ 50.707973087001484, -9.829105425815619 ], [ 50.752962421258417, -9.81834710675418 ], [ 50.795995697504175, -9.801720613659228 ], [ 50.791105552476246, -9.691203336028074 ], [ 50.795017668498588, -9.59829058049746 ], [ 50.792083581481833, -9.550367159223773 ], [ 50.776924131895264, -9.529339535603688 ], [ 50.753451435761214, -9.514669100519907 ], [ 50.740737058688602, -9.491196404385855 ], [ 50.755407493772381, -9.463811592229463 ], [ 50.781814276923193, -9.45598736018478 ], [ 50.813111205101926, -9.455009331179195 ], [ 50.83951798825273, -9.468701737257391 ], [ 50.885485351515243, -9.461855534218293 ], [ 50.902111844610197, -9.430558606039559 ], [ 50.903089873615784, -9.402195764877582 ], [ 50.90993607665488, -9.366986720676508 ], [ 50.943189062844787, -9.332755705481016 ], [ 50.951991323895051, -9.295590603268771 ], [ 50.951991323895051, -9.265271704095623 ], [ 50.940254975828026, -9.242777036967158 ], [ 50.911892134666047, -9.237397877436438 ], [ 50.894287612565513, -9.214903210307973 ], [ 50.877661119470559, -9.17089190505663 ], [ 50.825825582174531, -9.153287382956092 ], [ 50.817023321124267, -9.111232135715918 ], [ 50.83951798825273, -9.088737468587453 ], [ 50.880595206487314, -9.102429874665649 ], [ 50.920694395716318, -9.11710030974943 ], [ 50.969106831492795, -9.118078338755016 ], [ 51.011162078732966, -9.140573005883482 ], [ 51.02143138329162, -9.19436460119068 ], [ 51.059085500006653, -9.197298688207436 ], [ 51.136349791447905, -9.188496427157167 ], [ 51.220460285928247, -9.157199498978434 ], [ 51.27425188123545, -9.128836657816457 ], [ 51.320219244497963, -9.070154917481331 ], [ 51.369120694777237, -9.01049514814062 ], [ 51.382324086352646, -8.934942407459147 ], [ 51.441983855693358, -8.888975044196632 ], [ 51.521204205145786, -8.855477550755332 ], [ 51.589666235536768, -8.830048796610111 ], [ 51.62683133774901, -8.794839752409036 ], [ 51.62780936675459, -8.76965550551521 ], [ 51.636611627804868, -8.745938302129764 ], [ 51.66595249797242, -8.731512374297379 ], [ 51.707029716207018, -8.724421664006885 ], [ 51.728546354329893, -8.66573992367176 ], [ 51.802876558754384, -8.610970299358977 ], [ 51.881118879201225, -8.612926357370148 ], [ 52.012174765949666, -8.587497603224925 ], [ 52.090417086396499, -8.569893081124388 ], [ 52.10802160849704, -8.526859804878629 ], [ 52.13149430463109, -8.483826528632871 ], [ 52.149098826731631, -8.434925078353599 ], [ 52.211692683089097, -8.425144788297745 ], [ 52.274286539446564, -8.421232672275403 ], [ 52.31340769966998, -8.421232672275403 ], [ 52.372089440005105, -8.407540266197207 ], [ 52.417078774262038, -8.403628150174866 ], [ 52.462068108518963, -8.38993574409667 ], [ 52.50118926874238, -8.38993574409667 ], [ 52.534442254932287, -8.344946409839741 ], [ 52.608772459356778, -8.337122177795058 ], [ 52.681146605770103, -8.361572902934693 ], [ 52.789218810887206, -8.406806744443019 ], [ 52.736894259088452, -8.456441716476478 ], [ 52.67821251875332, -8.491650760677555 ], [ 52.580409618194778, -8.50338710874458 ], [ 52.525639993881995, -8.538596152945654 ], [ 52.463046137524529, -8.593365777258438 ], [ 52.474782485591554, -8.663783865660589 ], [ 52.424915798384092, -8.70685465041857 ], [ 52.330034192764913, -8.671608097705272 ], [ 52.240055524251055, -8.730289838040397 ], [ 52.158075407504619, -8.84027484585831 ], [ 52.053840879817322, -8.852782989180781 ], [ 51.970453257667479, -8.844444226965805 ], [ 51.880140850195616, -8.87503813086704 ], [ 51.828694300012764, -8.948678754653095 ], [ 51.934910474508399, -8.925895639157483 ], [ 52.146164739714855, -8.914159291090458 ], [ 52.27526456845213, -8.863301782800015 ], [ 52.404364397189404, -8.867213898822357 ], [ 52.49043094968092, -8.906335059045775 ], [ 52.615618662395853, -8.937631987224508 ], [ 52.713421562954402, -8.949368335291533 ], [ 52.662564054663953, -8.996313727559633 ], [ 52.478694601613896, -9.004137959604316 ], [ 52.353506888898963, -8.996313727559633 ], [ 52.263528220385105, -8.996313727559633 ], [ 52.30132678271827, -9.07517685766695 ], [ 52.334681831578216, -9.108531906526881 ], [ 52.400452281167063, -9.078468164028809 ], [ 52.517815761837312, -9.094116628118176 ], [ 52.603882314328828, -9.082380280051151 ], [ 52.643003474552245, -9.141062020386276 ], [ 52.901203132026801, -9.223216456855452 ], [ 52.807312347490601, -9.258425501056527 ], [ 52.713421562954402, -9.285810313212918 ], [ 52.65473982261927, -9.332755705481018 ], [ 52.639091358529903, -9.375788981726778 ], [ 52.670388286708636, -9.438382838084244 ], [ 52.686036750798003, -9.504888810464054 ], [ 52.658651938641611, -9.544009970687471 ], [ 52.623442894440537, -9.579219014888546 ], [ 52.560360023580209, -9.616873131603583 ], [ 52.58432173421712, -9.524449390575763 ], [ 52.599970198306487, -9.465767650240636 ], [ 52.580409618194778, -9.383613213771461 ], [ 52.576497502172437, -9.321019357413993 ], [ 52.623442894440537, -9.26624973310121 ], [ 52.56084903808307, -9.258425501056527 ], [ 52.517815761837312, -9.211480108788427 ], [ 52.412188629234088, -9.223216456855452 ], [ 52.333946308787255, -9.207567992766085 ], [ 52.263528220385105, -9.188007412654375 ], [ 52.165725319826564, -9.180183180609692 ], [ 52.091395115402065, -9.227128572877794 ], [ 51.989680098821182, -9.26624973310121 ], [ 51.856668154061566, -9.301458777302285 ], [ 51.805810645771125, -9.35622840161507 ], [ 51.743216789413658, -9.391437445816145 ], [ 51.7001835131679, -9.465767650240636 ], [ 51.641501772832775, -9.547922086709812 ], [ 51.582820032497651, -9.540097854665129 ], [ 51.547610988296576, -9.590955362955571 ], [ 51.551523104318917, -9.70440672760348 ], [ 51.598468496587017, -9.743527887826897 ], [ 51.555435220341259, -9.782649048050313 ], [ 51.539786756251893, -9.868715600541831 ], [ 51.465456551827394, -9.860891368497148 ], [ 51.398950579447586, -9.896100412698223 ], [ 51.328532491045436, -9.935221572921639 ], [ 51.250290170598603, -10.025200241435499 ], [ 51.156399386062404, -10.091706213815307 ], [ 51.076201007604396, -10.191465172385019 ], [ 50.957293648546973, -10.237017516868065 ], [ 50.868858858420282, -10.312740769077612 ], [ 50.814089234107499, -10.418367901680838 ], [ 50.774968073884082, -10.543555614395773 ], [ 50.755407493772374, -10.719600835401149 ], [ 50.673253057303199, -10.758721995624565 ], [ 50.606747084923391, -10.786106807780957 ], [ 50.600878910889875, -10.865327157233377 ], [ 50.503076010331334, -10.92009678154616 ], [ 50.409185225795134, -10.935745245635527 ], [ 50.366151949549376, -11.064845074372803 ], [ 50.327030789325953, -11.178296439020713 ], [ 50.370064065571718, -11.217417599244129 ], [ 50.327030789325953, -11.38172647218248 ], [ 50.244876352856778, -11.596892853411275 ], [ 50.174458264454628, -11.820861495690336 ], [ 50.13142498820887, -11.89910381613717 ], [ 50.158809800365262, -11.977346136584003 ], [ 50.244876352856778, -11.989082484651028 ], [ 50.299645977169561, -12.008643064762737 ], [ 50.315294441258928, -12.122094429410646 ], [ 50.287909629102536, -12.231633678036214 ], [ 50.237052120812095, -12.298139650416022 ], [ 50.182282496499312, -12.364645622795832 ], [ 50.170546148432287, -12.462448523354373 ], [ 50.194018844566337, -12.626757396292726 ], [ 50.162721916387603, -12.716736064806584 ], [ 50.20184307661102, -12.865396473655569 ], [ 50.15489768434292, -12.91625398194601 ], [ 50.064919015829062, -12.955375142169428 ], [ 49.955379767203496, -12.974935722281137 ], [ 49.818455706421538, -13.014056882504553 ], [ 49.783246662220463, -13.123596131130121 ], [ 49.685443761661915, -13.119684015107779 ], [ 49.607201441215082, -13.143156711241829 ], [ 49.544607584857616, -13.244871727822714 ], [ 49.442892568276733, -13.303553468157839 ], [ 49.333353319651167, -13.350498860425938 ], [ 49.192517142846867, -13.409180600761065 ], [ 49.039944617975536, -13.487422921207898 ], [ 48.914756905260603, -13.518719849386633 ] ] ] } },
{ "type": "Feature", "properties": { "id": 17, "name": "Dagger Lake", "continent": "Essos" }, "geometry": { "type": "Polygon", "coordinates": [ [ [ 41.146272513895603, -0.530494655212202 ], [ 41.08563471554929, -0.24099806955891 ], [ 41.024996917202991, -0.047348326452996 ], [ 40.974139408912549, 0.154125648697602 ], [ 40.921325842610941, 0.314522405613611 ], [ 40.893941030454549, 0.420149538216837 ], [ 40.854819870231125, 0.500347916674842 ], [ 40.890028914432207, 0.51257327924466 ], [ 40.9037213205104, 0.551694439468077 ], [ 40.913501610566257, 0.612332237814373 ], [ 40.915457668577424, 0.663678760607608 ], [ 41.003480279080115, 0.69301963077517 ], [ 41.079766541515774, 0.736052907020929 ], [ 41.134536165828557, 0.728228674976246 ], [ 41.13258010781739, 0.636293948451216 ], [ 41.134536165828557, 0.540447105903844 ], [ 41.163877035996123, 0.509150177725111 ], [ 41.159964919973781, 0.397654871088372 ], [ 41.17365732605198, 0.229433882127679 ], [ 41.187349732130173, 0.161949880742285 ], [ 41.187349732130173, 0.003509181837446 ], [ 41.183437616107831, -0.197964793313151 ], [ 41.146272513895603, -0.530494655212202 ] ] ] } },
{ "type": "Feature", "properties": { "id": 18, "name": null, "continent": "Essos" }, "geometry": { "type": "Polygon", "coordinates": [ [ [ 44.186964692260702, 6.565594794812842 ], [ 44.170338199165741, 6.621342448131212 ], [ 44.177184402204851, 6.679046159460751 ], [ 44.18305257623836, 6.741640015818218 ], [ 44.171316228171335, 6.827706568309735 ], [ 44.145887474026118, 6.888344366656032 ], [ 44.14979959004846, 6.962674571080524 ], [ 44.151755648059627, 7.019400253404479 ], [ 44.17327228618251, 7.048741123572041 ], [ 44.198701040327727, 7.080038051750775 ], [ 44.179140460216018, 7.166104604242292 ], [ 44.145887474026118, 7.211093938499222 ], [ 44.140019299992602, 7.287380200934885 ], [ 44.196744982316559, 7.303028665024252 ], [ 44.235866142539976, 7.365622521381719 ], [ 44.265207012707535, 7.441908783817382 ], [ 44.274987302763392, 7.584701018632854 ], [ 44.333669043098517, 7.612085830789246 ], [ 44.382570493377784, 7.612085830789246 ], [ 44.451032523768767, 7.643382758967979 ], [ 44.496021858025699, 7.637514584934467 ], [ 44.490153683992183, 7.608173714766904 ], [ 44.490153683992183, 7.578832844599341 ], [ 44.509714264103891, 7.557316206476462 ], [ 44.533186960237941, 7.545579858409437 ], [ 44.556659656371991, 7.514282930230704 ], [ 44.55274754034965, 7.465381479951432 ], [ 44.531230902226774, 7.430172435750356 ], [ 44.537099076260283, 7.389095217515769 ], [ 44.531365030305125, 7.364972847984085 ], [ 44.533186960237941, 7.332369535191814 ], [ 44.531230902226774, 7.304984723035423 ], [ 44.515582438137407, 7.283468084912544 ], [ 44.4823294519475, 7.281512026901372 ], [ 44.456900697802283, 7.25217115673381 ], [ 44.4353840596794, 7.216962112532735 ], [ 44.445164349735258, 7.171972778275805 ], [ 44.445164349735258, 7.121115269985363 ], [ 44.427559827634717, 7.087862283795459 ], [ 44.429515885645891, 7.052653239594383 ], [ 44.425045812064084, 7.014744834954769 ], [ 44.433428001668233, 6.982235151192232 ], [ 44.417779537578866, 6.948982165002328 ], [ 44.380614435366617, 6.880520134611348 ], [ 44.337488808806761, 6.825037994563885 ], [ 44.294547882875101, 6.765112711952269 ], [ 44.277032782748122, 6.712464704661606 ], [ 44.25347066464051, 6.661441637360213 ], [ 44.22999796850646, 6.610584129069771 ], [ 44.186964692260702, 6.565594794812842 ] ] ] } },
{ "type": "Feature", "properties": { "id": 19, "name": "Womb of the World", "continent": "Essos" }, "geometry": { "type": "Polygon", "coordinates": [ [ [ 78.327738043901562, 8.260103956067661 ], [ 78.350288862086117, 8.292319410617008 ], [ 78.343845771176248, 8.345474910623428 ], [ 78.321294952991693, 8.39218731971998 ], [ 78.319684180264233, 8.456618228818671 ], [ 78.287468725714888, 8.48077981973068 ], [ 78.287468725714874, 8.527492228827231 ], [ 78.345820885353973, 8.543361627484067 ], [ 78.438881362096808, 8.543599956101904 ], [ 78.525863089380039, 8.615279342474198 ], [ 78.580629362113925, 8.56051306974031 ], [ 78.580629362113925, 8.515411433371227 ], [ 78.535527725744842, 8.479974433366946 ], [ 78.525863089380039, 8.421986615178124 ], [ 78.554856998474449, 8.376079592445306 ], [ 78.633508181770907, 8.330723191001987 ], [ 78.72882045304091, 8.301984046981811 ], [ 78.751371271225452, 8.256882410612727 ], [ 78.754592816680386, 8.189229956059101 ], [ 78.757814362135321, 8.089362046956131 ], [ 78.815802180324141, 7.934727865119271 ], [ 78.831909907598828, 7.874323887839248 ], [ 78.82063449850655, 7.809892978740557 ], [ 78.79002981668468, 7.776066751463744 ], [ 78.744928180315583, 7.667339592359702 ], [ 78.690161907581697, 7.625459501445553 ], [ 78.619287907573138, 7.561028592346862 ], [ 78.561300089384318, 7.519148501432713 ], [ 78.551635453019514, 7.464784921880692 ], [ 78.567743180294187, 7.406394410510003 ], [ 78.599958634843546, 7.327869240045972 ], [ 78.630563316665416, 7.302096876406496 ], [ 78.64022795303022, 7.268270649129683 ], [ 78.585461680296333, 7.202228967303524 ], [ 78.540360043927251, 7.173235058209113 ], [ 78.498479953013103, 7.164778501389911 ], [ 78.430827498459479, 7.17484583093658 ], [ 78.372839680270658, 7.202228967303524 ], [ 78.351899634813591, 7.23444442185287 ], [ 78.372839680270658, 7.26988142185715 ], [ 78.387336634817856, 7.318204603681169 ], [ 78.372839680270658, 7.397535160508933 ], [ 78.356731952995986, 7.471630705972427 ], [ 78.36800736208825, 7.52961852416125 ], [ 78.401833589365069, 7.592438660532475 ], [ 78.400222816637594, 7.672977296905838 ], [ 78.382504316635462, 7.734186660549595 ], [ 78.359953498450921, 7.793785251465883 ], [ 78.348678089358643, 7.858216160564576 ], [ 78.351899634813577, 7.909760887843528 ], [ 78.303576452989546, 7.958084069667547 ], [ 78.284247180259953, 7.999158774217962 ], [ 78.264917907530346, 8.042649637859579 ], [ 78.234313225708462, 8.070032774226522 ], [ 78.237534771163396, 8.113523637868139 ], [ 78.234313225708462, 8.153792956054822 ], [ 78.21820549843379, 8.186008410604167 ], [ 78.2471994075282, 8.205337683333774 ], [ 78.289079498442348, 8.22627772879085 ], [ 78.327738043901562, 8.260103956067661 ] ] ] } },
{ "type": "Feature", "properties": { "id": 20, "name": null, "continent": null }, "geometry": { "type": "Polygon", "coordinates": [ [ [ 17.331801786534204, 37.752446536334418 ], [ 17.450341259320538, 37.773522334038148 ], [ 17.559880507946104, 37.761785985971123 ], [ 17.677243988616357, 37.726576941770048 ], [ 17.75548630906319, 37.722664825747707 ], [ 17.810255933375974, 37.6757194334796 ], [ 17.876761905755789, 37.63708728775898 ], [ 17.95109211018028, 37.619482765658439 ], [ 17.964784516258476, 37.590141895490881 ], [ 17.937399704102084, 37.574493431401514 ], [ 17.87871796376696, 37.574493431401514 ], [ 17.810255933375981, 37.582317663446197 ], [ 17.78482717923076, 37.562757083334489 ], [ 17.733969670940315, 37.578405547423856 ], [ 17.726145438895632, 37.609702475602589 ], [ 17.671375814582849, 37.642955461792489 ], [ 17.606825900214211, 37.668384215937714 ], [ 17.544232043856745, 37.697725086105272 ], [ 17.479682129488104, 37.70750537616113 ], [ 17.424912505175321, 37.705549318149956 ], [ 17.370142880862538, 37.705549318149956 ], [ 17.342758068706146, 37.719241724228155 ], [ 17.331801786534204, 37.752446536334418 ] ] ] } }
]
}
