{
"type": "FeatureCollection",
"name": "got_volcanoes",
"features": [
{ "type": "Feature", "properties": { "id": 33, "name": null }, "geometry": { "type": "Point", "coordinates": [ 51.32537253276913, -22.579356669929442 ] } },
{ "type": "Feature", "properties": { "id": 1, "name": null }, "geometry": { "type": "Point", "coordinates": [ 52.226801753120505, -14.073106812096205 ] } },
{ "type": "Feature", "properties": { "id": 2, "name": null }, "geometry": { "type": "Point", "coordinates": [ 52.120053555973634, -14.332070031100656 ] } },
{ "type": "Feature", "properties": { "id": 3, "name": null }, "geometry": { "type": "Point", "coordinates": [ 51.922371709405354, -14.577195520845329 ] } },
{ "type": "Feature", "properties": { "id": 4, "name": null }, "geometry": { "type": "Point", "coordinates": [ 51.71678258897434, -14.790691915139075 ] } },
{ "type": "Feature", "properties": { "id": 5, "name": null }, "geometry": { "type": "Point", "coordinates": [ 52.210987205395043, -13.424710355352234 ] } },
{ "type": "Feature", "properties": { "id": 6, "name": null }, "geometry": { "type": "Point", "coordinates": [ 52.748681828060775, -13.345637616724922 ] } },
{ "type": "Feature", "properties": { "id": 7, "name": null }, "geometry": { "type": "Point", "coordinates": [ 52.653794541707995, -13.108419400842982 ] } },
{ "type": "Feature", "properties": { "id": 8, "name": null }, "geometry": { "type": "Point", "coordinates": [ 54.140362027901489, -14.658245077938323 ] } },
{ "type": "Feature", "properties": { "id": 9, "name": null }, "geometry": { "type": "Point", "coordinates": [ 53.665925596137612, -15.433157916485994 ] } },
{ "type": "Feature", "properties": { "id": 10, "name": null }, "geometry": { "type": "Point", "coordinates": [ 53.049158234844562, -15.781077966446174 ] } },
{ "type": "Feature", "properties": { "id": 11, "name": null }, "geometry": { "type": "Point", "coordinates": [ 50.289519656751324, -19.066550256411045 ] } },
{ "type": "Feature", "properties": { "id": 12, "name": null }, "geometry": { "type": "Point", "coordinates": [ 50.763956088515201, -18.837239314391837 ] } },
{ "type": "Feature", "properties": { "id": 13, "name": null }, "geometry": { "type": "Point", "coordinates": [ 51.05652522143626, -18.639557467823554 ] } },
{ "type": "Feature", "properties": { "id": 14, "name": null }, "geometry": { "type": "Point", "coordinates": [ 51.009081578259874, -18.418153799667074 ] } },
{ "type": "Feature", "properties": { "id": 15, "name": null }, "geometry": { "type": "Point", "coordinates": [ 51.198856150965426, -19.92053583358603 ] } },
{ "type": "Feature", "properties": { "id": 16, "name": null }, "geometry": { "type": "Point", "coordinates": [ 51.048617947573533, -19.604244879076777 ] } },
{ "type": "Feature", "properties": { "id": 17, "name": null }, "geometry": { "type": "Point", "coordinates": [ 48.372005745038969, -18.74828248343611 ] } },
{ "type": "Feature", "properties": { "id": 18, "name": null }, "geometry": { "type": "Point", "coordinates": [ 48.632945782509104, -18.384547885750468 ] } },
{ "type": "Feature", "properties": { "id": 19, "name": null }, "geometry": { "type": "Point", "coordinates": [ 47.399411059923018, -19.475751678807395 ] } },
{ "type": "Feature", "properties": { "id": 20, "name": null }, "geometry": { "type": "Point", "coordinates": [ 48.285025732548924, -19.760413537865723 ] } },
{ "type": "Feature", "properties": { "id": 21, "name": null }, "geometry": { "type": "Point", "coordinates": [ 48.285025732548924, -20.045075396924052 ] } },
{ "type": "Feature", "properties": { "id": 22, "name": null }, "geometry": { "type": "Point", "coordinates": [ 48.229674815509803, -20.353459077570573 ] } },
{ "type": "Feature", "properties": { "id": 23, "name": null }, "geometry": { "type": "Point", "coordinates": [ 47.233358308805656, -21.58106334475961 ] } },
{ "type": "Feature", "properties": { "id": 24, "name": null }, "geometry": { "type": "Point", "coordinates": [ 47.280801951982042, -20.092519040100438 ] } },
{ "type": "Feature", "properties": { "id": 25, "name": null }, "geometry": { "type": "Point", "coordinates": [ 47.7354701990891, -17.951624641765925 ] } },
{ "type": "Feature", "properties": { "id": 26, "name": null }, "geometry": { "type": "Point", "coordinates": [ 47.90943022406919, -17.793479164511297 ] } },
{ "type": "Feature", "properties": { "id": 27, "name": null }, "geometry": { "type": "Point", "coordinates": [ 47.972688414971046, -17.540446400903896 ] } },
{ "type": "Feature", "properties": { "id": 28, "name": null }, "geometry": { "type": "Point", "coordinates": [ 47.941059319520114, -17.303228185021954 ] } },
{ "type": "Feature", "properties": { "id": 29, "name": null }, "geometry": { "type": "Point", "coordinates": [ 47.703841103638176, -14.104735907547129 ] } },
{ "type": "Feature", "properties": { "id": 30, "name": null }, "geometry": { "type": "Point", "coordinates": [ 49.538328639791843, -13.547273100224571 ] } },
{ "type": "Feature", "properties": { "id": 31, "name": null }, "geometry": { "type": "Point", "coordinates": [ 49.032263112577041, -13.04516120994113 ] } },
{ "type": "Feature", "properties": { "id": 32, "name": null }, "geometry": { "type": "Point", "coordinates": [ 51.001174304397139, -21.090812365270267 ] } },
{ "type": "Feature", "properties": { "id": 34, "name": null }, "geometry": { "type": "Point", "coordinates": [ 51.40444527139644, -22.357953001772966 ] } },
{ "type": "Feature", "properties": { "id": 35, "name": null }, "geometry": { "type": "Point", "coordinates": [ 51.443981640710099, -20.4424159085263 ] } },
{ "type": "Feature", "properties": { "id": 36, "name": null }, "geometry": { "type": "Point", "coordinates": [ 53.990123824509588, -20.270432702011892 ] } },
{ "type": "Feature", "properties": { "id": 37, "name": null }, "geometry": { "type": "Point", "coordinates": [ 54.092918384725095, -19.890883556600787 ] } },
{ "type": "Feature", "properties": { "id": 38, "name": null }, "geometry": { "type": "Point", "coordinates": [ 54.053382015411437, -19.274116195307741 ] } },
{ "type": "Feature", "properties": { "id": 39, "name": null }, "geometry": { "type": "Point", "coordinates": [ 54.591076638077169, -18.712699751053819 ] } },
{ "type": "Feature", "properties": { "id": 40, "name": null }, "geometry": { "type": "Point", "coordinates": [ 51.080247043024457, -19.200973912077476 ] } }
]
}
