{
"type": "FeatureCollection",
"name": "got_roads",
"features": [
{ "type": "Feature", "properties": { "id": 1, "name": null, "size": 1, "continent": "Westeros" }, "geometry": { "type": "LineString", "coordinates": [ [ 22.333342661904986, -0.589912857937515 ], [ 22.246840009962938, -0.493329552999963 ], [ 22.18033403758313, -0.389658478407908 ], [ 22.129476529292688, -0.289899519838195 ], [ 22.066882672935218, -0.196008735301994 ], [ 22.012113048622435, -0.133414878944527 ], [ 21.986684294477215, -0.076689196620573 ], [ 21.998420642544239, -0.021919572307789 ], [ 22.031673628734143, 0.026981877971482 ], [ 22.045366034812339, 0.134565068585879 ], [ 22.021893338678289, 0.259752781300813 ], [ 21.963211598343165, 0.335061014730891 ], [ 21.836067827617061, 0.38005034898782 ], [ 21.715892513555698, 0.437265045814568 ], [ 21.62872567843295, 0.499369887669242 ], [ 21.520286712438612, 0.554628526484819 ], [ 21.412581268198569, 0.58005728063004 ], [ 21.316856679276846, 0.578101222618869 ], [ 21.191546712936265, 0.621134498864627 ], [ 21.105480160444746, 0.679816239199753 ], [ 21.037018130053767, 0.777619139758295 ], [ 21.019413607953229, 0.865641750260983 ], [ 20.976380331707471, 0.959532534797184 ], [ 20.917820844997991, 1.055379377344556 ], [ 20.869775170098649, 1.159539466439403 ], [ 20.84825853197577, 1.251474192964433 ], [ 20.775884385562449, 1.362969499601172 ], [ 20.719158703238495, 1.441211820048006 ], [ 20.709378413182641, 1.501849618394302 ], [ 20.723070819260837, 1.540970778617719 ], [ 20.752411689428399, 1.570311648785282 ], [ 20.795444965674157, 1.663224404315897 ], [ 20.831754292506474, 1.751736029321378 ], [ 20.82478583584172, 1.788412117030831 ], [ 20.77784044357362, 1.825577219243077 ], [ 20.703510239149129, 1.821665103220735 ], [ 20.619399744668783, 1.804060581120198 ], [ 20.510960778674455, 1.814329885678845 ], [ 20.412057595484672, 1.806016639131369 ], [ 20.310342578903789, 1.827533277254248 ], [ 20.236012374479294, 1.880346843555861 ], [ 20.155813996021291, 1.948808873946841 ], [ 20.081483791596799, 2.009446672293137 ], [ 19.960208194904205, 2.0857329347288 ], [ 19.887834048490884, 2.152238907108609 ], [ 19.829152308155759, 2.226569111533101 ], [ 19.823284134122247, 2.29307508391291 ], [ 19.827196250144588, 2.369361346348573 ], [ 19.786119031910001, 2.437823376739553 ], [ 19.733305465608389, 2.498461175085849 ], [ 19.660931319195061, 2.548340654370706 ], [ 19.574864766703545, 2.583549698571781 ], [ 19.488798214212029, 2.591373930616464 ], [ 19.426204357854562, 2.636363264873394 ], [ 19.359698385474751, 2.69700106321969 ], [ 19.252115194860355, 2.769375209633012 ], [ 19.166048642368839, 2.85935387814687 ], [ 19.086828292916415, 2.951777619174693 ], [ 18.973376928268507, 3.024151765588015 ], [ 18.881442201743486, 3.068652085342151 ], [ 18.818848345386012, 3.112174376090703 ], [ 18.738772220553674, 3.193350783554293 ] ] } },
{ "type": "Feature", "properties": { "id": 2, "name": "Roseroad", "size": 2, "continent": "Westeros" }, "geometry": { "type": "LineString", "coordinates": [ [ 18.432066083848635, 3.736014024094777 ], [ 18.415900395084815, 3.622705517006294 ], [ 18.435460975196523, 3.552287428604143 ], [ 18.464801845364086, 3.49947386230253 ], [ 18.506857092604264, 3.455951571553979 ], [ 18.539132049788581, 3.409495193788671 ], [ 18.57629715200083, 3.359126700001022 ], [ 18.623242544268926, 3.301912003174275 ], [ 18.682902313609642, 3.25056548038104 ], [ 18.738772220553674, 3.193350783554293 ], [ 18.613584507838734, 3.050558548738821 ], [ 18.543166419436581, 2.972316228291987 ], [ 18.476538193431107, 2.865711066683176 ], [ 18.359296966386523, 2.77279831115256 ], [ 18.230197137649245, 2.643698482415284 ], [ 18.132271983465039, 2.54002740782323 ], [ 17.999260038705422, 2.446136623287029 ], [ 17.885808674057511, 2.317036794549753 ], [ 17.795830005543653, 2.168376385700769 ], [ 17.682378640895745, 2.004067512762417 ], [ 17.576873761918183, 1.934627453365852 ], [ 17.502421303868026, 1.882791916069825 ], [ 17.385057823197776, 1.859319219935774 ], [ 17.232485298326448, 1.835846523801724 ], [ 17.139572542795836, 1.828511306259833 ], [ 17.05350599030432, 1.787434088025246 ], [ 16.971351553835145, 1.73951066675156 ], [ 16.914625871511191, 1.697455419511387 ], [ 16.84811989913138, 1.665180462327068 ], [ 16.778802093360476, 1.657845244785177 ], [ 16.699459490282404, 1.668114549343824 ], [ 16.644689865969621, 1.69256527448346 ], [ 16.587964183645663, 1.726796289678949 ], [ 16.554711197455759, 1.768851536919123 ], [ 16.504831718170905, 1.808950726148125 ], [ 16.431479542751998, 1.830467364271004 ], [ 16.364973570372189, 1.837313567310102 ], [ 16.263258553791303, 1.851984002393884 ], [ 16.174257914283032, 1.849049915377127 ], [ 16.092103477813854, 1.834379480293346 ], [ 16.013861157367021, 1.814818900181637 ], [ 15.93378503253467, 1.783032957500111 ], [ 15.867156806529199, 1.777653797969391 ], [ 15.793804631110293, 1.78645605901966 ], [ 15.753705441881289, 1.806016639131369 ], [ 15.701869904585262, 1.834379480293346 ], [ 15.620693497121671, 1.859808234438567 ], [ 15.542451176674838, 1.860786263444153 ], [ 15.473989146283857, 1.849049915377127 ], [ 15.408461202909635, 1.829489335265419 ], [ 15.339021143513067, 1.805038610125783 ], [ 15.270559113122088, 1.76298336288561 ], [ 15.223613720853988, 1.711147825589583 ], [ 15.194272850686426, 1.646597911220945 ], [ 15.135591110351299, 1.605520692986357 ], [ 15.073975282999418, 1.594762373924917 ], [ 15.018227629681048, 1.57911390983555 ], [ 14.959545889345922, 1.571289677790867 ], [ 14.913578526083407, 1.563465445746184 ], [ 14.867611162820891, 1.577157851824379 ], [ 14.814797596519279, 1.609432809008698 ], [ 14.749269653145056, 1.635839592159505 ], [ 14.700368202865784, 1.635839592159505 ], [ 14.64364252054183, 1.628015360114822 ], [ 14.564544424715077, 1.61872408456176 ], [ 14.400235551776726, 1.563954460248976 ], [ 14.291552078531074, 1.538525706103755 ], [ 14.184946916922264, 1.531679503064657 ], [ 14.099858393436332, 1.519943154997632 ], [ 14.035308479067695, 1.50331666190268 ], [ 13.966846448676714, 1.477887907757459 ], [ 13.880779896185198, 1.428008428472602 ], [ 13.832856474911511, 1.37715092018216 ], [ 13.754125139961884, 1.322870310372169 ], [ 13.683707051559733, 1.305265788271632 ], [ 13.626003340230193, 1.296463527221363 ], [ 13.576612875448129, 1.282037599388978 ], [ 13.534557628207954, 1.252696729221415 ], [ 13.496414496990123, 1.23020206209295 ], [ 13.44164487267734, 1.203795278942144 ], [ 13.40936991549302, 1.191080901869533 ], [ 13.388831306375726, 1.173476379768996 ], [ 13.353622262174651, 1.163696089713141 ], [ 13.302397993007018, 1.170175531875141 ], [ 13.248973158577011, 1.187168785847192 ], [ 13.188824374733507, 1.190836394618137 ], [ 13.129164605392797, 1.165407640472916 ], [ 13.064614691024158, 1.125308451243914 ], [ 13.011801124722545, 1.092055465054009 ], [ 12.930624717258954, 1.042175985769153 ], [ 12.851404367806536, 1.007944970573663 ], [ 12.785876424432313, 0.993763549992674 ], [ 12.742843148186552, 0.995964115255241 ], [ 12.711546220007818, 1.014546666361364 ], [ 12.685139436857012, 1.042909507523342 ], [ 12.674381117795571, 1.083008696752344 ], [ 12.663622798734131, 1.12017379896459 ], [ 12.638194044588911, 1.157338901176836 ], [ 12.598094855359912, 1.165896654975709 ], [ 12.55310552110298, 1.148536640126567 ], [ 12.523764650935416, 1.10745942189198 ], [ 12.496379838779024, 1.047799652551269 ], [ 12.457258678555608, 0.98129368017146 ], [ 12.394664822198141, 0.929458142875432 ], [ 12.344785342913283, 0.905007417735797 ], [ 12.292460791114467, 0.86857583727774 ], [ 12.227910876745828, 0.819674386998469 ], [ 12.176075339449801, 0.801091835892345 ], [ 12.133042063204043, 0.774685052741539 ], [ 12.074849337371708, 0.742165588305824 ], [ 12.036706206153877, 0.709890631121505 ], [ 12.012255481014241, 0.665879325870161 ], [ 11.998563074936046, 0.637516484708183 ], [ 11.963354030734971, 0.607197585535035 ], [ 11.879243536254624, 0.572966570339545 ], [ 11.824962926444632, 0.561474729523917 ], [ 11.787308809729593, 0.543625700171983 ], [ 11.726671011383297, 0.529933294093787 ], [ 11.694396054198979, 0.498636365915053 ], [ 11.674835474087271, 0.458537176686051 ], [ 11.652829821461598, 0.416237422194481 ], [ 11.618598806266107, 0.404501074127456 ], [ 11.586323849081788, 0.404990088630249 ], [ 11.555026920903055, 0.389341624540882 ], [ 11.515905760679638, 0.332615942216927 ], [ 11.486564890512074, 0.262197853814777 ], [ 11.478740658467391, 0.21769753406064 ], [ 11.455267962333341, 0.17808735933443 ], [ 11.425927092165779, 0.145323387647319 ], [ 11.373113525864166, 0.115493502976963 ], [ 11.294871205417332, 0.101801096898767 ], [ 11.22054100099284, 0.090064748831742 ], [ 11.122738100434297, 0.0861526328094 ], [ 11.03862760595395, 0.101801096898767 ], [ 10.956473169484775, 0.125273793032817 ], [ 10.871506899624514, 0.128207880049574 ], [ 10.771625687429131, 0.137988170105428 ], [ 10.695339424993467, 0.12038364800489 ], [ 10.636657684658342, 0.079306429770303 ], [ 10.597536524434924, 0.012800457390494 ], [ 10.544722958133312, -0.06544186305634 ], [ 10.474304869731162, -0.145640241514345 ], [ 10.405842839340181, -0.227794677983521 ], [ 10.356941389060911, -0.276696128262792 ], [ 10.308039938781638, -0.327553636553234 ], [ 10.233709734357147, -0.382323260866018 ], [ 10.165247703966168, -0.429268653134118 ], [ 10.089939470536089, -0.484527291949694 ], [ 10.04495013627916, -0.517780278139599 ], [ 10.021477440145111, -0.56668172841887 ], [ 10.017565324122769, -0.644924048865704 ], [ 10.015609266111596, -0.705561847212 ], [ 9.990180511966376, -0.777935993625322 ], [ 9.96389598244124, -0.834172661446483 ], [ 9.903135930469274, -0.897744546809536 ], [ 9.838586016100635, -0.956426287144661 ], [ 9.785772449799023, -1.015108027479787 ], [ 9.742739173553264, -1.079657941848425 ], [ 9.644936272994721, -1.157900262295259 ], [ 9.588210590670768, -1.243966814786776 ], [ 9.599946938737792, -1.308516729155414 ], [ 9.631243866916526, -1.365242411479369 ], [ 9.619507518849501, -1.421968093803323 ], [ 9.576474242603743, -1.473803631099351 ], [ 9.529528850335641, -1.503144501266914 ], [ 9.461066819944662, -1.542265661490331 ], [ 9.394560847564852, -1.583342879724918 ], [ 9.357395745352607, -1.642024620060044 ], [ 9.324142759162703, -1.716354824484536 ], [ 9.339791223252069, -1.773080506808491 ], [ 9.380868441486657, -1.83616337766875 ], [ 9.390648731542511, -1.906581466070901 ], [ 9.378912383475486, -2.014164656685298 ], [ 9.333923049218557, -2.080670629065107 ], [ 9.267417076838747, -2.147176601444915 ], [ 9.212647452525964, -2.160379993020318 ], [ 9.118756667989762, -2.152555760975635 ], [ 9.040514347542929, -2.176028457109685 ], [ 8.989779092878166, -2.264540082115166 ] ] } },
{ "type": "Feature", "properties": { "id": 3, "name": null, "size": 1, "continent": "Westeros" }, "geometry": { "type": "LineString", "coordinates": [ [ 8.989779092878166, -2.264540082115166 ], [ 8.985866976855824, -2.349139591098306 ], [ 8.927185236520698, -2.439118259612164 ], [ 8.870459554196744, -2.531052986137194 ], [ 8.803953581816934, -2.617119538628712 ], [ 8.705172652252807, -2.678246351477801 ], [ 8.587809171582556, -2.772137136014001 ], [ 8.50565473511338, -2.821038586293273 ], [ 8.390247312454299, -2.88363244265074 ], [ 8.241586903605315, -2.948182357019378 ], [ 8.186817279292532, -3.00099592332099 ], [ 8.149652177080286, -3.063589779678458 ], [ 8.102706784812186, -3.128139694047096 ], [ 8.064563653594353, -3.217140333555369 ], [ 7.984365275136349, -3.26604178383464 ], [ 7.900254780656002, -3.289514479968691 ], [ 7.865045736454928, -3.35797651035967 ], [ 7.827880634242681, -3.440130946828846 ], [ 7.80245188009746, -3.524241441309192 ], [ 7.782891299985752, -3.606395877778368 ], [ 7.775067067941069, -3.684638198225202 ], [ 7.775067067941069, -3.782441098783744 ], [ 7.771154951918727, -3.86459553525292 ], [ 7.75550648782936, -3.942837855699754 ], [ 7.741814081751164, -4.0269483501801 ], [ 7.728121675672969, -4.089542206537567 ], [ 7.694868689483064, -4.203971600191062 ], [ 7.675308109371355, -4.278301804615555 ], [ 7.632274833125597, -4.345296791498156 ], [ 7.591197614891009, -4.415714879900307 ], [ 7.559900686712275, -4.493957200347141 ], [ 7.532515874555884, -4.574644593307938 ], [ 7.50121894637715, -4.658266073285492 ], [ 7.446449322064367, -4.738953466246289 ], [ 7.405372103829778, -4.795190134067451 ], [ 7.333975986422042, -4.848492714871856 ], [ 7.251821549952867, -4.850448772883028 ], [ 7.195095867628912, -4.907174455206982 ], [ 7.148150475360811, -4.967812253553278 ], [ 7.128589895249103, -5.055834864055966 ], [ 7.093380851048027, -5.136033242513971 ], [ 7.047413487785514, -5.192758924837926 ], [ 6.974061312366606, -5.237748259094856 ], [ 6.917335630042651, -5.298386057441152 ], [ 6.858653889707526, -5.349243565731594 ], [ 6.786279743294204, -5.38640866794384 ], [ 6.741290409037275, -5.421617712144915 ], [ 6.700213190802687, -5.439222234245452 ], [ 6.639575392456391, -5.472475220435357 ], [ 6.54568460792019, -5.480299452480041 ], [ 6.463530171451015, -5.519420612703458 ], [ 6.416584779182914, -5.587882643094437 ], [ 6.358881067853375, -5.645586354423977 ], [ 6.288462979451224, -5.680795398625053 ], [ 6.208264600993219, -5.716004442826128 ], [ 6.133934396568727, -5.749257429016033 ], [ 6.051779960099551, -5.774686183161253 ], [ 5.952021001529838, -5.833367923496379 ], [ 5.873778681083004, -5.88422543178682 ], [ 5.775975780524462, -5.950731404166629 ], [ 5.698356183583523, -6.026874026937739 ] ] } },
{ "type": "Feature", "properties": { "id": 4, "name": "Oceanroad", "size": 2, "continent": "Westeros" }, "geometry": { "type": "LineString", "coordinates": [ [ 8.989779092878166, -2.264540082115166 ], [ 8.708106739269564, -2.06697822298691 ], [ 8.512500938152478, -1.988735902540077 ], [ 8.404917747538082, -1.91733978513234 ], [ 8.342323891180616, -1.87039439286424 ], [ 8.279730034823148, -1.805844478495602 ], [ 8.209311946420996, -1.762811202249844 ], [ 8.131069625974163, -1.715865809981743 ], [ 8.060651537572012, -1.668920417713643 ], [ 8.029354609393279, -1.594590213289151 ], [ 8.048915189504987, -1.508523660797634 ], [ 8.064563653594353, -1.438105572395483 ], [ 8.025442493370937, -1.355951135926307 ], [ 7.93937594087942, -1.320742091725232 ], [ 7.845485156343219, -1.320742091725232 ], [ 7.747682255784676, -1.309005743658207 ], [ 7.665527819315501, -1.305093627635865 ], [ 7.579461266823984, -1.305093627635865 ], [ 7.485570482287783, -1.281620931501815 ], [ 7.383855465706898, -1.22293919116669 ], [ 7.305613145260065, -1.164257450831564 ], [ 7.219546592768547, -1.121224174585806 ], [ 7.153040620388738, -1.046893970161313 ], [ 7.08653464800893, -1.011684925960238 ], [ 6.996555979495071, -0.996036461870871 ], [ 6.937874239159945, -0.956915301647454 ], [ 6.941786355182287, -0.87867298120062 ], [ 6.996555979495071, -0.851288169044229 ], [ 7.094358880053614, -0.835639704954862 ], [ 7.125655808232347, -0.769133732575053 ], [ 7.149128504366397, -0.679155064061194 ], [ 7.141304272321713, -0.597000627592018 ], [ 7.125655808232347, -0.518758307145184 ], [ 7.082622531986588, -0.436603870676009 ], [ 7.066974067897221, -0.358361550229175 ], [ 7.023940791651463, -0.323152506028099 ], [ 6.933962123137603, -0.338800970117466 ], [ 6.843983454623745, -0.374010014318542 ], [ 6.785301714288619, -0.428779638631325 ], [ 6.733466176992593, -0.468145306106139 ], [ 6.679674581685394, -0.476947567156407 ], [ 6.613168609305585, -0.468145306106139 ], [ 6.557420955987216, -0.451518813011186 ], [ 6.508519505707945, -0.439782464944161 ], [ 6.461574113439845, -0.450540784005601 ], [ 6.401914344099134, -0.478903625167578 ], [ 6.327584139674642, -0.50628843732397 ], [ 6.26792437033393, -0.516068727379824 ], [ 6.178923730825657, -0.508244495335141 ], [ 6.113395787451434, -0.498464205279287 ], [ 6.063516308166577, -0.479881654173164 ], [ 5.998966393797939, -0.46667826259776 ], [ 5.952021001529838, -0.429513160385514 ], [ 5.93246042141813, -0.394304116184439 ], [ 5.891383203183541, -0.364963246016876 ], [ 5.838569636881929, -0.380611710106243 ], [ 5.779887896546803, -0.376699594083901 ], [ 5.75054702637924, -0.363007188005705 ], [ 5.730986446267532, -0.32779814380463 ], [ 5.734898562289874, -0.29161107059797 ], [ 5.754459142401582, -0.267160345458334 ], [ 5.797492418647341, -0.249555823357796 ], [ 5.834657520859587, -0.229995243246088 ], [ 5.841503723898685, -0.207500576117623 ], [ 5.834657520859587, -0.186961967000329 ], [ 5.816074969753464, -0.16544532887745 ], [ 5.774019722513291, -0.150774893793668 ], [ 5.730986446267532, -0.135126429704302 ], [ 5.695777402066457, -0.106763588542324 ], [ 5.654700183831869, -0.040991137916705 ], [ 5.61166690758611, 0.016712573412835 ], [ 5.558853341284498, 0.061701907669765 ], [ 5.476698904815322, 0.112559415960207 ], [ 5.423885338513709, 0.145812402150111 ], [ 5.383089949131578, 0.207936555051394 ], [ 5.349555134089217, 0.227966838619287 ], [ 5.305543828837872, 0.22307669359136 ], [ 5.269356755631212, 0.218186548563433 ], [ 5.210675015296086, 0.227966838619287 ], [ 5.173509913083841, 0.247771925982392 ], [ 5.131454665843667, 0.274178709133198 ], [ 5.105047882692855, 0.317945507133146 ], [ 5.096245621642592, 0.367580479166606 ], [ 5.084509273575566, 0.425284190496146 ], [ 5.096245621642592, 0.477119727792174 ], [ 5.131454665843667, 0.51428483000442 ], [ 5.172531884078255, 0.544603729177568 ], [ 5.192092464189964, 0.575900657356302 ], [ 5.191114435184378, 0.615021817579719 ], [ 5.170575826067084, 0.666123833121557 ], [ 5.143191013910692, 0.726761631467853 ], [ 5.100157737664934, 0.779575197769466 ], [ 5.063970664458273, 0.815762270976127 ], [ 5.018981330201337, 0.842169054126934 ], [ 4.965189734894145, 0.863930199501209 ], [ 4.901617849531092, 0.87860063458499 ], [ 4.841958080190381, 0.893271069668772 ], [ 4.797946774939037, 0.918699823813993 ], [ 4.750023353665352, 0.954886897020653 ], [ 4.714814309464276, 1.000854260283168 ], [ 4.691341613330226, 1.044865565534512 ], [ 4.672759062224103, 1.083986725757929 ], [ 4.659066656145901, 1.119929291713194 ], [ 4.634615931006271, 1.1597839736908 ], [ 4.603319002827538, 1.196949075903046 ], [ 4.565175871609706, 1.232158120104121 ], [ 4.530944856414217, 1.257586874249342 ], [ 4.507472160280167, 1.284971686405734 ], [ 4.494757783207556, 1.313334527567711 ], [ 4.501603986246653, 1.346587513757616 ], [ 4.523120624369533, 1.374950354919593 ], [ 4.568109958626462, 1.406247283098327 ], [ 4.601362944816367, 1.429719979232377 ], [ 4.644396221062125, 1.457593805891561 ], [ 4.682539352279957, 1.505517227165247 ], [ 4.710902193441934, 1.540726271366322 ], [ 4.751001382670937, 1.57984743158974 ], [ 4.791100571899939, 1.6160345047964 ], [ 4.821419471073088, 1.629726910874596 ], [ 4.846848225218308, 1.649287490986304 ], [ 4.866408805330017, 1.681562448170624 ], [ 4.869342892346773, 1.724595724416382 ], [ 4.849782312235065, 1.763716884639799 ], [ 4.820441442067502, 1.795991841824118 ], [ 4.786210426872012, 1.824354682986095 ], [ 4.75882561471562, 1.849783437131316 ], [ 4.731440802559229, 1.888415582851941 ], [ 4.719704454492203, 1.935360975120041 ], [ 4.704055990402837, 1.994042715455167 ], [ 4.679605265263201, 2.061526716840561 ], [ 4.647330308078882, 2.115318312147759 ], [ 4.627769727967167, 2.160552153656085 ], [ 4.615055350894563, 2.243929126382243 ], [ 4.603319002827538, 2.323149475834662 ], [ 4.56224178459295, 2.392589535231227 ], [ 4.536813030447729, 2.455183391588694 ], [ 4.533878943430967, 2.512642595666838 ], [ 4.561263755587365, 2.571079828750567 ], [ 4.606253089844295, 2.610200988973983 ], [ 4.647330308078883, 2.663014555275597 ], [ 4.680583294268787, 2.727564469644235 ], [ 4.676671178246446, 2.794070442024043 ], [ 4.643418192056541, 2.841015834292144 ], [ 4.551483465531511, 2.870356704459706 ], [ 4.511320941860011, 2.910520064113443 ], [ 4.533878943430974, 2.968648619521042 ], [ 4.592560683766099, 3.041022765934363 ], [ 4.682539352279958, 3.064495462068413 ], [ 4.760781672726792, 3.099704506269489 ], [ 4.837067935162455, 3.15056201455993 ], [ 4.878634167899835, 3.191883740045915 ], [ 4.90944208157577, 3.248120407867076 ], [ 4.930469705195862, 3.29751087264914 ], [ 4.963722691385767, 3.359126700001022 ], [ 4.995997648570086, 3.403138005252366 ], [ 5.040986982827016, 3.433456904425515 ], [ 5.073750954514121, 3.475023137162895 ], [ 5.106514926201239, 3.52099050042541 ], [ 5.128031564324118, 3.553265457609729 ], [ 5.146614115430241, 3.609991139933683 ], [ 5.137811854379972, 3.672584996291151 ], [ 5.144169042916271, 3.71757433054808 ], [ 5.145636086424656, 3.76451972281618 ], [ 5.161284550514022, 3.828091608179233 ], [ 5.191603449687171, 3.874058971441748 ], [ 5.21312008781005, 3.916114218681921 ], [ 5.220944319854733, 3.963059610950022 ], [ 5.210186000793294, 4.028098539821452 ], [ 5.181823159631317, 4.086780280156578 ], [ 5.15541637648051, 4.143505962480532 ], [ 5.143680028413485, 4.212946021877097 ], [ 5.145636086424656, 4.286542704547401 ], [ 5.15737243449168, 4.35304867692721 ], [ 5.183290203139689, 4.413930982524902 ], [ 5.244417015988784, 4.462832432804174 ], [ 5.292340437262469, 4.499019506010834 ], [ 5.325593423452374, 4.554767159329203 ], [ 5.32852751046913, 4.591932261541449 ], [ 5.35200020660318, 4.626163276736939 ], [ 5.382808120279121, 4.664795422457563 ], [ 5.420951251496953, 4.725433220803859 ], [ 5.430731541552807, 4.789005106166912 ], [ 5.419973222491367, 4.846708817496452 ], [ 5.422907309508123, 4.884118426960095 ], [ 5.437577744591905, 4.912236760870676 ], [ 5.442467889619832, 4.960160182144361 ], [ 5.435621686580734, 5.017130371719713 ], [ 5.449314092658931, 5.0716554887811 ], [ 5.464962556748296, 5.108087069239157 ], [ 5.499193571943787, 5.16090063554077 ], [ 5.528534442111349, 5.208090535060267 ], [ 5.558853341284498, 5.258948043350708 ], [ 5.599930559519086, 5.299536247082504 ], [ 5.670348647921236, 5.334745291283578 ], [ 5.721206156211679, 5.381690683551679 ], [ 5.744678852345729, 5.444284539909146 ], [ 5.744678852345729, 5.518614744333639 ], [ 5.729030388256362, 5.612505528869839 ], [ 5.744678852345729, 5.70639631340604 ], [ 5.787712128591488, 5.788550749875215 ], [ 5.838569636881929, 5.8902657664561 ], [ 5.893157841440136, 5.979083143608097 ] ] } },
{ "type": "Feature", "properties": { "id": 6, "name": "Riverroad", "size": 1, "continent": "Westeros" }, "geometry": { "type": "LineString", "coordinates": [ [ 5.893157841440136, 5.979083143608097 ], [ 5.97842778468064, 5.989780217774417 ], [ 6.0684064531945, 6.001516565841442 ], [ 6.172077527786555, 6.028901377997833 ], [ 6.238583500166364, 6.071934654243592 ], [ 6.275748602378609, 6.135017525103852 ], [ 6.267924370333926, 6.213259845550686 ], [ 6.226847152099339, 6.275853701908153 ], [ 6.172077527786555, 6.332579384232107 ], [ 6.134912425574309, 6.391261124567233 ], [ 6.103615497395575, 6.43038228479065 ], [ 6.09187914932855, 6.479283735069921 ], [ 6.093835207339721, 6.530141243360363 ], [ 6.131000309551967, 6.586866925684318 ], [ 6.203374455965288, 6.629900201930076 ], [ 6.291397066467977, 6.672933478175835 ], [ 6.365727270892469, 6.692494058287544 ], [ 6.449837765372815, 6.702274348343398 ], [ 6.518299795763795, 6.712054638399252 ], [ 6.573069420076578, 6.741395508566815 ], [ 6.643487508478729, 6.788340900834915 ], [ 6.711310607402318, 6.799750526694069 ], [ 6.758894931137809, 6.803989364924282 ], [ 6.803884265394739, 6.831374177080674 ], [ 6.827356961528789, 6.872451395315261 ], [ 6.858653889707522, 6.913528613549849 ], [ 6.909511397997965, 6.925264961616874 ], [ 6.961346935293993, 6.931133135650387 ], [ 7.055237719830194, 7.009375456097221 ], [ 7.086534648008927, 7.103266240633422 ], [ 7.086534648008927, 7.204981257214306 ], [ 7.09435888005361, 7.322344737884556 ], [ 7.196073896634495, 7.392762826286707 ], [ 7.305613145260062, 7.37711436219734 ], [ 7.46209778615373, 7.37711436219734 ], [ 7.610758195002714, 7.392762826286707 ], [ 7.728121675672965, 7.439708218554808 ], [ 7.868957852477267, 7.478829378778225 ], [ 8.01761826132625, 7.478829378778225 ], [ 8.166278670175235, 7.486653610822908 ], [ 8.354060239247637, 7.572720163314425 ], [ 8.427901429169339, 7.649739947504277 ], [ 8.50223163359383, 7.743630732040478 ], [ 8.572649721995981, 7.798400356353262 ], [ 8.631331462331106, 7.841433632599021 ], [ 8.729134362889649, 7.837521516576679 ], [ 8.82693726344819, 7.868818444755412 ], [ 8.881706887760975, 7.904027488956488 ], [ 8.936476512073758, 7.97835769338098 ], [ 8.995158252408885, 8.02530308564908 ], [ 9.085136920922743, 8.037039433716105 ], [ 9.175115589436603, 8.009654621559713 ], [ 9.304215418173879, 7.990094041448005 ], [ 9.448560255662299, 8.010039156158236 ], [ 9.546766611559063, 8.064424245872496 ], [ 9.621096815983556, 8.119193870185281 ], [ 9.742372412676149, 8.13875445029699 ], [ 9.832351081190007, 8.13875445029699 ], [ 9.922329749703866, 8.170051378475723 ], [ 9.984923606061333, 8.220908886766166 ], [ 10.070990158552851, 8.263942163011924 ], [ 10.145320362977344, 8.278612598095705 ], [ 10.211826335357152, 8.259052017983997 ], [ 10.270508075692277, 8.232645234833191 ], [ 10.303761061882183, 8.188633929581846 ], [ 10.352662512161453, 8.170051378475723 ], [ 10.393739730396042, 8.204282393671212 ], [ 10.393739730396042, 8.251227785939314 ], [ 10.409388194485409, 8.294261062185072 ], [ 10.450465412719996, 8.333382222408488 ], [ 10.532619849189171, 8.347074628486684 ], [ 10.591301589524297, 8.327514048374976 ], [ 10.663675735937618, 8.341206454453172 ], [ 10.691060548094011, 8.376415498654248 ], [ 10.68714843207167, 8.45074570307874 ], [ 10.655851503892935, 8.482042631257473 ], [ 10.642159097814739, 8.527031965514404 ], [ 10.66954390997113, 8.572021299771333 ], [ 10.728225650306257, 8.587669763860699 ], [ 10.781039216607869, 8.620922750050603 ], [ 10.801088811222364, 8.656620808754472 ], [ 10.853413363021193, 8.702099157514194 ], [ 10.935567799490368, 8.752956665804636 ], [ 11.009898003914861, 8.790121768016881 ], [ 11.111613020495744, 8.799902058072735 ], [ 11.197679572987262, 8.815550522162104 ], [ 11.281790067467609, 8.827286870229129 ], [ 11.361988445925611, 8.865919015949752 ], [ 11.397197490126688, 8.930957944821182 ], [ 11.455879230461814, 8.99159574316748 ], [ 11.524341260852793, 9.042453251457921 ], [ 11.60649569732197, 9.056145657536117 ], [ 11.680825901746461, 9.067882005603142 ], [ 11.749287932137442, 9.103091049804217 ], [ 11.821662078550762, 9.148080384061148 ], [ 11.890124108941743, 9.185245486273393 ], [ 11.964454313366234, 9.204806066385101 ], [ 12.02117999569019, 9.241971168597347 ], [ 12.047586778840996, 9.307499111971572 ], [ 12.088663997075583, 9.405302012530115 ], [ 12.15125785343305, 9.499192797066314 ], [ 12.24319257995808, 9.571566943479636 ], [ 12.321434900404915, 9.62829262580359 ], [ 12.387940872784723, 9.681106192105203 ], [ 12.417281742952285, 9.76521668658555 ], [ 12.438798381075165, 9.841502949021212 ], [ 12.475963483287412, 9.892360457311655 ], [ 12.526820991577853, 9.919745269468047 ], [ 12.573277369343153, 9.92414639999318 ], [ 12.653964762303959, 9.921701327479218 ], [ 12.696998038549717, 9.90409680537868 ], [ 12.765460068940698, 9.886492283278143 ], [ 12.814361519219968, 9.900184689356339 ], [ 12.85837282447131, 9.952998255657951 ], [ 12.906296245744999, 10.019993242540552 ], [ 12.977692363152732, 10.082098084395227 ], [ 13.029527900448761, 10.133444607188462 ], [ 13.100924017856496, 10.17990098495377 ], [ 13.194814802392695, 10.201417623076649 ], [ 13.289683615934484, 10.223423275702322 ], [ 13.379662284448344, 10.250808087858713 ], [ 13.475509126995714, 10.299709538137984 ], [ 13.522454519263816, 10.356435220461938 ], [ 13.620257419822357, 10.442501772953456 ], [ 13.676983102146313, 10.473798701132189 ], [ 13.753269364581975, 10.485535049199214 ], [ 13.849116207129347, 10.509007745333264 ], [ 13.929314585587351, 10.548128905556682 ], [ 14.007556906034186, 10.577469775724245 ], [ 14.088733313497775, 10.577469775724245 ], [ 14.315636042793592, 10.536392557489657 ], [ 14.404636682301868, 10.524656209422632 ], [ 14.473098712692847, 10.489447165221556 ], [ 14.564055410212291, 10.465974469087506 ], [ 14.655012107731736, 10.438589656931114 ], [ 14.758683182323791, 10.417073018808235 ], [ 14.87017848896053, 10.399468496707698 ], [ 15.012970723776, 10.393600322674185 ], [ 15.116641798368056, 10.383820032618331 ], [ 15.214444698926597, 10.354479162450767 ], [ 15.277038555284067, 10.325138292283205 ], [ 15.349412701697387, 10.291885306093301 ], [ 15.415918674077197, 10.241027797802859 ], [ 15.497095081540788, 10.211686927635295 ], [ 15.593919953093744, 10.188214231501245 ], [ 15.693678911663456, 10.19995057956827 ], [ 15.813976479350465, 10.192126347523587 ], [ 15.924493756981617, 10.19995057956827 ], [ 16.035989063618356, 10.192126347523587 ], [ 16.139660138210409, 10.170609709400708 ], [ 16.267781937942104, 10.102147679009729 ], [ 16.364606809495058, 10.041509880663432 ], [ 16.427200665852524, 9.959355444194257 ], [ 16.542608088511606, 9.916322167948497 ], [ 16.667795801226529, 9.904585819881472 ], [ 16.779291107863269, 9.914366109937326 ], [ 16.892253458008387, 9.969135734250111 ] ] } },
{ "type": "Feature", "properties": { "id": 7, "name": null, "size": 2, "continent": "Westeros" }, "geometry": { "type": "LineString", "coordinates": [ [ 16.892253458008387, 9.969135734250111 ], [ 16.907779668472102, 9.917789211456876 ], [ 16.913647842505615, 9.843459007032383 ], [ 16.964505350796056, 9.782821208686087 ], [ 17.06035219334343, 9.702622830228083 ], [ 17.097517295555676, 9.610688103703053 ], [ 17.187495964069534, 9.518753377178022 ], [ 17.271606458549879, 9.46593981087641 ], [ 17.334200314907346, 9.440511056731189 ], [ 17.394838113253645, 9.385741432418405 ], [ 17.460366056627869, 9.22436664649681 ], [ 17.477970578728407, 9.101134991793046 ], [ 17.48579481077309, 8.934870060843524 ], [ 17.472102404694894, 8.805770232106248 ], [ 17.448629708560844, 8.662488982787984 ], [ 17.446673650549673, 8.566642140240612 ], [ 17.421244896404453, 8.494267993827291 ], [ 17.423200954415623, 8.394509035257578 ], [ 17.468190288672552, 8.302574308732549 ], [ 17.536652319063531, 8.23802439436391 ], [ 17.614894639510364, 8.113814710654561 ], [ 17.675532437856663, 7.980313751392151 ], [ 17.704873308024226, 7.890824097381085 ], [ 17.69118090194603, 7.788620066297407 ], [ 17.62858704558856, 7.70255351380589 ], [ 17.595334059398656, 7.624311193359056 ], [ 17.601202233432168, 7.54020069887871 ], [ 17.583597711331631, 7.456090204398364 ], [ 17.546432609119385, 7.360243361850992 ], [ 17.571861363264606, 7.242390866677948 ], [ 17.652059741722613, 7.168060662253456 ], [ 17.751818700292326, 7.109378921918331 ], [ 17.824192846705646, 7.017444195393301 ], [ 17.875050354996088, 6.896168598700708 ], [ 17.888742761074283, 6.796409640130995 ], [ 17.882018811660835, 6.702518855594795 ], [ 17.886786703063112, 6.595913693985983 ], [ 17.867226122951404, 6.517671373539149 ], [ 17.820280730683304, 6.431604821047632 ], [ 17.763555048359351, 6.35727461662314 ], [ 17.706829366035397, 6.26533989009811 ], [ 17.695093017968372, 6.171449105561909 ], [ 17.699005133990713, 6.096629886634624 ], [ 17.726389946147105, 6.057508726411207 ], [ 17.816368614660963, 6.014475450165448 ], [ 17.8809185290296, 5.989046696020227 ], [ 17.906347283174821, 5.92645283966276 ], [ 17.886786703063112, 5.840386287171243 ], [ 17.90439122516365, 5.71911069047865 ], [ 17.933732095331216, 5.615439615886595 ], [ 18.034196575636592, 5.489656880195262 ], [ 18.103909142303078, 5.393427031618704 ], [ 18.191931752805765, 5.307360479127187 ], [ 18.240833203085039, 5.209068564065852 ], [ 18.279954363308455, 5.111265663507309 ], [ 18.285822537341968, 5.056496039194526 ], [ 18.276042247286114, 5.001726414881742 ], [ 18.281910421319626, 4.888275050233832 ], [ 18.306671191450057, 4.783014234685957 ], [ 18.311251291487189, 4.70391658268098 ], [ 18.295602827397822, 4.623718204222976 ], [ 18.258437725185576, 4.535695593720288 ], [ 18.219316564962156, 4.390947300893645 ], [ 18.229096855018014, 4.269182689698259 ], [ 18.26821801524143, 4.120522280849275 ], [ 18.324943697565384, 3.991422452111999 ], [ 18.393405727956363, 3.868190797408235 ], [ 18.432066083848635, 3.736014024094777 ] ] } },
{ "type": "Feature", "properties": { "id": 9, "name": "Goldroad", "size": 2, "continent": "Westeros" }, "geometry": { "type": "LineString", "coordinates": [ [ 18.432066083848635, 3.736014024094777 ], [ 18.369566270945175, 3.723687011832989 ], [ 18.305505371079327, 3.718796866805062 ], [ 18.219438818587811, 3.730533214872087 ], [ 18.120168874520893, 3.747159707967039 ], [ 18.035569365537754, 3.73835744691677 ], [ 17.949502813046234, 3.718796866805062 ], [ 17.843875680443009, 3.730533214872087 ], [ 17.777369708063201, 3.757918027028479 ], [ 17.68739103954934, 3.785302839184871 ], [ 17.620885067169532, 3.804863419296579 ], [ 17.585676022968457, 3.797039187251896 ], [ 17.526994282633332, 3.757918027028479 ], [ 17.480048890365232, 3.71488475078272 ], [ 17.382245989806687, 3.648378778402911 ], [ 17.296179437315171, 3.617081850224177 ], [ 17.186640188689605, 3.632730314313545 ], [ 17.135782680399164, 3.679675706581645 ], [ 17.081013056086377, 3.73835744691677 ], [ 17.030155547795935, 3.797039187251896 ], [ 16.998858619617202, 3.875281507698729 ], [ 16.944088995304419, 3.94569959610088 ], [ 16.869758790879928, 4.000469220413664 ], [ 16.78760435441075, 4.027854032570056 ], [ 16.685889337829867, 4.063063076771131 ], [ 16.59982278533835, 4.113920585061573 ], [ 16.513756232846831, 4.168690209374357 ], [ 16.470722956601072, 4.236174210759751 ], [ 16.455074492511706, 4.306592299161902 ], [ 16.415953332288289, 4.369186155519369 ], [ 16.361183707975506, 4.459164824033228 ], [ 16.310326199685065, 4.53349502845772 ], [ 16.255556575372282, 4.588264652770504 ], [ 16.177314254925445, 4.654770625150313 ], [ 16.102984050500954, 4.744749293664172 ], [ 16.040390194143487, 4.799518917976956 ], [ 15.973884221763678, 4.838640078200372 ], [ 15.891729785294503, 4.866024890356764 ], [ 15.790014768713618, 4.873849122401448 ], [ 15.684387636110392, 4.85820065831208 ], [ 15.582672619529509, 4.846464310245056 ], [ 15.44574855874755, 4.842552194222714 ], [ 15.367506238300715, 4.87776123842379 ], [ 15.297088149898565, 4.936442978758914 ], [ 15.226670061496414, 4.963827790915307 ], [ 15.132779276960214, 4.979476255004673 ], [ 15.058449072535721, 4.963827790915307 ], [ 15.019327912312304, 4.916882398647206 ], [ 15.038888492424013, 4.866024890356764 ], [ 15.078009652647429, 4.807343150021639 ], [ 15.046712724468696, 4.768221989798222 ], [ 14.976294636066546, 4.760397757753538 ], [ 14.89414019959737, 4.772134105820563 ], [ 14.82078802417846, 4.791694685932272 ], [ 14.734721471686944, 4.793650743943443 ], [ 14.642786745161914, 4.785826511898759 ], [ 14.593885294882643, 4.76430987377588 ], [ 14.529335380514006, 4.699759959407242 ], [ 14.453049118078342, 4.676287263273192 ], [ 14.351334101497457, 4.656726683161484 ], [ 14.237882736849549, 4.666506973217338 ], [ 14.161596474413885, 4.686067553329046 ], [ 14.093134444022906, 4.707584191451925 ], [ 14.014892123576072, 4.727144771563634 ], [ 13.93860586114041, 4.719320539518951 ], [ 13.868187772738258, 4.711496307474267 ], [ 13.791901510302596, 4.693891785373729 ], [ 13.721483421900444, 4.67237514725085 ], [ 13.644219130459197, 4.660638799183825 ], [ 13.556196519956508, 4.62738581299392 ], [ 13.464261793431477, 4.600001000837529 ], [ 13.37428312491762, 4.594132826804016 ], [ 13.280392340381418, 4.588264652770504 ], [ 13.21388636800161, 4.594132826804016 ], [ 13.120973612470994, 4.600001000837529 ], [ 12.952752623510301, 4.572616188681137 ], [ 12.804092214661317, 4.498285984256645 ], [ 12.647607573767649, 4.43960424392152 ], [ 12.575233427354327, 4.425911837843324 ], [ 12.528288035086227, 4.404395199720444 ], [ 12.498947164918665, 4.369186155519369 ], [ 12.46373812071759, 4.328108937284781 ], [ 12.426573018505342, 4.312460473195414 ], [ 12.356154930103193, 4.314416531206585 ], [ 12.16126379220972, 4.316756997026147 ], [ 11.906261587533898, 4.341801343362977 ], [ 11.769337526751938, 4.412219431765127 ], [ 11.663710394148712, 4.427867895854495 ], [ 11.526786333366752, 4.466989056077911 ], [ 11.397686504629476, 4.525670796413037 ], [ 11.292059372026252, 4.580440420725821 ], [ 11.076892990797457, 4.619561580949237 ], [ 10.955617394104864, 4.697803901396071 ], [ 10.838253913434615, 4.760397757753538 ], [ 10.67003292447392, 4.776046221842905 ], [ 10.503767993524399, 4.800496946982541 ], [ 10.405965092965856, 4.898299847541083 ], [ 10.413789325010539, 4.992190632077284 ], [ 10.378580280809464, 5.062608720479434 ], [ 10.241656220027505, 5.117378344792218 ], [ 10.104732159245545, 5.211269129328419 ], [ 10.049962534932762, 5.309072029886961 ], [ 10.006929258687002, 5.395138582378479 ], [ 10.042138302888079, 5.500765714981704 ], [ 10.096907927200862, 5.590744383495563 ], [ 10.038226186865737, 5.680723052009422 ], [ 9.877829429949728, 5.76678960450094 ], [ 9.447496667492141, 5.938922709483974 ], [ 9.24015451830803, 5.974131753685049 ], [ 9.013251789012212, 6.0445498420872 ], [ 8.811777813861614, 6.029879407003419 ], [ 8.713974913303073, 6.022055174958735 ], [ 8.633776534845067, 6.024011232969906 ], [ 8.553578156387063, 6.03379152302576 ], [ 8.465555545884374, 6.029879407003419 ], [ 8.379488993392856, 6.00836276888054 ], [ 8.299290614934852, 5.986846130757661 ], [ 8.223004352499188, 5.975109782690635 ], [ 8.123245393929476, 5.977065840701806 ], [ 8.033266725415617, 5.961417376612439 ], [ 7.956980462979954, 5.943812854511902 ], [ 7.867001794466095, 5.922296216389022 ], [ 7.778979183963407, 5.906647752299656 ], [ 7.7056270085445, 5.87143870809858 ], [ 7.61369228201947, 5.840141779919847 ], [ 7.562834773729028, 5.77950398157355 ], [ 7.484592453282194, 5.7560312854395 ], [ 7.392657726757164, 5.7560312854395 ], [ 7.308547232276817, 5.748207053394816 ], [ 7.218568563762958, 5.734514647316621 ], [ 7.061105893863705, 5.695393487093204 ], [ 6.888972788880671, 5.683657139026179 ], [ 6.754004786109882, 5.679745023003837 ], [ 6.56426715902631, 5.728646473283108 ], [ 6.415606750177325, 5.795152445662917 ], [ 6.337364429730491, 5.818625141796967 ], [ 6.23075926812168, 5.853834185998043 ], [ 6.13686848358548, 5.885131114176776 ], [ 6.060582221149817, 5.889043230199118 ], [ 5.988208074736495, 5.918384100366681 ], [ 5.893157841440136, 5.979083143608097 ] ] } },
{ "type": "Feature", "properties": { "id": 10, "name": "High Road", "size": 2, "continent": "Westeros" }, "geometry": { "type": "LineString", "coordinates": [ [ 16.892253458008387, 9.969135734250111 ], [ 16.9856552280418, 10.021949300551723 ], [ 17.077589954566829, 10.090411330942704 ], [ 17.148008042968982, 10.178433941445391 ], [ 17.200821609270594, 10.262544435925738 ], [ 17.249723059549865, 10.321226176260863 ], [ 17.312316915907331, 10.366215510517792 ], [ 17.396427410387677, 10.393600322674185 ], [ 17.478581846856855, 10.413160902785894 ], [ 17.561714312331635, 10.422941192841748 ], [ 17.638978603772863, 10.420985134830577 ], [ 17.728957272286724, 10.413160902785894 ], [ 17.81306776676707, 10.417073018808235 ], [ 17.883485855169219, 10.434677540908773 ], [ 17.962706204621647, 10.464018411076335 ], [ 18.04926177161596, 10.47575475914336 ], [ 18.134839309604683, 10.47575475914336 ], [ 18.220905862096199, 10.471842643121018 ], [ 18.3084394580961, 10.479666875165702 ], [ 18.394995025090406, 10.497271397266239 ], [ 18.42775899677752, 10.516831977377947 ], [ 18.453187750922741, 10.540304673511999 ], [ 18.453187750922741, 10.567689485668391 ], [ 18.446341547883645, 10.595074297824782 ], [ 18.456121837939499, 10.617568964953247 ], [ 18.48350665009589, 10.644953777109638 ], [ 18.516759636285794, 10.670382531254861 ], [ 18.559792912531552, 10.682118879321886 ], [ 18.602581681525912, 10.720751025042508 ], [ 18.696472466062112, 10.744223721176558 ], [ 18.747329974352557, 10.779432765377635 ], [ 18.766890554464265, 10.842026621735101 ], [ 18.708208814129136, 10.896796246047886 ], [ 18.637790725726987, 10.935917406271303 ], [ 18.62605437765998, 10.962813203924901 ], [ 18.639746783738175, 10.991176045086879 ], [ 18.669087653905738, 11.00389042215949 ], [ 18.695494437056542, 11.0166047992321 ], [ 18.72190122020735, 11.034209321332638 ], [ 18.728747423246446, 11.067462307522542 ], [ 18.71603304617382, 11.108050511254337 ], [ 18.670065682911321, 11.132012221891181 ], [ 18.626054377659962, 11.13934743943307 ], [ 18.585955188430976, 11.15352886001406 ], [ 18.549768115224314, 11.172111411120182 ], [ 18.514559071023239, 11.199496223276574 ], [ 18.49304243290036, 11.227859064438551 ], [ 18.496954548922698, 11.255732891097736 ], [ 18.512603013012065, 11.267469239164761 ], [ 18.526784433593054, 11.276760514717823 ], [ 18.531185564118193, 11.287518833779263 ], [ 18.531674578620983, 11.300722225354665 ], [ 18.526784433593054, 11.310013500907727 ], [ 18.517493158039997, 11.314903645935654 ], [ 18.513581042017652, 11.324194921488715 ], [ 18.514314563771837, 11.33195802672055 ], [ 18.518471187045574, 11.339598878326687 ], [ 18.524828375581883, 11.344427896541765 ], [ 18.532163593123773, 11.346200574114388 ], [ 18.547323042710349, 11.353046777153486 ], [ 18.555147274755029, 11.359587346128338 ], [ 18.556858825514805, 11.370834679692571 ], [ 18.555636289257823, 11.377925389983066 ], [ 18.547323042710349, 11.38629976334339 ], [ 18.543899941190798, 11.402926256438342 ], [ 18.551235158732688, 11.416679789329388 ], [ 18.556858825514805, 11.422303456111504 ], [ 18.565416579313681, 11.426643459823788 ], [ 18.57593039112372, 11.428416137396413 ], [ 18.590600826207503, 11.431105717161772 ], [ 18.59940308725777, 11.435262340435511 ], [ 18.60906112368793, 11.447671083443876 ], [ 18.621775500760538, 11.468209692561169 ], [ 18.631066776313602, 11.478968011622609 ], [ 18.634000863330357, 11.488259287175671 ], [ 18.644759182391798, 11.504396765767829 ], [ 18.651116370928104, 11.512343251438212 ], [ 18.659918631978371, 11.518578186348819 ], [ 18.673122023553777, 11.525546643013614 ], [ 18.684858371620798, 11.524935374885125 ], [ 18.696350212436432, 11.519922976231499 ], [ 18.705396980738097, 11.515277338454968 ], [ 18.714688256291158, 11.515032831203571 ], [ 18.720923191201763, 11.519556215354404 ], [ 18.725202068101201, 11.533126367806902 ], [ 18.729603198626336, 11.544129194119739 ], [ 18.737549684296717, 11.550853143533137 ], [ 18.750630822246421, 11.554153991426988 ], [ 18.763956467447517, 11.553787230549894 ], [ 18.832418497838496, 11.542050882482869 ], [ 18.901858557235062, 11.52053424435999 ], [ 18.987925109726579, 11.499017606237111 ], [ 19.063233343156657, 11.4863032291645 ], [ 19.113601836944301, 11.502685215008055 ], [ 19.131206359044839, 11.532759606929808 ], [ 19.137074533078351, 11.575059361421378 ], [ 19.143920736117451, 11.618092637667136 ], [ 19.161525258217988, 11.6405873047956 ], [ 19.183041896340868, 11.639609275790015 ], [ 19.199179374933021, 11.626405884214611 ], [ 19.228520245100583, 11.597065014047049 ], [ 19.267641405323999, 11.55403173780129 ], [ 19.340015551737324, 11.538383273711924 ], [ 19.435862394284694, 11.550119621778949 ], [ 19.527797120809723, 11.567724143879486 ], [ 19.604083383245385, 11.591196840013536 ], [ 19.684281761703392, 11.640098290292809 ], [ 19.737095328005005, 11.675307334493883 ], [ 19.772990036584634, 11.725460025490387 ], [ 19.80873595266414, 11.798538989197647 ], [ 19.875241925043948, 11.847440439476918 ], [ 19.933923665379073, 11.868957077599797 ], [ 20.002385695770052, 11.868957077599797 ], [ 20.053243204060493, 11.857220729532772 ], [ 20.1334415825185, 11.843528323454576 ], [ 20.194079380864796, 11.841572265443405 ], [ 20.220363910389906, 11.845606635091444 ], [ 20.247504215294903, 11.856609461404281 ], [ 20.266820288155213, 11.865656229705946 ], [ 20.286625375518319, 11.882282722800898 ], [ 20.297261440954056, 11.904532882677966 ], [ 20.308019760015497, 11.926049520800847 ], [ 20.329536398138377, 11.956368419973995 ], [ 20.338338659188643, 11.991577464175069 ], [ 20.333937528663512, 12.016761711068893 ], [ 20.314376948551804, 12.039745392700151 ], [ 20.299706513468021, 12.056738646672198 ], [ 20.293349324931715, 12.073487393392849 ], [ 20.295794397445679, 12.088035574850933 ], [ 20.303618629490362, 12.103317278063205 ], [ 20.322201180596487, 12.117498698644193 ], [ 20.336382601177473, 12.133636177236353 ], [ 20.35597405454979, 12.153572995636594 ], [ 20.367410865961617, 12.181505208123168 ], [ 20.369170375409588, 12.214935887634658 ], [ 20.351575280929858, 12.253645095490066 ], [ 20.326942148658233, 12.269480680521825 ], [ 20.288232940802825, 12.276518718313717 ], [ 20.254802261291335, 12.290594793897503 ], [ 20.237207166811604, 12.315227926169126 ], [ 20.237207166811604, 12.350418115128589 ], [ 20.240726185707548, 12.397924870223864 ], [ 20.238966676259576, 12.433115059183326 ], [ 20.223131091227817, 12.480621814278601 ], [ 20.194978940060249, 12.51933102213401 ], [ 20.161548260548759, 12.549242682749552 ], [ 20.099965429869698, 12.57563532446915 ], [ 20.055977693670371, 12.586192381156989 ], [ 20.024306523606853, 12.617863551220506 ], [ 20.004951919679147, 12.665370306315781 ], [ 19.987356825199416, 12.741029212578626 ] ] } },
{ "type": "Feature", "properties": { "id": 11, "name": "Kingsroad", "size": 2, "continent": "Westeros" }, "geometry": { "type": "LineString", "coordinates": [ [ 16.892253458008387, 9.969135734250111 ], [ 16.833449464047611, 10.035152692127127 ], [ 16.780635897745999, 10.080142026384056 ], [ 16.712173867355016, 10.148604056775037 ], [ 16.675008765142771, 10.223423275702322 ], [ 16.637843662930525, 10.3388306983614 ], [ 16.587108408265735, 10.417806540562424 ], [ 16.533316812958532, 10.485779556450611 ], [ 16.487349449696019, 10.556686659355554 ], [ 16.426711651349724, 10.619280515713021 ], [ 16.375854143059282, 10.669404502249273 ], [ 16.321084518746499, 10.720995532293905 ], [ 16.27609518448957, 10.801193910751911 ], [ 16.233917683623744, 10.920757956684728 ], [ 16.220225277545548, 11.006824509176246 ], [ 16.212401045500865, 11.135924337913522 ], [ 16.190884407377986, 11.239595412505576 ], [ 16.141982957098712, 11.296321094829532 ], [ 16.016795244383779, 11.358914951186998 ], [ 15.914102198797307, 11.453783764728785 ], [ 15.828035646305791, 11.590707825510744 ], [ 15.728276687736077, 11.676774378002261 ], [ 15.628517729166363, 11.770665162538462 ], [ 15.562011756786555, 11.864555947074663 ], [ 15.509198190484943, 11.982408442247706 ], [ 15.419219521971083, 12.076299226783906 ], [ 15.331196911468394, 12.156497605241912 ], [ 15.256866707043903, 12.238652041711088 ], [ 15.171778183557969, 12.344768188817106 ], [ 15.081799515044111, 12.411274161196914 ], [ 14.993776904541422, 12.51494523578897 ], [ 14.944875454262151, 12.604923904302829 ], [ 14.929226990172785, 12.714463152928396 ], [ 14.946831512273322, 12.877793996861161 ], [ 14.925314874150443, 13.014718057643121 ], [ 14.87641342387117, 13.130125480302201 ], [ 14.802083219446679, 13.196631452682009 ], [ 14.727753015022186, 13.270961657106502 ], [ 14.672983390709403, 13.384413021754412 ], [ 14.601587273301666, 13.528183285575469 ], [ 14.56833428711176, 13.616205896078156 ], [ 14.537037358933027, 13.727701202714895 ], [ 14.51943283683249, 13.880273727586221 ], [ 14.509652546776636, 14.030890194446377 ], [ 14.507696488765465, 14.132605211027261 ], [ 14.478355618597902, 14.252413764211475 ], [ 14.456838980475023, 14.395205999026947 ], [ 14.435322342352142, 14.524305827764223 ], [ 14.392289066106384, 14.66612003357411 ], [ 14.349255789860626, 14.865637950713536 ], [ 14.337519441793601, 15.004518069506666 ], [ 14.316002803670722, 15.100364912054038 ], [ 14.26710135339145, 15.183008363026007 ], [ 14.208419613056325, 15.245602219383473 ], [ 14.155606046754713, 15.361009642042553 ], [ 14.126265176587149, 15.527274572992075 ], [ 14.114528828520124, 15.734616722176186 ], [ 14.094968248408415, 16.038783742913253 ], [ 14.069539494263195, 16.230477428007994 ], [ 14.046066798129145, 16.467649461862461 ], [ 14.038242566084461, 16.759102105526917 ], [ 14.038242566084461, 17.049576720185787 ], [ 14.024550160006266, 17.304353276140791 ], [ 14.03433045006212, 17.666713022710191 ], [ 14.055847088184999, 17.96598989841933 ], [ 14.093012190397245, 18.275047064184324 ], [ 14.124309118575978, 18.632027651223005 ], [ 14.13017729260949, 18.927881425412593 ], [ 14.192771148966958, 19.28241693993731 ], [ 14.274925585436133, 19.607122569791674 ], [ 14.321870977704235, 19.784634834305425 ], [ 14.339475499804772, 19.934273272159995 ], [ 14.347299731849455, 20.091735942059248 ], [ 14.317958861681893, 20.265825105053455 ], [ 14.355123963894139, 20.414485513902438 ], [ 14.433366284340972, 20.57683832882962 ], [ 14.482267734620244, 20.727454795689777 ], [ 14.507696488765465, 20.928928770840372 ], [ 14.52138889484366, 21.14507318107475 ], [ 14.490091966664927, 21.281997241856711 ], [ 14.445102632407997, 21.399360722526961 ], [ 14.357080021905309, 21.681522090638357 ], [ 14.210375671067496, 21.883974094794539 ], [ 14.032374392050949, 22.063931431822258 ], [ 13.917944998397456, 22.226284246749437 ], [ 13.870999606129356, 22.351471959464373 ], [ 13.878823838174039, 22.474703614168135 ], [ 13.921857114419797, 22.601847384894242 ], [ 13.966846448676726, 22.668842371776844 ], [ 13.988363086799605, 22.752952866257189 ], [ 13.992275202821947, 22.837063360737535 ], [ 13.935549520497993, 22.962251073452471 ], [ 13.908164708341602, 23.069834264066866 ], [ 13.972714622710239, 23.25957189115044 ], [ 13.980538854754922, 23.384270589362579 ], [ 13.972714622710239, 23.494298852490939 ], [ 13.941417694531506, 23.689904653608025 ], [ 13.944840796051054, 23.906782585596591 ], [ 13.917455983894662, 24.100432328702507 ], [ 13.876378765660075, 24.278433607719055 ], [ 13.807916735269094, 24.489687872925504 ], [ 13.805960677257923, 24.684804659539797 ], [ 13.860730301570706, 24.913663446846787 ], [ 13.91158780986115, 25.081884435807481 ], [ 13.909631751849979, 25.156214640231973 ], [ 13.890071171738271, 25.218808496589439 ], [ 13.897895403782954, 25.287270526980418 ], [ 13.931148389972858, 25.345952267315543 ], [ 13.956577144118079, 25.433974877818233 ], [ 13.940928680028712, 25.52199748832092 ], [ 13.890071171738271, 25.590459518711899 ], [ 13.809872793280265, 25.663811694130807 ], [ 13.759015284989824, 25.74205401457764 ], [ 13.760971343000994, 25.873109901326089 ], [ 13.75119105294514, 25.974824917906972 ], [ 13.700333544654697, 26.047199064320292 ], [ 13.600574586084985, 26.115661094711275 ], [ 13.500815627515271, 26.217376111292158 ], [ 13.481255047403563, 26.288772228699894 ], [ 13.485167163425904, 26.358212288096457 ], [ 13.559497367850396, 26.511762841973368 ], [ 13.669036616475964, 26.656511134800013 ], [ 13.823565199358461, 26.758226151380896 ], [ 13.954621086106908, 26.8384245298389 ], [ 14.030907348542572, 26.889282038129345 ], [ 14.083369073649028, 26.944524039506348 ], [ 14.128710249101113, 27.03647540346995 ], [ 14.140446597168138, 27.131833231514527 ] ] } },
{ "type": "Feature", "properties": { "id": 12, "name": null, "size": 1, "continent": "Westeros" }, "geometry": { "type": "LineString", "coordinates": [ [ 14.140446597168138, 27.131833231514527 ], [ 14.127732220095528, 27.211787102721136 ], [ 14.105237552967063, 27.283427727380268 ], [ 14.11012769799499, 27.346755105491926 ], [ 14.126754191089942, 27.408370932843805 ], [ 14.18934804744741, 27.477077470486183 ], [ 14.252919932810462, 27.56510008098887 ], [ 14.303777441100904, 27.660946923536244 ], [ 14.338008456296395, 27.729408953927223 ], [ 14.353656920385761, 27.807651274374056 ], [ 14.334096340274053, 27.943352798899035 ], [ 14.296931238061806, 28.035287525424064 ], [ 14.296931238061806, 28.14482677404963 ], [ 14.371261442486299, 28.264146312731054 ], [ 14.424075008787911, 28.316959879032666 ], [ 14.537526373435821, 28.359993155278424 ], [ 14.643153506039047, 28.460730142853723 ], [ 14.666626202173097, 28.582005739546315 ], [ 14.633373215983193, 28.693501046183055 ], [ 14.666626202173097, 28.810864526853305 ], [ 14.770297276765152, 28.906711369400679 ], [ 14.872012293346035, 28.994733979903366 ], [ 14.983507599982774, 29.039723314160295 ], [ 15.06566203645195, 29.098405054495419 ], [ 15.199652010217152, 29.15415270781379 ], [ 15.360048767133161, 29.32041763876331 ], [ 15.45198349365819, 29.404528133243659 ], [ 15.534137930127367, 29.496462859768688 ], [ 15.586951496428979, 29.637299036572987 ], [ 15.678886222954009, 29.751239415723692 ], [ 15.815810283735969, 29.872515012416283 ], [ 16.024130461925665, 30.113599162293092 ], [ 16.16203255171321, 30.276440991723064 ], [ 16.357638352830293, 30.479871024884833 ], [ 16.457397311400008, 30.552245171298154 ], [ 16.523903283779816, 30.665696535946061 ], [ 16.58062896610377, 30.785016074627485 ], [ 16.649090996494749, 30.892599265241881 ], [ 16.677453837656728, 30.97719877422502 ], [ 16.708750765835461, 31.069622515252842 ], [ 16.790905202304639, 31.194810227967775 ], [ 16.86327934871796, 31.374767564995494 ], [ 16.91218079899723, 31.509735567766285 ], [ 16.974774655354697, 31.59384606224663 ], [ 17.090182078013779, 31.632967222470047 ], [ 17.217325848739883, 31.631011164458876 ], [ 17.338601445432474, 31.631011164458876 ], [ 17.449729991192033, 31.675022469710221 ], [ 17.529317101521634, 31.758643949687773 ], [ 17.593867015890272, 31.877963488369193 ], [ 17.6525487562254, 32.024667839207005 ], [ 17.689713858437646, 32.187998683139774 ], [ 17.730791076672233, 32.291669757731832 ], [ 17.750351656783941, 32.410989296413248 ], [ 17.752307714795112, 32.495099790893597 ], [ 17.781648584962674, 32.592902691452139 ], [ 17.834462151264287, 32.686793475988338 ], [ 17.867715137454191, 32.7366729552732 ], [ 17.873583311487703, 32.811003159697691 ], [ 17.816857629163749, 32.916630292300916 ], [ 17.793384933029699, 32.99878472877009 ], [ 17.693625974459987, 33.06920281717224 ], [ 17.640812408158375, 33.137664847563222 ], [ 17.631032118102517, 33.210038993976539 ], [ 17.642768466169546, 33.258940444255813 ], [ 17.693625974459987, 33.376303924926063 ], [ 17.754263772806283, 33.520074188747124 ], [ 17.816857629163749, 33.692207293730156 ], [ 17.836418209275458, 33.813482890422748 ], [ 17.779692526951504, 34.013000807562179 ], [ 17.726878960649891, 34.126452172210087 ], [ 17.701450206504671, 34.280002726086998 ], [ 17.754263772806283, 34.383673800679048 ], [ 17.844242441320141, 34.477564585215255 ], [ 17.949869573923369, 34.557762963673255 ], [ 18.010507372269664, 34.688818850421704 ], [ 18.026155836359031, 34.806182331091954 ], [ 18.005250466364547, 34.922812290008018 ], [ 17.998404263325448, 34.971713740287285 ], [ 17.977865654208156, 35.016703074544218 ], [ 17.946568726029422, 35.083209046924026 ], [ 17.926985716847057, 35.11593528601658 ], [ 17.900601362766906, 35.150693048309421 ], [ 17.891799101716639, 35.208396759638958 ], [ 17.897178261247365, 35.247517919862375 ], [ 17.912826725336732, 35.314023892242183 ], [ 17.956077701587738, 35.392309141053147 ] ] } },
{ "type": "Feature", "properties": { "id": 13, "name": null, "size": 2, "continent": "Essos" }, "geometry": { "type": "LineString", "coordinates": [ [ 31.478578047309355, 4.2999906033742 ], [ 35.163791340355203, 5.088281981876052 ], [ 38.472956060555553, 8.279425246563054 ], [ 45.284450325225372, 4.300748690097034 ], [ 42.690353210409533, 2.056775112250199 ] ] } },
{ "type": "Feature", "properties": { "id": 14, "name": null, "size": 2, "continent": "Essos" }, "geometry": { "type": "LineString", "coordinates": [ [ 42.356144379666382, -8.431016290594229 ], [ 43.793650442282157, -9.585068848239823 ], [ 47.173987528944288, -8.954258480319467 ], [ 47.878168412965742, -8.775279172297335 ], [ 50.364680588206028, -8.111251841220437 ], [ 52.97594512793156, -8.343274382348957 ], [ 52.183480108976092, -16.005166155497541 ], [ 48.885400330233892, -13.567358542712498 ], [ 49.13004554011507, -11.61645343352299 ], [ 47.878168412965742, -8.775279172297335 ] ] } },
{ "type": "Feature", "properties": { "id": 16, "name": null, "size": 2, "continent": "Essos" }, "geometry": { "type": "LineString", "coordinates": [ [ 52.97594512793156, -8.343274382348957 ], [ 55.60850967311292, -7.614358742667435 ], [ 55.951878718752191, -10.04432089584699 ] ] } },
{ "type": "Feature", "properties": { "id": 17, "name": null, "size": 2, "continent": "Essos" }, "geometry": { "type": "LineString", "coordinates": [ [ 55.60850967311292, -7.614358742667435 ], [ 59.417423964550558, -6.541053686241178 ], [ 63.162805712254794, -5.562453888949216 ], [ 65.498616425234744, -6.197199728807325 ] ] } },
{ "type": "Feature", "properties": { "id": 18, "name": null, "size": 1, "continent": "Essos" }, "geometry": { "type": "LineString", "coordinates": [ [ 65.498616425234744, -6.197199728807325 ], [ 65.455305701347044, -6.242184047831086 ], [ 65.380975496922545, -6.29695367214387 ], [ 65.283172596364011, -6.34389906441197 ], [ 65.185369695805463, -6.39084445668007 ], [ 65.087566795246914, -6.457350429059879 ], [ 65.040621402978815, -6.523856401439688 ], [ 65.017148706844765, -6.617747185975889 ], [ 65.021060822867113, -6.680341042333356 ], [ 64.978027546621348, -6.774231826869556 ], [ 64.903697342196864, -6.844649915271707 ], [ 64.845584502739257, -6.880208524159926 ], [ 64.798070209593632, -7.09209125368482 ], [ 64.845015601861732, -7.201630502310387 ], [ 64.852839833906415, -7.326818215025321 ], [ 64.790245977548949, -7.475478623874306 ], [ 64.696355193012749, -7.545896712276456 ], [ 64.60246440847655, -7.631963264767974 ], [ 64.4851009278063, -7.64761172885734 ], [ 64.367737447136051, -7.725854049304174 ], [ 64.246461850443453, -7.790403963672812 ], [ 64.191692226130669, -7.915591676387747 ], [ 64.066504513415737, -7.931240140477113 ], [ 63.933492568656114, -7.907767444343063 ], [ 63.777007927762448, -7.868646284119646 ], [ 63.586626582126712, -7.844310163389574 ], [ 63.659644447092191, -7.907767444343063 ], [ 63.690941375270924, -7.993833996834581 ], [ 63.651820215047508, -8.087724781370781 ], [ 63.612699054824091, -8.173791333862299 ], [ 63.620523286868774, -8.275506350443182 ], [ 63.643995983002824, -8.416342527247483 ], [ 63.753535231628398, -8.549354472007101 ], [ 63.753535231628398, -8.635421024498619 ], [ 63.698765607315607, -8.760608737213554 ], [ 63.604874822779408, -8.89362068197317 ], [ 63.589226358690041, -9.073578019000889 ], [ 63.737886767539031, -9.300480748296707 ], [ 63.87872294434333, -9.464789621235058 ], [ 64.043031817281687, -9.574328869860626 ], [ 64.105625673639153, -9.715165046664927 ], [ 64.07432874546042, -9.840352759379861 ], [ 63.980437960924213, -9.918595079826694 ], [ 63.97261372887953, -10.035958560496946 ], [ 64.02738335319232, -10.16114627321188 ], [ 63.988262192968897, -10.278509753882132 ], [ 63.94914103274548, -10.366532364384817 ], [ 63.94914103274548, -10.523017005278485 ], [ 63.94914103274548, -10.695150110261521 ], [ 63.87872294434333, -10.78904089479772 ], [ 63.761359463673081, -10.859458983199872 ], [ 63.675292911181558, -10.953349767736071 ], [ 63.557929430511308, -11.117658640674422 ], [ 63.573577894600675, -11.25067058543404 ], [ 63.597050590734725, -11.391506762238341 ], [ 63.503159806198525, -11.47757331472986 ], [ 63.393620557572959, -11.579288331310744 ], [ 63.409269021662325, -11.71230027607036 ], [ 63.479687110064475, -11.845312220829978 ], [ 63.471862878019792, -11.986148397634279 ], [ 63.377972093483592, -12.080039182170481 ], [ 63.252784380768659, -12.181754198751365 ], [ 63.10412397191967, -12.259996519198198 ], [ 62.978936259204737, -12.33041460760035 ], [ 62.775506226042971, -12.385184231913133 ], [ 62.607362906547721, -12.334186950010796 ] ] } },
{ "type": "Feature", "properties": { "id": 19, "name": null, "size": 1, "continent": "Essos" }, "geometry": { "type": "LineString", "coordinates": [ [ 47.974557138209668, -18.505860150358441 ], [ 50.667980541003878, -20.097972650676795 ], [ 54.333159849829592, -19.742896440932281 ] ] } },
{ "type": "Feature", "properties": { "id": 20, "name": null, "size": 1, "continent": "Essos" }, "geometry": { "type": "LineString", "coordinates": [ [ 44.65458481055623, -6.450504226020781 ], [ 47.173987528944288, -8.954258480319467 ] ] } },
{ "type": "Feature", "properties": { "id": 21, "name": null, "size": 1, "continent": "Essos" }, "geometry": { "type": "LineString", "coordinates": [ [ 51.665145738571709, -17.812153989505511 ], [ 50.667980541003878, -20.097972650676795 ], [ 49.830026593467906, -22.706403581649496 ] ] } },
{ "type": "Feature", "properties": { "id": 22, "name": "Boneway", "size": null, "continent": "Westeros" }, "geometry": { "type": "LineString", "coordinates": [ [ 17.709604279884825, -1.428592442955215 ], [ 17.672109336337108, -1.479182790630071 ], [ 17.650592698214229, -1.535908472954025 ], [ 17.646680582191888, -1.588722039255638 ], [ 17.648636640203058, -1.649359837601934 ], [ 17.6525487562254, -1.70804157793706 ], [ 17.668197220314767, -1.758899086227502 ], [ 17.703406264515841, -1.827361116618482 ], [ 17.744483482750429, -1.876262566897753 ], [ 17.769912236895649, -1.932988249221707 ], [ 17.807077339107895, -1.98580181552332 ], [ 17.863803021431849, -2.034703265802591 ], [ 17.879451485521216, -2.085560774093034 ], [ 17.871627253476532, -2.167715210562209 ], [ 17.824681861208433, -2.228353008908505 ], [ 17.801209165074383, -2.284100662226875 ], [ 17.797297049052041, -2.348650576595513 ], [ 17.769912236895649, -2.405376258919467 ], [ 17.707318380538183, -2.460145883232251 ], [ 17.638856350147204, -2.473838289310447 ], [ 17.580174609812076, -2.493398869422156 ], [ 17.509756521409926, -2.511003391522693 ], [ 17.453030839085972, -2.540344261690256 ], [ 17.386524866706164, -2.571641189868989 ], [ 17.351315822505089, -2.620542640148261 ], [ 17.365008228583285, -2.653795626338165 ], [ 17.408041504829043, -2.667488032416361 ], [ 17.472591419197681, -2.675312264461045 ], [ 17.498020173342901, -2.706609192639778 ], [ 17.49410805732056, -2.749642468885537 ], [ 17.441294491018947, -2.786807571097783 ], [ 17.394349098750848, -2.784851513086612 ], [ 17.33762341642689, -2.810280267231833 ], [ 17.273073502058253, -2.835709021377054 ], [ 17.198743297633762, -2.884610471656325 ], [ 17.167446369455028, -2.929599805913254 ], [ 17.187006949566737, -2.975078154672977 ], [ 17.173314543488541, -3.020067488929906 ], [ 17.132237325253953, -3.047452301086298 ], [ 17.091160107019366, -3.072881055231519 ], [ 17.069643468896487, -3.106134041421424 ], [ 17.07746770094117, -3.145255201644841 ], [ 17.089204049008195, -3.176552129823574 ], [ 17.085291932985854, -3.215673290046991 ], [ 17.050082888784779, -3.260662624303921 ], [ 16.997269322483163, -3.301739842538508 ], [ 16.938587582148038, -3.291959552482654 ], [ 16.881861899824084, -3.274355030382117 ], [ 16.819268043466618, -3.266530798337433 ], [ 16.746893897053297, -3.256750508281579 ], [ 16.688212156718169, -3.276311088393288 ], [ 16.615838010304849, -3.319344364639046 ], [ 16.553244153947382, -3.398564714091465 ], [ 16.508254819690453, -3.461158570448933 ], [ 16.459353369411183, -3.533532716862254 ], [ 16.412407977143079, -3.607862921286746 ], [ 16.36546258487498, -3.656764371566017 ], [ 16.332209598685075, -3.711533995878801 ], [ 16.306780844539855, -3.789776316325635 ], [ 16.3439459467521, -3.884156115364628 ], [ 16.386979222997859, -3.923277275588045 ], [ 16.435880673277129, -3.970222667856146 ], [ 16.482826065545233, -4.021080176146588 ], [ 16.516079051735137, -4.060201336370005 ], [ 16.52390328377982, -4.111058844660447 ], [ 16.498474529634599, -4.177564817040256 ], [ 16.469133659467037, -4.218642035274843 ], [ 16.461309427422353, -4.27927983362114 ], [ 16.519991167757478, -4.308620703788702 ], [ 16.553244153947382, -4.351653980034461 ], [ 16.566936560025578, -4.39664331429139 ], [ 16.551288095936211, -4.449456880593003 ], [ 16.533683573835674, -4.480753808771738 ], [ 16.455441253388841, -4.526721172034252 ], [ 16.398715571064884, -4.569754448280011 ], [ 16.340033830729759, -4.630392246626307 ], [ 16.324385366640392, -4.70667850906197 ], [ 16.336121714707417, -4.763404191385924 ], [ 16.336121714707417, -4.816217757687538 ], [ 16.302868728517513, -4.870987382000322 ], [ 16.244186988182388, -4.919888832279592 ], [ 16.171812841769068, -4.962922108525351 ], [ 16.103350811378085, -5.019647790849306 ], [ 16.037822868003861, -5.114027589888299 ], [ 16.010438055847469, -5.186401736301621 ], [ 15.965448721590541, -5.237259244592063 ], [ 15.93317376440622, -5.302298173463494 ], [ 15.929261648383877, -5.380540493910328 ], [ 15.944910112473245, -5.450958582312478 ], [ 15.960558576562612, -5.527244844748141 ], [ 15.976207040651978, -5.576146295027412 ], [ 15.984031272696662, -5.644608325418392 ], [ 15.974250982640807, -5.720894587854055 ], [ 15.950778286506758, -5.801092966312059 ], [ 15.907745010260998, -5.840214126535477 ], [ 15.84123903788119, -5.861730764658356 ], [ 15.802117877657773, -5.887159518803577 ], [ 15.745392195333817, -5.906720098915286 ], [ 15.688666513009863, -5.918456446982311 ], [ 15.621182511624466, -5.954643520188971 ], [ 15.562500771289342, -6.017237376546438 ], [ 15.517511437032413, -6.095479696993272 ], [ 15.507731146976559, -6.165897785395423 ], [ 15.505775088965388, -6.220667409708207 ], [ 15.46860998675314, -6.281305208054503 ], [ 15.464697870730799, -6.334118774356115 ], [ 15.456873638686115, -6.388888398668899 ], [ 15.470566044764311, -6.433877732925829 ], [ 15.525335669077096, -6.457350429059879 ], [ 15.607490105546271, -6.508207937350321 ], [ 15.675952135937251, -6.537548807517884 ], [ 15.756150514395255, -6.561021503651935 ], [ 15.830480718819748, -6.57275785171896 ], [ 15.902854865233069, -6.594274489841839 ], [ 16.028313007708071, -6.603797543700376 ] ] } }
]
}
