{
"type": "FeatureCollection",
"name": "got_locations",
"features": [
{ "type": "Feature", "properties": { "id": 1, "name": "King's Landing", "size": 5, "confirmed": 1, "type": "city" }, "geometry": { "type": "Point", "coordinates": [ 18.432066083848635, 3.736014024094777 ] } },
{ "type": "Feature", "properties": { "id": 2, "name": "Hayford Castle", "size": 3, "confirmed": 0, "type": "castle" }, "geometry": { "type": "Point", "coordinates": [ 18.306671191450057, 4.783014234685957 ] } },
{ "type": "Feature", "properties": { "id": 3, "name": "Rosby", "size": 3, "confirmed": 1, "type": "castle" }, "geometry": { "type": "Point", "coordinates": [ 19.111838395272535, 4.56899438074251 ] } },
{ "type": "Feature", "properties": { "id": 5, "name": "Brindlewood", "size": 2, "confirmed": 0, "type": "settlement" }, "geometry": { "type": "Point", "coordinates": [ 18.034196575636592, 5.489656880195262 ] } },
{ "type": "Feature", "properties": { "id": 6, "name": "Sow's Horn", "size": 3, "confirmed": 1, "type": "castle" }, "geometry": { "type": "Point", "coordinates": [ 18.724339893198717, 6.821859759587725 ] } },
{ "type": "Feature", "properties": { "id": 7, "name": "Tumbleton", "size": 4, "confirmed": 1, "type": "city" }, "geometry": { "type": "Point", "coordinates": [ 15.774328498583072, 2.48053704249166 ] } },
{ "type": "Feature", "properties": { "id": 8, "name": "High Heart", "size": 3, "confirmed": 1, "type": "ruin" }, "geometry": { "type": "Point", "coordinates": [ 13.967112236656227, 8.651870933615321 ] } },
{ "type": "Feature", "properties": { "id": 9, "name": "Duskendale", "size": 4, "confirmed": 1, "type": "city" }, "geometry": { "type": "Point", "coordinates": [ 20.414813893729992, 5.708862237207821 ] } },
{ "type": "Feature", "properties": { "id": 10, "name": "Antlers", "size": 3, "confirmed": 1, "type": "castle" }, "geometry": { "type": "Point", "coordinates": [ 19.52573582206184, 7.468633415117259 ] } },
{ "type": "Feature", "properties": { "id": 11, "name": "Stokeworth", "size": 3, "confirmed": 0, "type": "castle" }, "geometry": { "type": "Point", "coordinates": [ 18.961805111147086, 5.151332170766397 ] } },
{ "type": "Feature", "properties": { "id": 15, "name": "Harrenhal", "size": 5, "confirmed": 1, "type": "castle" }, "geometry": { "type": "Point", "coordinates": [ 16.6241060494282, 8.454703521361028 ] } },
{ "type": "Feature", "properties": { "id": 16, "name": "Rushing Falls", "size": 1, "confirmed": 0, "type": "other" }, "geometry": { "type": "Point", "coordinates": [ 14.345774366084132, 7.319895947433868 ] } },
{ "type": "Feature", "properties": { "id": 17, "name": "Tumbler's Falls", "size": 4, "confirmed": 0, "type": "city" }, "geometry": { "type": "Point", "coordinates": [ 14.58997317886023, 5.923151991768906 ] } },
{ "type": "Feature", "properties": { "id": 18, "name": "Stoney Sept", "size": 4, "confirmed": 1, "type": "city" }, "geometry": { "type": "Point", "coordinates": [ 13.209615551920029, 6.574686598017373 ] } },
{ "type": "Feature", "properties": { "id": 19, "name": "Hollow Hill", "size": 1, "confirmed": 0, "type": "other" }, "geometry": { "type": "Point", "coordinates": [ 12.620910989220055, 6.957811789615762 ] } },
{ "type": "Feature", "properties": { "id": 21, "name": "Acorn Hall", "size": 3, "confirmed": 1, "type": "castle" }, "geometry": { "type": "Point", "coordinates": [ 13.559814541045789, 8.244573238004884 ] } },
{ "type": "Feature", "properties": { "id": 22, "name": "Pinkmaiden", "size": 3, "confirmed": 1, "type": "castle" }, "geometry": { "type": "Point", "coordinates": [ 11.914474242350243, 7.592459357897832 ] } },
{ "type": "Feature", "properties": { "id": 23, "name": "Mummer's Ford", "size": 1, "confirmed": 0, "type": "other" }, "geometry": { "type": "Point", "coordinates": [ 11.64463882853973, 8.046697470146258 ] } },
{ "type": "Feature", "properties": { "id": 24, "name": "Sherrer", "size": 1, "confirmed": 0, "type": "ruin" }, "geometry": { "type": "Point", "coordinates": [ 11.491058611094779, 8.377410654915145 ] } },
{ "type": "Feature", "properties": { "id": 25, "name": "Wendish Town", "size": 1, "confirmed": 0, "type": "ruin" }, "geometry": { "type": "Point", "coordinates": [ 11.568456596672911, 8.699902261490699 ] } },
{ "type": "Feature", "properties": { "id": 27, "name": "Sallydance", "size": 2, "confirmed": 0, "type": "settlement" }, "geometry": { "type": "Point", "coordinates": [ 13.608521071755261, 9.144046014413103 ] } },
{ "type": "Feature", "properties": { "id": 29, "name": "Lord Lychester's Keep", "size": 3, "confirmed": 0, "type": "castle" }, "geometry": { "type": "Point", "coordinates": [ 13.740835739094873, 9.707827922234973 ] } },
{ "type": "Feature", "properties": { "id": 32, "name": "Riverrun", "size": 5, "confirmed": 1, "type": "castle" }, "geometry": { "type": "Point", "coordinates": [ 12.722426792694867, 9.967301929864634 ] } },
{ "type": "Feature", "properties": { "id": 33, "name": "Raventree Hall", "size": 3, "confirmed": 0, "type": "castle" }, "geometry": { "type": "Point", "coordinates": [ 13.11641630823557, 11.473330078040462 ] } },
{ "type": "Feature", "properties": { "id": 34, "name": "Darry", "size": 3, "confirmed": 0, "type": "castle" }, "geometry": { "type": "Point", "coordinates": [ 17.394838113253645, 9.385741432418405 ] } },
{ "type": "Feature", "properties": { "id": 35, "name": "Inn of the Kneeling Man", "size": 1, "confirmed": 1, "type": "other" }, "geometry": { "type": "Point", "coordinates": [ 13.849116207129347, 10.509007745333264 ] } },
{ "type": "Feature", "properties": { "id": 37, "name": "Lord Harroway's Town", "size": 4, "confirmed": 0, "type": "city" }, "geometry": { "type": "Point", "coordinates": [ 16.624762524980707, 10.069994975451104 ] } },
{ "type": "Feature", "properties": { "id": 38, "name": "Crossroads Inn", "size": 1, "confirmed": 0, "type": "other" }, "geometry": { "type": "Point", "coordinates": [ 16.955361679658328, 10.045686830312304 ] } },
{ "type": "Feature", "properties": { "id": 39, "name": "Saltpans", "size": 4, "confirmed": 1, "type": "city" }, "geometry": { "type": "Point", "coordinates": [ 18.813907673483417, 9.239718417904792 ] } },
{ "type": "Feature", "properties": { "id": 40, "name": "Quiet Isle", "size": 1, "confirmed": 1, "type": "other" }, "geometry": { "type": "Point", "coordinates": [ 19.191020395808383, 8.689911129929216 ] } },
{ "type": "Feature", "properties": { "id": 41, "name": "Wickenden", "size": 3, "confirmed": 1, "type": "castle" }, "geometry": { "type": "Point", "coordinates": [ 22.005349107838324, 8.913974543290426 ] } },
{ "type": "Feature", "properties": { "id": 42, "name": "Maidenpool", "size": 4, "confirmed": 1, "type": "city" }, "geometry": { "type": "Point", "coordinates": [ 20.016001566778105, 8.015468284223861 ] } },
{ "type": "Feature", "properties": { "id": 43, "name": "Rook's Rest", "size": 3, "confirmed": 1, "type": "castle" }, "geometry": { "type": "Point", "coordinates": [ 21.582966312390464, 7.094334375401252 ] } },
{ "type": "Feature", "properties": { "id": 44, "name": "Dyre Den", "size": 3, "confirmed": 1, "type": "castle" }, "geometry": { "type": "Point", "coordinates": [ 24.071064966825507, 8.787165422782085 ] } },
{ "type": "Feature", "properties": { "id": 45, "name": "The Whispers", "size": 3, "confirmed": 1, "type": "ruin" }, "geometry": { "type": "Point", "coordinates": [ 24.586786817517417, 7.7825920554837 ] } },
{ "type": "Feature", "properties": { "id": 46, "name": "Dragonstone", "size": 3, "confirmed": 1, "type": "castle" }, "geometry": { "type": "Point", "coordinates": [ 23.668318796879248, 6.658586192586435 ] } },
{ "type": "Feature", "properties": { "id": 47, "name": "Sharp Point", "size": 3, "confirmed": 1, "type": "castle" }, "geometry": { "type": "Point", "coordinates": [ 23.608140965564573, 5.205397030133842 ] } },
{ "type": "Feature", "properties": { "id": 48, "name": "Stonedance", "size": 3, "confirmed": 1, "type": "castle" }, "geometry": { "type": "Point", "coordinates": [ 23.956268438092618, 4.629597397070654 ] } },
{ "type": "Feature", "properties": { "id": 49, "name": "Haystack Hall", "size": 3, "confirmed": 1, "type": "castle" }, "geometry": { "type": "Point", "coordinates": [ 21.667658142650588, 1.26789036671634 ] } },
{ "type": "Feature", "properties": { "id": 50, "name": "Bronzegate", "size": 3, "confirmed": 1, "type": "castle" }, "geometry": { "type": "Point", "coordinates": [ 21.30085238714306, 0.756173695452755 ] } },
{ "type": "Feature", "properties": { "id": 51, "name": "Felwood", "size": 3, "confirmed": 1, "type": "castle" }, "geometry": { "type": "Point", "coordinates": [ 19.842686297347715, 0.443709533353752 ] } },
{ "type": "Feature", "properties": { "id": 52, "name": "Storm's End", "size": 5, "confirmed": 1, "type": "castle" }, "geometry": { "type": "Point", "coordinates": [ 22.333342661904986, -0.589912857937515 ] } },
{ "type": "Feature", "properties": { "id": 53, "name": "Griffin's Roost", "size": 3, "confirmed": 1, "type": "castle" }, "geometry": { "type": "Point", "coordinates": [ 21.228396929265031, -1.359752097891581 ] } },
{ "type": "Feature", "properties": { "id": 54, "name": "Rain House", "size": 3, "confirmed": 1, "type": "castle" }, "geometry": { "type": "Point", "coordinates": [ 24.600972070181548, -2.218462485399155 ] } },
{ "type": "Feature", "properties": { "id": 55, "name": "Greenstone", "size": 3, "confirmed": 1, "type": "castle" }, "geometry": { "type": "Point", "coordinates": [ 24.284857806912527, -4.175179192432945 ] } },
{ "type": "Feature", "properties": { "id": 56, "name": "Weeping Tower", "size": 3, "confirmed": 1, "type": "castle" }, "geometry": { "type": "Point", "coordinates": [ 22.559021701070535, -4.536052727700729 ] } },
{ "type": "Feature", "properties": { "id": 57, "name": "Mistwood", "size": 3, "confirmed": 1, "type": "castle" }, "geometry": { "type": "Point", "coordinates": [ 22.554506041042544, -3.438747340899378 ] } },
{ "type": "Feature", "properties": { "id": 58, "name": "Stonehelm", "size": 3, "confirmed": 1, "type": "castle" }, "geometry": { "type": "Point", "coordinates": [ 19.43418496170208, -3.211835424492926 ] } },
{ "type": "Feature", "properties": { "id": 59, "name": "Crow's Nest", "size": 3, "confirmed": 1, "type": "castle" }, "geometry": { "type": "Point", "coordinates": [ 20.416442810639932, -2.318948829971144 ] } },
{ "type": "Feature", "properties": { "id": 60, "name": "Grandview", "size": 4, "confirmed": 0, "type": "city" }, "geometry": { "type": "Point", "coordinates": [ 19.636113833178261, -1.293112772317447 ] } },
{ "type": "Feature", "properties": { "id": 61, "name": "Summerhall", "size": 3, "confirmed": 1, "type": "ruin" }, "geometry": { "type": "Point", "coordinates": [ 17.709604279884825, -1.428592442955215 ] } },
{ "type": "Feature", "properties": { "id": 62, "name": "Blackhaven", "size": 3, "confirmed": 1, "type": "castle" }, "geometry": { "type": "Point", "coordinates": [ 15.153883504585645, -3.569625020668221 ] } },
{ "type": "Feature", "properties": { "id": 63, "name": "Fawnton", "size": 4, "confirmed": 0, "type": "city" }, "geometry": { "type": "Point", "coordinates": [ 14.787619295633226, -1.398921138525803 ] } },
{ "type": "Feature", "properties": { "id": 64, "name": "Grassy Vale", "size": 3, "confirmed": 1, "type": "castle" }, "geometry": { "type": "Point", "coordinates": [ 15.221621270915344, 0.392966545754584 ] } },
{ "type": "Feature", "properties": { "id": 65, "name": "Wyl", "size": 3, "confirmed": 1, "type": "castle" }, "geometry": { "type": "Point", "coordinates": [ 16.75105052032697, -4.095899395073858 ] } },
{ "type": "Feature", "properties": { "id": 66, "name": "Ghaston Grey", "size": 3, "confirmed": 1, "type": "castle" }, "geometry": { "type": "Point", "coordinates": [ 17.901106449522466, -5.862745593358201 ] } },
{ "type": "Feature", "properties": { "id": 67, "name": "Yronwood", "size": 3, "confirmed": 1, "type": "castle" }, "geometry": { "type": "Point", "coordinates": [ 16.028313007708071, -6.603797543700376 ] } },
{ "type": "Feature", "properties": { "id": 68, "name": "Vulture's Roost", "size": 3, "confirmed": 1, "type": "castle" }, "geometry": { "type": "Point", "coordinates": [ 14.402802877916363, -4.504715519408566 ] } },
{ "type": "Feature", "properties": { "id": 69, "name": "Nightsong", "size": 3, "confirmed": 1, "type": "castle" }, "geometry": { "type": "Point", "coordinates": [ 12.163218329521563, -3.671801303625693 ] } },
{ "type": "Feature", "properties": { "id": 70, "name": "Ashford", "size": 3, "confirmed": 1, "type": "castle" }, "geometry": { "type": "Point", "coordinates": [ 13.005333474758908, -1.585011521413024 ] } },
{ "type": "Feature", "properties": { "id": 71, "name": "Cider Hall", "size": 3, "confirmed": 1, "type": "castle" }, "geometry": { "type": "Point", "coordinates": [ 11.109656962484497, -1.2426220249041 ] } },
{ "type": "Feature", "properties": { "id": 72, "name": "Highgarden", "size": 5, "confirmed": 1, "type": "castle" }, "geometry": { "type": "Point", "coordinates": [ 8.989779092878166, -2.264540082115166 ] } },
{ "type": "Feature", "properties": { "id": 73, "name": "Horn Hill", "size": 3, "confirmed": 1, "type": "castle" }, "geometry": { "type": "Point", "coordinates": [ 9.286499569822073, -3.69465163685863 ] } },
{ "type": "Feature", "properties": { "id": 74, "name": "Brightwater Keep", "size": 3, "confirmed": 1, "type": "castle" }, "geometry": { "type": "Point", "coordinates": [ 5.826579532201623, -4.111066347584954 ] } },
{ "type": "Feature", "properties": { "id": 75, "name": "Bandallon", "size": 3, "confirmed": 1, "type": "castle" }, "geometry": { "type": "Point", "coordinates": [ 4.259687770082468, -3.923274863828328 ] } },
{ "type": "Feature", "properties": { "id": 76, "name": "Honeyholt", "size": 3, "confirmed": 1, "type": "castle" }, "geometry": { "type": "Point", "coordinates": [ 6.214794534653829, -4.99753776132606 ] } },
{ "type": "Feature", "properties": { "id": 77, "name": "Oldtown", "size": 5, "confirmed": 1, "type": "city" }, "geometry": { "type": "Point", "coordinates": [ 5.698356183583523, -6.026874026937739 ] } },
{ "type": "Feature", "properties": { "id": 78, "name": "Blackcrown", "size": 3, "confirmed": 1, "type": "castle" }, "geometry": { "type": "Point", "coordinates": [ 4.031857960688973, -6.755576575520638 ] } },
{ "type": "Feature", "properties": { "id": 79, "name": "Three Towers", "size": 3, "confirmed": 1, "type": "castle" }, "geometry": { "type": "Point", "coordinates": [ 4.483787369094077, -7.49443603258219 ] } },
{ "type": "Feature", "properties": { "id": 80, "name": "Uplands", "size": 3, "confirmed": 1, "type": "castle" }, "geometry": { "type": "Point", "coordinates": [ 7.377436744939006, -5.99219336970751 ] } },
{ "type": "Feature", "properties": { "id": 81, "name": "Sunflower Hall", "size": 3, "confirmed": 1, "type": "castle" }, "geometry": { "type": "Point", "coordinates": [ 6.924077781090705, -9.323506141654159 ] } },
{ "type": "Feature", "properties": { "id": 82, "name": "Blackmont", "size": 3, "confirmed": 1, "type": "castle" }, "geometry": { "type": "Point", "coordinates": [ 10.323321641993838, -6.047800782970986 ] } },
{ "type": "Feature", "properties": { "id": 83, "name": "High Hermitage", "size": 3, "confirmed": 1, "type": "castle" }, "geometry": { "type": "Point", "coordinates": [ 10.223886134810574, -7.069631553199637 ] } },
{ "type": "Feature", "properties": { "id": 84, "name": "Starfall", "size": 3, "confirmed": 1, "type": "castle" }, "geometry": { "type": "Point", "coordinates": [ 9.470480349123347, -7.806296935013579 ] } },
{ "type": "Feature", "properties": { "id": 85, "name": "Sandstone", "size": 3, "confirmed": 1, "type": "castle" }, "geometry": { "type": "Point", "coordinates": [ 11.781946764028023, -9.199608387233521 ] } },
{ "type": "Feature", "properties": { "id": 86, "name": "Skyreach", "size": 3, "confirmed": 1, "type": "castle" }, "geometry": { "type": "Point", "coordinates": [ 13.040844437666854, -6.308077793094333 ] } },
{ "type": "Feature", "properties": { "id": 87, "name": "Kingsgrave", "size": 3, "confirmed": 1, "type": "castle" }, "geometry": { "type": "Point", "coordinates": [ 12.922822780763212, -5.304893709413391 ] } },
{ "type": "Feature", "properties": { "id": 88, "name": "Tower of Joy", "size": 3, "confirmed": 1, "type": "ruin" }, "geometry": { "type": "Point", "coordinates": [ 12.872930941033914, -4.702003233729329 ] } },
{ "type": "Feature", "properties": { "id": 89, "name": "Hellholt", "size": 3, "confirmed": 1, "type": "castle" }, "geometry": { "type": "Point", "coordinates": [ 14.425359956902886, -9.094309331008571 ] } },
{ "type": "Feature", "properties": { "id": 90, "name": "Vaith", "size": 3, "confirmed": 1, "type": "castle" }, "geometry": { "type": "Point", "coordinates": [ 17.833606375884319, -9.068443366721569 ] } },
{ "type": "Feature", "properties": { "id": 91, "name": "Salt Shore", "size": 3, "confirmed": 1, "type": "castle" }, "geometry": { "type": "Point", "coordinates": [ 20.032881874277567, -10.288755164829409 ] } },
{ "type": "Feature", "properties": { "id": 92, "name": "Godsgrace", "size": 3, "confirmed": 1, "type": "castle" }, "geometry": { "type": "Point", "coordinates": [ 20.41560295062984, -8.966728350140684 ] } },
{ "type": "Feature", "properties": { "id": 93, "name": "The Tor", "size": 3, "confirmed": 1, "type": "castle" }, "geometry": { "type": "Point", "coordinates": [ 19.745324275824199, -7.426198520382564 ] } },
{ "type": "Feature", "properties": { "id": 94, "name": "Ghost Hill", "size": 3, "confirmed": 1, "type": "castle" }, "geometry": { "type": "Point", "coordinates": [ 23.550367930950113, -7.438085743940682 ] } },
{ "type": "Feature", "properties": { "id": 95, "name": "Lemonwood", "size": 3, "confirmed": 1, "type": "castle" }, "geometry": { "type": "Point", "coordinates": [ 22.973666537518842, -10.058678849587947 ] } },
{ "type": "Feature", "properties": { "id": 96, "name": "Sunspear", "size": 5, "confirmed": 1, "type": "castle" }, "geometry": { "type": "Point", "coordinates": [ 24.583590307734394, -9.255792545893344 ] } },
{ "type": "Feature", "properties": { "id": 97, "name": "Planky Town", "size": 4, "confirmed": 1, "type": "city" }, "geometry": { "type": "Point", "coordinates": [ 22.95847836515194, -9.639612305983457 ] } },
{ "type": "Feature", "properties": { "id": 98, "name": "Water Gardens", "size": 3, "confirmed": 0, "type": "castle" }, "geometry": { "type": "Point", "coordinates": [ 24.138926382689355, -8.972611835733082 ] } },
{ "type": "Feature", "properties": { "id": 99, "name": "Shandystone", "size": 3, "confirmed": 0, "type": "ruin" }, "geometry": { "type": "Point", "coordinates": [ 21.609367074753823, -8.993403926607042 ] } },
{ "type": "Feature", "properties": { "id": 100, "name": "Tall Trees Town", "size": 4, "confirmed": 0, "type": "city" }, "geometry": { "type": "Point", "coordinates": [ 30.379715364072698, -26.365451675284277 ] } },
{ "type": "Feature", "properties": { "id": 101, "name": "Longtable", "size": 3, "confirmed": 1, "type": "castle" }, "geometry": { "type": "Point", "coordinates": [ 12.212873680784856, -0.094415972346812 ] } },
{ "type": "Feature", "properties": { "id": 102, "name": "Bitterbridge", "size": 3, "confirmed": 1, "type": "castle" }, "geometry": { "type": "Point", "coordinates": [ 13.302397993007018, 1.170175531875141 ] } },
{ "type": "Feature", "properties": { "id": 103, "name": "Goldengrove", "size": 3, "confirmed": 1, "type": "castle" }, "geometry": { "type": "Point", "coordinates": [ 9.359701716060837, 1.34359122531182 ] } },
{ "type": "Feature", "properties": { "id": 104, "name": "Red Lake", "size": 3, "confirmed": 1, "type": "castle" }, "geometry": { "type": "Point", "coordinates": [ 7.180425432545131, 1.951742960963598 ] } },
{ "type": "Feature", "properties": { "id": 105, "name": "Old Oak", "size": 3, "confirmed": 1, "type": "castle" }, "geometry": { "type": "Point", "coordinates": [ 5.383089949131578, 0.207936555051394 ] } },
{ "type": "Feature", "properties": { "id": 106, "name": "Crakehall", "size": 3, "confirmed": 1, "type": "castle" }, "geometry": { "type": "Point", "coordinates": [ 4.511320941860011, 2.910520064113443 ] } },
{ "type": "Feature", "properties": { "id": 107, "name": "Cornfield", "size": 3, "confirmed": 1, "type": "castle" }, "geometry": { "type": "Point", "coordinates": [ 6.914401543025896, 3.328807800827875 ] } },
{ "type": "Feature", "properties": { "id": 108, "name": "Silverhill", "size": 3, "confirmed": 1, "type": "castle" }, "geometry": { "type": "Point", "coordinates": [ 9.219893295411493, 4.886153424990002 ] } },
{ "type": "Feature", "properties": { "id": 109, "name": "Clegane Hall", "size": 3, "confirmed": 0, "type": "castle" }, "geometry": { "type": "Point", "coordinates": [ 7.970830759847968, 4.284980610137086 ] } },
{ "type": "Feature", "properties": { "id": 110, "name": "Tarbeck Hall", "size": 3, "confirmed": 0, "type": "ruin" }, "geometry": { "type": "Point", "coordinates": [ 7.014363582024718, 8.80422655573898 ] } },
{ "type": "Feature", "properties": { "id": 111, "name": "Lannisport", "size": 5, "confirmed": 1, "type": "city" }, "geometry": { "type": "Point", "coordinates": [ 5.744678852345729, 5.518614744333639 ] } },
{ "type": "Feature", "properties": { "id": 112, "name": "Feastfires", "size": 3, "confirmed": 1, "type": "castle" }, "geometry": { "type": "Point", "coordinates": [ 3.650746360270969, 5.708616846537255 ] } },
{ "type": "Feature", "properties": { "id": 113, "name": "Kayce", "size": 4, "confirmed": 1, "type": "city" }, "geometry": { "type": "Point", "coordinates": [ 4.157255971149092, 6.04792911013522 ] } },
{ "type": "Feature", "properties": { "id": 114, "name": "Oxcross", "size": 2, "confirmed": 0, "type": "settlement" }, "geometry": { "type": "Point", "coordinates": [ 6.711310607402318, 6.799750526694069 ] } },
{ "type": "Feature", "properties": { "id": 115, "name": "Sarsfield", "size": 3, "confirmed": 1, "type": "castle" }, "geometry": { "type": "Point", "coordinates": [ 7.550378607128749, 7.218310541096315 ] } },
{ "type": "Feature", "properties": { "id": 116, "name": "Deep Den", "size": 3, "confirmed": 1, "type": "castle" }, "geometry": { "type": "Point", "coordinates": [ 9.447496667492141, 5.938922709483974 ] } },
{ "type": "Feature", "properties": { "id": 117, "name": "Hornvale", "size": 3, "confirmed": 1, "type": "castle" }, "geometry": { "type": "Point", "coordinates": [ 9.419054841436388, 6.751141482519405 ] } },
{ "type": "Feature", "properties": { "id": 118, "name": "Golden Tooth", "size": 3, "confirmed": 1, "type": "castle" }, "geometry": { "type": "Point", "coordinates": [ 9.448560255662299, 8.010039156158236 ] } },
{ "type": "Feature", "properties": { "id": 119, "name": "Wayfarer's Rest", "size": 3, "confirmed": 0, "type": "castle" }, "geometry": { "type": "Point", "coordinates": [ 10.801088811222364, 8.656620808754472 ] } },
{ "type": "Feature", "properties": { "id": 120, "name": "Castamere", "size": 3, "confirmed": 0, "type": "ruin" }, "geometry": { "type": "Point", "coordinates": [ 7.535625900015794, 9.114033405111039 ] } },
{ "type": "Feature", "properties": { "id": 122, "name": "The Crag", "size": 3, "confirmed": 1, "type": "castle" }, "geometry": { "type": "Point", "coordinates": [ 6.886506787045773, 9.163209095487554 ] } },
{ "type": "Feature", "properties": { "id": 123, "name": "Banefort", "size": 3, "confirmed": 1, "type": "castle" }, "geometry": { "type": "Point", "coordinates": [ 7.056162918844755, 10.711013950088429 ] } },
{ "type": "Feature", "properties": { "id": 124, "name": "Ashemark", "size": 3, "confirmed": 1, "type": "castle" }, "geometry": { "type": "Point", "coordinates": [ 7.879855732651412, 8.263293961597297 ] } },
{ "type": "Feature", "properties": { "id": 126, "name": "Stone Mill", "size": 1, "confirmed": 0, "type": "other" }, "geometry": { "type": "Point", "coordinates": [ 12.094532171109025, 9.243804972982817 ] } },
{ "type": "Feature", "properties": { "id": 127, "name": "Stone Hedge", "size": 3, "confirmed": 1, "type": "castle" }, "geometry": { "type": "Point", "coordinates": [ 13.967794149595031, 10.105965666160113 ] } },
{ "type": "Feature", "properties": { "id": 128, "name": "Fairmarket", "size": 4, "confirmed": 1, "type": "city" }, "geometry": { "type": "Point", "coordinates": [ 14.710759761050028, 11.706971023549707 ] } },
{ "type": "Feature", "properties": { "id": 129, "name": "Oldstones", "size": 3, "confirmed": 1, "type": "ruin" }, "geometry": { "type": "Point", "coordinates": [ 13.945677140594762, 12.374381677074117 ] } },
{ "type": "Feature", "properties": { "id": 131, "name": "The Bloody Gate", "size": 3, "confirmed": 1, "type": "castle" }, "geometry": { "type": "Point", "coordinates": [ 19.772990036584634, 11.725460025490387 ] } },
{ "type": "Feature", "properties": { "id": 132, "name": "The Eyrie", "size": 5, "confirmed": 1, "type": "castle" }, "geometry": { "type": "Point", "coordinates": [ 19.987356825199416, 12.741029212578626 ] } },
{ "type": "Feature", "properties": { "id": 133, "name": "Strongsong", "size": 3, "confirmed": 1, "type": "castle" }, "geometry": { "type": "Point", "coordinates": [ 18.481550592084652, 14.053996129703329 ] } },
{ "type": "Feature", "properties": { "id": 134, "name": "Heart's Home", "size": 3, "confirmed": 1, "type": "castle" }, "geometry": { "type": "Point", "coordinates": [ 20.975524556327485, 13.982844519546989 ] } },
{ "type": "Feature", "properties": { "id": 135, "name": "Redfort", "size": 3, "confirmed": 1, "type": "castle" }, "geometry": { "type": "Point", "coordinates": [ 21.564787032192704, 10.79764855560666 ] } },
{ "type": "Feature", "properties": { "id": 136, "name": "Ironoaks", "size": 3, "confirmed": 1, "type": "castle" }, "geometry": { "type": "Point", "coordinates": [ 21.971750659670896, 11.982390670350753 ] } },
{ "type": "Feature", "properties": { "id": 137, "name": "Old Anchor", "size": 3, "confirmed": 1, "type": "castle" }, "geometry": { "type": "Point", "coordinates": [ 24.070789943739822, 12.725083531790441 ] } },
{ "type": "Feature", "properties": { "id": 138, "name": "Runestone", "size": 3, "confirmed": 1, "type": "castle" }, "geometry": { "type": "Point", "coordinates": [ 24.799863852721025, 11.727345662969951 ] } },
{ "type": "Feature", "properties": { "id": 139, "name": "Gulltown", "size": 5, "confirmed": 1, "type": "city" }, "geometry": { "type": "Point", "coordinates": [ 24.686725603940349, 11.135255494351078 ] } },
{ "type": "Feature", "properties": { "id": 140, "name": "Longbow Hall", "size": 3, "confirmed": 1, "type": "castle" }, "geometry": { "type": "Point", "coordinates": [ 23.855395180087395, 14.05705076911217 ] } },
{ "type": "Feature", "properties": { "id": 141, "name": "Snakewood", "size": 3, "confirmed": 1, "type": "castle" }, "geometry": { "type": "Point", "coordinates": [ 21.916959850978461, 14.946128840780322 ] } },
{ "type": "Feature", "properties": { "id": 142, "name": "Baelish Keep", "size": 3, "confirmed": 0, "type": "castle" }, "geometry": { "type": "Point", "coordinates": [ 21.135761103936773, 17.343707825188453 ] } },
{ "type": "Feature", "properties": { "id": 143, "name": "Coldwater", "size": 3, "confirmed": 1, "type": "castle" }, "geometry": { "type": "Point", "coordinates": [ 21.979960345063706, 15.757478150181742 ] } },
{ "type": "Feature", "properties": { "id": 144, "name": "Seagard", "size": 3, "confirmed": 1, "type": "castle" }, "geometry": { "type": "Point", "coordinates": [ 12.263094650583604, 13.509518536121016 ] } },
{ "type": "Feature", "properties": { "id": 145, "name": "The Twins", "size": 3, "confirmed": 1, "type": "castle" }, "geometry": { "type": "Point", "coordinates": [ 13.371838052403584, 14.398995861423588 ] } },
{ "type": "Feature", "properties": { "id": 147, "name": "Greywater Watch", "size": 3, "confirmed": 1, "type": "castle" }, "geometry": { "type": "Point", "coordinates": [ 13.018221984598744, 16.972184050752187 ] } },
{ "type": "Feature", "properties": { "id": 148, "name": "Moat Cailin", "size": 3, "confirmed": 1, "type": "ruin" }, "geometry": { "type": "Point", "coordinates": [ 14.317958861681893, 20.265825105053455 ] } },
{ "type": "Feature", "properties": { "id": 149, "name": "Sisterton", "size": 4, "confirmed": 1, "type": "city" }, "geometry": { "type": "Point", "coordinates": [ 18.928931559743766, 18.24175174588731 ] } },
{ "type": "Feature", "properties": { "id": 150, "name": "Oldcastle", "size": 3, "confirmed": 1, "type": "castle" }, "geometry": { "type": "Point", "coordinates": [ 17.962318611490023, 19.433672496736389 ] } },
{ "type": "Feature", "properties": { "id": 151, "name": "White Harbor", "size": 5, "confirmed": 1, "type": "city" }, "geometry": { "type": "Point", "coordinates": [ 16.58943122715397, 21.704505772269627 ] } },
{ "type": "Feature", "properties": { "id": 152, "name": "Ramsgate", "size": 3, "confirmed": 1, "type": "castle" }, "geometry": { "type": "Point", "coordinates": [ 21.019535861578806, 22.959928254564201 ] } },
{ "type": "Feature", "properties": { "id": 153, "name": "Widow's Watch", "size": 3, "confirmed": 1, "type": "castle" }, "geometry": { "type": "Point", "coordinates": [ 24.310954119650411, 22.145661221775686 ] } },
{ "type": "Feature", "properties": { "id": 154, "name": "Hornwood", "size": 3, "confirmed": 0, "type": "castle" }, "geometry": { "type": "Point", "coordinates": [ 19.688843464053985, 24.622748977117396 ] } },
{ "type": "Feature", "properties": { "id": 156, "name": "The Dreadfort", "size": 3, "confirmed": 1, "type": "castle" }, "geometry": { "type": "Point", "coordinates": [ 19.683679973713016, 27.749812705573312 ] } },
{ "type": "Feature", "properties": { "id": 157, "name": "Cerwyn", "size": 3, "confirmed": 0, "type": "castle" }, "geometry": { "type": "Point", "coordinates": [ 14.120747141122042, 26.393197544279388 ] } },
{ "type": "Feature", "properties": { "id": 159, "name": "Winterfell", "size": 5, "confirmed": 1, "type": "castle" }, "geometry": { "type": "Point", "coordinates": [ 14.083369073649028, 26.944524039506348 ] } },
{ "type": "Feature", "properties": { "id": 162, "name": "Deepwood Motte", "size": 3, "confirmed": 1, "type": "castle" }, "geometry": { "type": "Point", "coordinates": [ 9.795248872816755, 28.990232759169448 ] } },
{ "type": "Feature", "properties": { "id": 163, "name": "Last Hearth", "size": 3, "confirmed": 1, "type": "castle" }, "geometry": { "type": "Point", "coordinates": [ 18.489354198169725, 32.128376857114134 ] } },
{ "type": "Feature", "properties": { "id": 164, "name": "Karhold", "size": 3, "confirmed": 1, "type": "castle" }, "geometry": { "type": "Point", "coordinates": [ 23.422783429722038, 29.795061418851493 ] } },
{ "type": "Feature", "properties": { "id": 165, "name": "Queenscrown", "size": 1, "confirmed": 1, "type": "ruin" }, "geometry": { "type": "Point", "coordinates": [ 17.351610907531189, 34.081553606347605 ] } },
{ "type": "Feature", "properties": { "id": 166, "name": "Castle Black", "size": 3, "confirmed": 1, "type": "castle" }, "geometry": { "type": "Point", "coordinates": [ 17.988458254575747, 35.517901149805517 ] } },
{ "type": "Feature", "properties": { "id": 167, "name": "Mole's Town", "size": 2, "confirmed": 0, "type": "settlement" }, "geometry": { "type": "Point", "coordinates": [ 17.926985716847057, 35.11593528601658 ] } },
{ "type": "Feature", "properties": { "id": 168, "name": "Shadow Tower", "size": 3, "confirmed": 1, "type": "castle" }, "geometry": { "type": "Point", "coordinates": [ 14.962680755880616, 34.961200013954475 ] } },
{ "type": "Feature", "properties": { "id": 169, "name": "Westwatch-by-the-Bridge", "size": 1, "confirmed": 1, "type": "ruin" }, "geometry": { "type": "Point", "coordinates": [ 14.515223651757035, 34.826962882717403 ] } },
{ "type": "Feature", "properties": { "id": 170, "name": "Sentinel Stand", "size": 1, "confirmed": 1, "type": "ruin" }, "geometry": { "type": "Point", "coordinates": [ 15.404494256889123, 35.040210457565486 ] } },
{ "type": "Feature", "properties": { "id": 171, "name": "Greyguard", "size": 1, "confirmed": 1, "type": "ruin" }, "geometry": { "type": "Point", "coordinates": [ 15.533490899519345, 35.275629330365639 ] } },
{ "type": "Feature", "properties": { "id": 172, "name": "Stonedoor", "size": 1, "confirmed": 1, "type": "ruin" }, "geometry": { "type": "Point", "coordinates": [ 15.948698842985371, 35.305056689465651 ] } },
{ "type": "Feature", "properties": { "id": 173, "name": "Hoarfrost Hill", "size": 1, "confirmed": 1, "type": "ruin" }, "geometry": { "type": "Point", "coordinates": [ 16.350200893171934, 35.394951224798589 ] } },
{ "type": "Feature", "properties": { "id": 174, "name": "Icemark", "size": 1, "confirmed": 1, "type": "ruin" }, "geometry": { "type": "Point", "coordinates": [ 16.690429538109143, 35.379229758978028 ] } },
{ "type": "Feature", "properties": { "id": 175, "name": "Nightfort", "size": 3, "confirmed": 1, "type": "ruin" }, "geometry": { "type": "Point", "coordinates": [ 17.018564747799768, 35.361089606108159 ] } },
{ "type": "Feature", "properties": { "id": 176, "name": "Deep Lake", "size": 1, "confirmed": 1, "type": "ruin" }, "geometry": { "type": "Point", "coordinates": [ 17.315257025849281, 35.393338766765716 ] } },
{ "type": "Feature", "properties": { "id": 177, "name": "Queensgate", "size": 1, "confirmed": 1, "type": "ruin" }, "geometry": { "type": "Point", "coordinates": [ 17.650648296687855, 35.43848759168629 ] } },
{ "type": "Feature", "properties": { "id": 178, "name": "Oakenshield", "size": 1, "confirmed": 1, "type": "ruin" }, "geometry": { "type": "Point", "coordinates": [ 18.198077798849859, 35.532413272101415 ] } },
{ "type": "Feature", "properties": { "id": 179, "name": "Woodswatch-by-the-Pool", "size": 1, "confirmed": 1, "type": "ruin" }, "geometry": { "type": "Point", "coordinates": [ 18.386735388696557, 35.517901149805517 ] } },
{ "type": "Feature", "properties": { "id": 180, "name": "Sable Hall", "size": 1, "confirmed": 1, "type": "ruin" }, "geometry": { "type": "Point", "coordinates": [ 18.675365376581677, 35.513063775706883 ] } },
{ "type": "Feature", "properties": { "id": 181, "name": "Rimegate", "size": 1, "confirmed": 1, "type": "ruin" }, "geometry": { "type": "Point", "coordinates": [ 18.949483242170899, 35.530800814068542 ] } },
{ "type": "Feature", "properties": { "id": 182, "name": "Long Barrow", "size": 1, "confirmed": 1, "type": "ruin" }, "geometry": { "type": "Point", "coordinates": [ 19.221988649727241, 35.553375226528829 ] } },
{ "type": "Feature", "properties": { "id": 183, "name": "Torches", "size": 1, "confirmed": 1, "type": "ruin" }, "geometry": { "type": "Point", "coordinates": [ 19.478369476954807, 35.569499806857607 ] } },
{ "type": "Feature", "properties": { "id": 184, "name": "Greenguard", "size": 1, "confirmed": 1, "type": "ruin" }, "geometry": { "type": "Point", "coordinates": [ 19.737975220248128, 35.577562097021996 ] } },
{ "type": "Feature", "properties": { "id": 185, "name": "Eastwatch-by-the-Sea", "size": 3, "confirmed": 1, "type": "castle" }, "geometry": { "type": "Point", "coordinates": [ 20.005643253705838, 35.577562097021996 ] } },
{ "type": "Feature", "properties": { "id": 186, "name": "Whitetree", "size": 2, "confirmed": 1, "type": "settlement" }, "geometry": { "type": "Point", "coordinates": [ 17.568184571711871, 35.974148835866949 ] } },
{ "type": "Feature", "properties": { "id": 187, "name": "Craster's Keep", "size": 3, "confirmed": 1, "type": "castle" }, "geometry": { "type": "Point", "coordinates": [ 16.818257853951863, 36.821048836095919 ] } },
{ "type": "Feature", "properties": { "id": 188, "name": "Fist of the First Men", "size": 3, "confirmed": 1, "type": "ruin" }, "geometry": { "type": "Point", "coordinates": [ 14.827073120589088, 38.443735096076622 ] } },
{ "type": "Feature", "properties": { "id": 190, "name": "Pennytree", "size": 2, "confirmed": 0, "type": "settlement" }, "geometry": { "type": "Point", "coordinates": [ 13.206713958076724, 10.531654586839844 ] } },
{ "type": "Feature", "properties": { "id": 191, "name": "Lys", "size": 5, "confirmed": 1, "type": "city" }, "geometry": { "type": "Point", "coordinates": [ 31.841653476287703, -9.408811694061376 ] } },
{ "type": "Feature", "properties": { "id": 192, "name": "Tyrosh", "size": 5, "confirmed": 1, "type": "city" }, "geometry": { "type": "Point", "coordinates": [ 28.445969720736663, -3.8517924834607 ] } },
{ "type": "Feature", "properties": { "id": 193, "name": "Myr", "size": 5, "confirmed": 1, "type": "city" }, "geometry": { "type": "Point", "coordinates": [ 33.92326651509925, -2.913931340849761 ] } },
{ "type": "Feature", "properties": { "id": 194, "name": "Pentos", "size": 5, "confirmed": 1, "type": "city" }, "geometry": { "type": "Point", "coordinates": [ 31.478578047309355, 4.2999906033742 ] } },
{ "type": "Feature", "properties": { "id": 195, "name": "Ghoyan Drohe", "size": 4, "confirmed": 1, "type": "ruin" }, "geometry": { "type": "Point", "coordinates": [ 35.261594240913745, 5.127403142099468 ] } },
{ "type": "Feature", "properties": { "id": 196, "name": "Norvos", "size": 5, "confirmed": 1, "type": "city" }, "geometry": { "type": "Point", "coordinates": [ 38.472956060555553, 8.279425246563054 ] } },
{ "type": "Feature", "properties": { "id": 197, "name": "Evenfall Hall", "size": 3, "confirmed": 1, "type": "castle" }, "geometry": { "type": "Point", "coordinates": [ 24.524928850236694, -0.182395147560009 ] } },
{ "type": "Feature", "properties": { "id": 198, "name": "Parchments", "size": 3, "confirmed": 0, "type": "castle" }, "geometry": { "type": "Point", "coordinates": [ 23.786334569795006, 0.998165802837377 ] } },
{ "type": "Feature", "properties": { "id": 199, "name": "Braavos", "size": 5, "confirmed": 1, "type": "city" }, "geometry": { "type": "Point", "coordinates": [ 31.185015278248919, 15.77177053695814 ] } },
{ "type": "Feature", "properties": { "id": 200, "name": "Lorath", "size": 5, "confirmed": 1, "type": "city" }, "geometry": { "type": "Point", "coordinates": [ 36.442836347618766, 14.387688429877528 ] } },
{ "type": "Feature", "properties": { "id": 201, "name": "Qohor", "size": 5, "confirmed": 1, "type": "city" }, "geometry": { "type": "Point", "coordinates": [ 45.259862511387794, 4.349381068156264 ] } },
{ "type": "Feature", "properties": { "id": 202, "name": "Ar Noy", "size": 4, "confirmed": 1, "type": "ruin" }, "geometry": { "type": "Point", "coordinates": [ 42.39768424854622, 2.15428880889614 ] } },
{ "type": "Feature", "properties": { "id": 203, "name": "Ny Sar", "size": 4, "confirmed": 1, "type": "ruin" }, "geometry": { "type": "Point", "coordinates": [ 39.280193171238572, 3.087234636448281 ] } },
{ "type": "Feature", "properties": { "id": 204, "name": "The Sorrows (Chroyane)", "size": 4, "confirmed": 1, "type": "ruin" }, "geometry": { "type": "Point", "coordinates": [ 40.641609547013502, -2.390705823835672 ] } },
{ "type": "Feature", "properties": { "id": 205, "name": "Selhorys", "size": 4, "confirmed": 1, "type": "city" }, "geometry": { "type": "Point", "coordinates": [ 41.464920831017999, -5.836919175778385 ] } },
{ "type": "Feature", "properties": { "id": 206, "name": "Valysar", "size": 4, "confirmed": 1, "type": "city" }, "geometry": { "type": "Point", "coordinates": [ 41.162541412726576, -7.412475092138928 ] } },
{ "type": "Feature", "properties": { "id": 207, "name": "Volon Therys", "size": 4, "confirmed": 1, "type": "city" }, "geometry": { "type": "Point", "coordinates": [ 42.002355099852025, -8.809371834607539 ] } },
{ "type": "Feature", "properties": { "id": 208, "name": "Sar Mell", "size": 4, "confirmed": 1, "type": "ruin" }, "geometry": { "type": "Point", "coordinates": [ 42.44293720482419, -8.405020504581293 ] } },
{ "type": "Feature", "properties": { "id": 209, "name": "Volantis", "size": 5, "confirmed": 1, "type": "city" }, "geometry": { "type": "Point", "coordinates": [ 43.66186593588543, -9.658285256235807 ] } },
{ "type": "Feature", "properties": { "id": 210, "name": null, "size": 4, "confirmed": 1, "type": "city" }, "geometry": { "type": "Point", "coordinates": [ 47.173987528944288, -8.954258480319467 ] } },
{ "type": "Feature", "properties": { "id": 211, "name": null, "size": 4, "confirmed": 1, "type": "ruin" }, "geometry": { "type": "Point", "coordinates": [ 50.364680588206028, -8.111251841220437 ] } },
{ "type": "Feature", "properties": { "id": 212, "name": "Mantarys", "size": 5, "confirmed": 1, "type": "city" }, "geometry": { "type": "Point", "coordinates": [ 52.871373247356381, -8.393114338364823 ] } },
{ "type": "Feature", "properties": { "id": 213, "name": null, "size": 4, "confirmed": 1, "type": "ruin" }, "geometry": { "type": "Point", "coordinates": [ 48.885400330233892, -13.567358542712498 ] } },
{ "type": "Feature", "properties": { "id": 214, "name": "Oros", "size": 4, "confirmed": 1, "type": "ruin" }, "geometry": { "type": "Point", "coordinates": [ 52.183480108976092, -16.005166155497541 ] } },
{ "type": "Feature", "properties": { "id": 215, "name": "Elyria", "size": 4, "confirmed": 1, "type": "city" }, "geometry": { "type": "Point", "coordinates": [ 54.213722816148966, -10.473473024692179 ] } },
{ "type": "Feature", "properties": { "id": 216, "name": "Tolos", "size": 4, "confirmed": 1, "type": "city" }, "geometry": { "type": "Point", "coordinates": [ 55.951878718752191, -10.04432089584699 ] } },
{ "type": "Feature", "properties": { "id": 217, "name": "Ghozai", "size": 4, "confirmed": 1, "type": "ruin" }, "geometry": { "type": "Point", "coordinates": [ 57.687046535497963, -12.387295374043806 ] } },
{ "type": "Feature", "properties": { "id": 218, "name": "Velos", "size": 4, "confirmed": 1, "type": "ruin" }, "geometry": { "type": "Point", "coordinates": [ 58.163226313629679, -14.512235560432778 ] } },
{ "type": "Feature", "properties": { "id": 219, "name": null, "size": 4, "confirmed": 1, "type": "ruin" }, "geometry": { "type": "Point", "coordinates": [ 57.614605392780156, -13.694133588673024 ] } },
{ "type": "Feature", "properties": { "id": 220, "name": "Astapor", "size": 5, "confirmed": 1, "type": "city" }, "geometry": { "type": "Point", "coordinates": [ 62.499090778339301, -12.451934711544338 ] } },
{ "type": "Feature", "properties": { "id": 221, "name": "Yunkai", "size": 5, "confirmed": 1, "type": "city" }, "geometry": { "type": "Point", "coordinates": [ 63.584475941894326, -7.796689978245142 ] } },
{ "type": "Feature", "properties": { "id": 222, "name": "Meereen", "size": 5, "confirmed": 1, "type": "city" }, "geometry": { "type": "Point", "coordinates": [ 65.427309621062122, -6.141691567507183 ] } },
{ "type": "Feature", "properties": { "id": 224, "name": "Vaes Dothrak", "size": 5, "confirmed": 1, "type": "city" }, "geometry": { "type": "Point", "coordinates": [ 78.776949577556323, 7.317082854467861 ] } },
{ "type": "Feature", "properties": { "id": 225, "name": "Old Ghis", "size": 5, "confirmed": 1, "type": "ruin" }, "geometry": { "type": "Point", "coordinates": [ 63.522580281895507, -17.357653435057994 ] } },
{ "type": "Feature", "properties": { "id": 226, "name": "New Ghis", "size": 4, "confirmed": 1, "type": "city" }, "geometry": { "type": "Point", "coordinates": [ 64.601795078388278, -21.710470441825418 ] } },
{ "type": "Feature", "properties": { "id": 227, "name": "Zamettar", "size": 4, "confirmed": 1, "type": "ruin" }, "geometry": { "type": "Point", "coordinates": [ 61.928248799305983, -30.377262636516448 ] } },
{ "type": "Feature", "properties": { "id": 228, "name": "Yeen", "size": 4, "confirmed": 1, "type": "ruin" }, "geometry": { "type": "Point", "coordinates": [ 63.20577108364067, -34.138746333050555 ] } },
{ "type": "Feature", "properties": { "id": 229, "name": "Gogossos", "size": 4, "confirmed": 1, "type": "ruin" }, "geometry": { "type": "Point", "coordinates": [ 58.318902606902498, -32.907464867890447 ] } },
{ "type": "Feature", "properties": { "id": 230, "name": "Flint's Finger", "size": 3, "confirmed": 1, "type": "castle" }, "geometry": { "type": "Point", "coordinates": [ 6.568257743202166, 18.553829407915334 ] } },
{ "type": "Feature", "properties": { "id": 231, "name": "Barrowton", "size": 4, "confirmed": 1, "type": "city" }, "geometry": { "type": "Point", "coordinates": [ 9.960961895424413, 21.754507505180165 ] } },
{ "type": "Feature", "properties": { "id": 232, "name": "Torrhen's Square", "size": 3, "confirmed": 1, "type": "castle" }, "geometry": { "type": "Point", "coordinates": [ 10.615200218686992, 24.862626886297868 ] } },
{ "type": "Feature", "properties": { "id": 233, "name": "Bhorash", "size": 4, "confirmed": 1, "type": "ruin" }, "geometry": { "type": "Point", "coordinates": [ 59.417423964550558, -6.541053686241178 ] } },
{ "type": "Feature", "properties": { "id": 234, "name": "Pyke", "size": 5, "confirmed": 1, "type": "castle" }, "geometry": { "type": "Point", "coordinates": [ 5.999445746964859, 11.662000157788748 ] } },
{ "type": "Feature", "properties": { "id": 235, "name": "Pebbleton", "size": 1, "confirmed": 0, "type": "other" }, "geometry": { "type": "Point", "coordinates": [ 5.562972990277636, 12.279048808583019 ] } },
{ "type": "Feature", "properties": { "id": 236, "name": "Hammerhorn", "size": 3, "confirmed": 0, "type": "castle" }, "geometry": { "type": "Point", "coordinates": [ 4.617565662691431, 12.548227283798532 ] } },
{ "type": "Feature", "properties": { "id": 237, "name": "Nagga's Ribs", "size": 3, "confirmed": 0, "type": "ruin" }, "geometry": { "type": "Point", "coordinates": [ 5.123236752281745, 12.88064868647797 ] } },
{ "type": "Feature", "properties": { "id": 239, "name": "Ten Towers", "size": 3, "confirmed": 1, "type": "castle" }, "geometry": { "type": "Point", "coordinates": [ 7.809382082107063, 12.653769480315297 ] } },
{ "type": "Feature", "properties": { "id": 240, "name": "Faircastle", "size": 3, "confirmed": 1, "type": "castle" }, "geometry": { "type": "Point", "coordinates": [ 5.349748954527998, 8.005097278085785 ] } },
{ "type": "Feature", "properties": { "id": 241, "name": "Tyria", "size": 4, "confirmed": 1, "type": "ruin" }, "geometry": { "type": "Point", "coordinates": [ 51.665145738571709, -17.812153989505511 ] } },
{ "type": "Feature", "properties": { "id": 242, "name": "Valyria", "size": 5, "confirmed": 1, "type": "ruin" }, "geometry": { "type": "Point", "coordinates": [ 50.650782646096062, -20.087806783909063 ] } },
{ "type": "Feature", "properties": { "id": 243, "name": null, "size": 4, "confirmed": 1, "type": "ruin" }, "geometry": { "type": "Point", "coordinates": [ 54.333159849829592, -19.742896440932281 ] } },
{ "type": "Feature", "properties": { "id": 244, "name": null, "size": 4, "confirmed": 1, "type": "ruin" }, "geometry": { "type": "Point", "coordinates": [ 47.974557138209668, -18.505860150358441 ] } },
{ "type": "Feature", "properties": { "id": 245, "name": null, "size": 4, "confirmed": 1, "type": "ruin" }, "geometry": { "type": "Point", "coordinates": [ 49.830026593467906, -22.706403581649496 ] } },
{ "type": "Feature", "properties": { "id": 246, "name": "Qarth", "size": 5, "confirmed": 0, "type": "city" }, "geometry": { "type": "Point", "coordinates": [ 85.485092414346198, -17.349314304824983 ] } },
{ "type": "Feature", "properties": { "id": 247, "name": "Lord Hewett's Town", "size": 4, "confirmed": 0, "type": "city" }, "geometry": { "type": "Point", "coordinates": [ 6.35584907955977, -1.28283027570907 ] } },
{ "type": "Feature", "properties": { "id": 248, "name": "Casterly Rock", "size": 5, "confirmed": 1, "type": "castle" }, "geometry": { "type": "Point", "coordinates": [ 5.893157841440136, 5.979083143608097 ] } },
{ "type": "Feature", "properties": { "id": 249, "name": "Hardhome", "size": 3, "confirmed": 1, "type": "ruin" }, "geometry": { "type": "Point", "coordinates": [ 20.97330181067494, 38.452936639562402 ] } },
{ "type": "Feature", "properties": { "id": 250, "name": "Mormont Keep", "size": 3, "confirmed": 1, "type": "castle" }, "geometry": { "type": "Point", "coordinates": [ 9.104483742715169, 32.358405309862206 ] } },
{ "type": "Feature", "properties": { "id": 251, "name": "Driftmark", "size": 3, "confirmed": 1, "type": "castle" }, "geometry": { "type": "Point", "coordinates": [ 23.041053925779188, 6.207073827343919 ] } },
{ "type": "Feature", "properties": { "id": 252, "name": "Lotus Point", "size": 5, "confirmed": 1, "type": "city" }, "geometry": { "type": "Point", "coordinates": [ 27.834458773699083, -24.529330499997425 ] } },
{ "type": "Feature", "properties": { "id": 253, "name": "Last Lament", "size": 4, "confirmed": 1, "type": "city" }, "geometry": { "type": "Point", "coordinates": [ 25.70975885445101, -22.964836270737745 ] } },
{ "type": "Feature", "properties": { "id": 254, "name": "Hesh", "size": 4, "confirmed": 1, "type": "city" }, "geometry": { "type": "Point", "coordinates": [ 70.253460687353211, -6.3457908994991 ] } },
{ "type": "Feature", "properties": { "id": 255, "name": "Kosrak", "size": 4, "confirmed": 1, "type": "city" }, "geometry": { "type": "Point", "coordinates": [ 75.145166778855568, -6.38030898683833 ] } },
{ "type": "Feature", "properties": { "id": 256, "name": "Lhazosh", "size": 4, "confirmed": 1, "type": "city" }, "geometry": { "type": "Point", "coordinates": [ 72.275234374365269, -9.102306731303367 ] } },
{ "type": "Feature", "properties": { "id": 257, "name": "Ebonhead", "size": 4, "confirmed": 1, "type": "city" }, "geometry": { "type": "Point", "coordinates": [ 30.497343246288661, -37.117962025299953 ] } },
{ "type": "Feature", "properties": { "id": 258, "name": "Ruby Ford", "size": 1, "confirmed": 1, "type": "other" }, "geometry": { "type": "Point", "coordinates": [ 16.91131001884365, 9.873462228858168 ] } },
{ "type": "Feature", "properties": { "id": 259, "name": "Saath", "size": 4, "confirmed": 1, "type": "city" }, "geometry": { "type": "Point", "coordinates": [ 52.89011237621505, 13.050717148703136 ] } },
{ "type": "Feature", "properties": { "id": 260, "name": "Morosh", "size": 4, "confirmed": 1, "type": "city" }, "geometry": { "type": "Point", "coordinates": [ 54.893528372048671, 14.913590183320967 ] } },
{ "type": "Feature", "properties": { "id": 261, "name": "Vaes Graddakh (Sarys)", "size": 4, "confirmed": 1, "type": "ruin" }, "geometry": { "type": "Point", "coordinates": [ 56.194850021844701, 13.434031396951827 ] } },
{ "type": "Feature", "properties": { "id": 262, "name": "Vaes Khadokh (Essaria)", "size": 4, "confirmed": 1, "type": "ruin" }, "geometry": { "type": "Point", "coordinates": [ 51.206160840983522, 4.548086424569956 ] } },
{ "type": "Feature", "properties": { "id": 263, "name": "Vaes Khewo (Sarnath)", "size": 4, "confirmed": 1, "type": "ruin" }, "geometry": { "type": "Point", "coordinates": [ 58.719074635293666, 3.263494946786357 ] } },
{ "type": "Feature", "properties": { "id": 264, "name": "Vojjor Samui (Kasath)", "size": 4, "confirmed": 1, "type": "ruin" }, "geometry": { "type": "Point", "coordinates": [ 63.170898708622282, 3.992442864315105 ] } },
{ "type": "Feature", "properties": { "id": 265, "name": "Yalli Qamayi (Sathar)", "size": 4, "confirmed": 1, "type": "ruin" }, "geometry": { "type": "Point", "coordinates": [ 66.396779457561905, 3.152098807020986 ] } },
{ "type": "Feature", "properties": { "id": 266, "name": "Vaes Leqse (Gornath)", "size": 4, "confirmed": 1, "type": "ruin" }, "geometry": { "type": "Point", "coordinates": [ 65.901345007252033, 5.618283810535254 ] } },
{ "type": "Feature", "properties": { "id": 267, "name": "Vaes Athjikhari (Sallosh)", "size": 4, "confirmed": 1, "type": "ruin" }, "geometry": { "type": "Point", "coordinates": [ 64.462961835502355, 7.336352599014023 ] } },
{ "type": "Feature", "properties": { "id": 268, "name": "Vaes Diaf (Hazdahn Mo)", "size": 4, "confirmed": 1, "type": "ruin" }, "geometry": { "type": "Point", "coordinates": [ 64.991256889324006, -0.752333014960959 ] } },
{ "type": "Feature", "properties": { "id": 269, "name": "Krazaaj Has (Ghardaq)", "size": 4, "confirmed": 1, "type": "ruin" }, "geometry": { "type": "Point", "coordinates": [ 73.088821411766574, -2.801141143857481 ] } },
{ "type": "Feature", "properties": { "id": 270, "name": "Vaes Mejhah", "size": 4, "confirmed": 1, "type": "ruin" }, "geometry": { "type": "Point", "coordinates": [ 75.370700887937346, -2.437105896686267 ] } },
{ "type": "Feature", "properties": { "id": 271, "name": "Vaes Efe", "size": 4, "confirmed": 1, "type": "ruin" }, "geometry": { "type": "Point", "coordinates": [ 76.900092871479814, -0.56920552781692 ] } },
{ "type": "Feature", "properties": { "id": 272, "name": "Vaes Jini (Yinishar)", "size": 4, "confirmed": 1, "type": "ruin" }, "geometry": { "type": "Point", "coordinates": [ 85.121962112468651, -2.02090706226801 ] } },
{ "type": "Feature", "properties": { "id": 274, "name": "Adakhakileki", "size": 4, "confirmed": 1, "type": "ruin" }, "geometry": { "type": "Point", "coordinates": [ 83.754610208459709, -3.339424969705206 ] } },
{ "type": "Feature", "properties": { "id": 275, "name": "Vaes Tolorro", "size": 4, "confirmed": 1, "type": "ruin" }, "geometry": { "type": "Point", "coordinates": [ 79.599281045627336, -12.404790515115145 ] } },
{ "type": "Feature", "properties": { "id": 276, "name": "Vaes Qosar", "size": 4, "confirmed": 1, "type": "ruin" }, "geometry": { "type": "Point", "coordinates": [ 83.150844432663561, -15.032947421521946 ] } },
{ "type": "Feature", "properties": { "id": 277, "name": "Vaes Shirosi", "size": 4, "confirmed": 1, "type": "ruin" }, "geometry": { "type": "Point", "coordinates": [ 78.05435097226659, -14.6067598150776 ] } },
{ "type": "Feature", "properties": { "id": 278, "name": "Vaes Orvik", "size": 4, "confirmed": 1, "type": "ruin" }, "geometry": { "type": "Point", "coordinates": [ 75.710319136822676, -15.228283407808938 ] } },
{ "type": "Feature", "properties": { "id": 279, "name": "Qarkash", "size": 4, "confirmed": 1, "type": "city" }, "geometry": { "type": "Point", "coordinates": [ 80.433898441580851, -16.014066807190712 ] } },
{ "type": "Feature", "properties": { "id": 280, "name": "Port Yhos", "size": 4, "confirmed": 1, "type": "city" }, "geometry": { "type": "Point", "coordinates": [ 75.230858079572798, -16.786531843871089 ] } },
{ "type": "Feature", "properties": { "id": 281, "name": "Gorosh", "size": 4, "confirmed": 1, "type": "ruin" }, "geometry": { "type": "Point", "coordinates": [ 76.322963821086432, -28.730883459897264 ] } },
{ "type": "Feature", "properties": { "id": 282, "name": "Faros", "size": 4, "confirmed": 1, "type": "city" }, "geometry": { "type": "Point", "coordinates": [ 83.923309469343934, -22.455714900427626 ] } },
{ "type": "Feature", "properties": { "id": 283, "name": "Vahar", "size": 4, "confirmed": 1, "type": "city" }, "geometry": { "type": "Point", "coordinates": [ 83.204117883469095, -25.130486076289277 ] } },
{ "type": "Feature", "properties": { "id": 284, "name": "Port Moraq", "size": 4, "confirmed": 1, "type": "city" }, "geometry": { "type": "Point", "coordinates": [ 89.432672173483866, -30.131531270659654 ] } },
{ "type": "Feature", "properties": { "id": 285, "name": "Zabhad", "size": 4, "confirmed": 1, "type": "city" }, "geometry": { "type": "Point", "coordinates": [ 91.40378985328897, -32.590988916182233 ] } },
{ "type": "Feature", "properties": { "id": 286, "name": "Vaes Leisi", "size": 4, "confirmed": 1, "type": "ruin" }, "geometry": { "type": "Point", "coordinates": [ 71.621581787497234, 14.740252397426053 ] } },
{ "type": "Feature", "properties": { "id": 287, "name": "Vaes Aresak (Ibbish)", "size": 4, "confirmed": 1, "type": "ruin" }, "geometry": { "type": "Point", "coordinates": [ 82.933311175207592, 16.045451942161861 ] } },
{ "type": "Feature", "properties": { "id": 288, "name": "New Ibbish", "size": 4, "confirmed": 1, "type": "city" }, "geometry": { "type": "Point", "coordinates": [ 79.546007594821802, 17.896704357654496 ] } },
{ "type": "Feature", "properties": { "id": 289, "name": "Ib Sar", "size": 4, "confirmed": 1, "type": "city" }, "geometry": { "type": "Point", "coordinates": [ 86.711286728167366, 19.674705778289507 ] } },
{ "type": "Feature", "properties": { "id": 290, "name": "Ib Nor", "size": 4, "confirmed": 1, "type": "city" }, "geometry": { "type": "Point", "coordinates": [ 81.122013847819119, 28.404892529047906 ] } },
{ "type": "Feature", "properties": { "id": 291, "name": "Port of Ibben", "size": 5, "confirmed": 1, "type": "city" }, "geometry": { "type": "Point", "coordinates": [ 79.903139344706418, 24.071407502056026 ] } },
{ "type": "Feature", "properties": { "id": 292, "name": "Kayakayanaya", "size": 4, "confirmed": 1, "type": "city" }, "geometry": { "type": "Point", "coordinates": [ 91.111067044073764, 4.606342655004625 ] } },
{ "type": "Feature", "properties": { "id": 293, "name": "Samyriana", "size": 4, "confirmed": 1, "type": "city" }, "geometry": { "type": "Point", "coordinates": [ 89.442744710462023, -3.434361560188001 ] } },
{ "type": "Feature", "properties": { "id": 294, "name": "Bayasabhad", "size": 4, "confirmed": 1, "type": "city" }, "geometry": { "type": "Point", "coordinates": [ 91.804296872195536, -9.917203139656431 ] } },
{ "type": "Feature", "properties": { "id": 295, "name": "Tiqui", "size": 4, "confirmed": 1, "type": "city" }, "geometry": { "type": "Point", "coordinates": [ 98.431878745447619, -8.709764373092687 ] } },
{ "type": "Feature", "properties": { "id": 296, "name": "Trader Town", "size": 4, "confirmed": 1, "type": "city" }, "geometry": { "type": "Point", "coordinates": [ 99.74215929969975, -4.139018253608484 ] } },
{ "type": "Feature", "properties": { "id": 297, "name": "Asabhad", "size": 4, "confirmed": 1, "type": "city" }, "geometry": { "type": "Point", "coordinates": [ 92.162338651555132, -16.491459641514545 ] } },
{ "type": "Feature", "properties": { "id": 298, "name": "Yin", "size": 5, "confirmed": 1, "type": "city" }, "geometry": { "type": "Point", "coordinates": [ 98.439089858798255, -22.505594205841515 ] } },
{ "type": "Feature", "properties": { "id": 299, "name": "Jinqi", "size": 4, "confirmed": 1, "type": "city" }, "geometry": { "type": "Point", "coordinates": [ 109.157896305837212, -19.786205802642744 ] } },
{ "type": "Feature", "properties": { "id": 300, "name": "Asshai", "size": 5, "confirmed": 1, "type": "city" }, "geometry": { "type": "Point", "coordinates": [ 112.795428896627612, -33.863920167859312 ] } },
{ "type": "Feature", "properties": { "id": 301, "name": "Stygai", "size": 4, "confirmed": 1, "type": "ruin" }, "geometry": { "type": "Point", "coordinates": [ 115.705490121998352, -30.761709922054187 ] } },
{ "type": "Feature", "properties": { "id": 302, "name": "Leng Yi", "size": 4, "confirmed": 1, "type": "city" }, "geometry": { "type": "Point", "coordinates": [ 107.101060552069342, -21.683065442228699 ] } },
{ "type": "Feature", "properties": { "id": 303, "name": "Leng Ma", "size": 4, "confirmed": 1, "type": "city" }, "geometry": { "type": "Point", "coordinates": [ 106.506863556536402, -25.27871905622294 ] } },
{ "type": "Feature", "properties": { "id": 304, "name": "Turrani", "size": 4, "confirmed": 1, "type": "city" }, "geometry": { "type": "Point", "coordinates": [ 106.543048629982309, -27.618369726133899 ] } },
{ "type": "Feature", "properties": { "id": 305, "name": "Carcosa", "size": 4, "confirmed": 1, "type": "city" }, "geometry": { "type": "Point", "coordinates": [ 126.174403213166912, -17.153265590064894 ] } },
{ "type": "Feature", "properties": { "id": 306, "name": "City of the Winged Men", "size": 4, "confirmed": 1, "type": "city" }, "geometry": { "type": "Point", "coordinates": [ 123.089149582515091, -13.755677641248312 ] } },
{ "type": "Feature", "properties": { "id": 307, "name": "Bonetown", "size": 4, "confirmed": 1, "type": "city" }, "geometry": { "type": "Point", "coordinates": [ 121.309416169388854, -4.971187697354904 ] } },
{ "type": "Feature", "properties": { "id": 308, "name": "K'Dath", "size": 4, "confirmed": 1, "type": "city" }, "geometry": { "type": "Point", "coordinates": [ 118.11465422247646, -2.374519803732679 ] } },
{ "type": "Feature", "properties": { "id": 309, "name": "Nefer", "size": 4, "confirmed": 1, "type": "city" }, "geometry": { "type": "Point", "coordinates": [ 111.083507513309101, 4.81632696712126 ] } },
{ "type": "Feature", "properties": { "id": 310, "name": null, "size": 4, "confirmed": 1, "type": "ruin" }, "geometry": { "type": "Point", "coordinates": [ 125.319854306625587, -29.730462478543924 ] } },
{ "type": "Feature", "properties": { "id": 311, "name": "Harvest Hall", "size": 3, "confirmed": 1, "type": "castle" }, "geometry": { "type": "Point", "coordinates": [ 13.887979270768971, -3.716633254272738 ] } },
{ "type": "Feature", "properties": { "id": 312, "name": "Vaes Gorqoyi (Mardosh)", "size": 4, "confirmed": 0, "type": "ruin" }, "geometry": { "type": "Point", "coordinates": [ 54.82773054860462, 4.033967506320956 ] } },
{ "type": "Feature", "properties": { "id": 313, "name": "Field of Crows", "size": 1, "confirmed": 0, "type": "other" }, "geometry": { "type": "Point", "coordinates": [ 60.97349142568234, 3.913502426006143 ] } },
{ "type": "Feature", "properties": { "id": 314, "name": "Sarhoy", "size": 4, "confirmed": 1, "type": "ruin" }, "geometry": { "type": "Point", "coordinates": [ 43.245600382365275, -10.805644748527511 ] } },
{ "type": "Feature", "properties": { "id": 315, "name": "Bridge of Skulls", "size": 1, "confirmed": 1, "type": "other" }, "geometry": { "type": "Point", "coordinates": [ 14.5103862776584, 34.924113479198283 ] } }
]
}
